{"type":"FeatureCollection","name":"MEB Tarım Ürünleri Gerçek İlçe Alanları","features":[{"type":"Feature","id":"banana-anamur-alanya","properties":{"id":"banana-anamur-alanya","name":"Muz · Anamur-Alanya","source":"MEB + OpenStreetMap","source_url":"https://ogmmateryal.eba.gov.tr/kitap/mebi-konu-ozetleri/ayt-cografya/files/basic-html/page30.html","boundary_urls":["https://www.openstreetmap.org/relation/1827892","https://www.openstreetmap.org/relation/1726977"],"geometry_note":"MEB'in muz için verdiği Akdeniz mikroklima odağı; Anamur ve Alanya ilçe idari sınırlarının birleşimi"},"geometry":{"type":"MultiPolygon","coordinates":[[[[32.5375555,36.2203186],[32.5459669,36.2125629],[32.5468252,36.2078537],[32.5494002,36.2038368],[32.5559233,36.2027286],[32.5612448,36.1952482],[32.5663946,36.1922005],[32.5729178,36.1910922],[32.5778959,36.1884599],[32.5804709,36.1820866],[32.5892256,36.1750199],[32.588539,36.1707242],[32.5947188,36.1657353],[32.5988386,36.1642109],[32.6053189,36.1599232],[32.5999224,36.1570818],[32.5969076,36.1572031],[32.594676,36.1560943],[32.5931311,36.1534002],[32.5952446,36.1495018],[32.5922727,36.1478904],[32.5929916,36.1457678],[32.5903308,36.145066],[32.5895369,36.1432899],[32.5853848,36.1408726],[32.5860929,36.1379181],[32.5881958,36.1346081],[32.5866829,36.1300936],[32.5871013,36.1285166],[32.5863665,36.1257953],[32.58443,36.1233688],[32.5810718,36.1227969],[32.580428,36.1219044],[32.5784325,36.1224589],[32.5753963,36.1209336],[32.574656,36.1190529],[32.5731218,36.1190009],[32.5725853,36.1177356],[32.5685513,36.1162969],[32.5693452,36.1145895],[32.5674999,36.112466],[32.563498,36.1110358],[32.5637233,36.107196],[32.5617278,36.1025845],[32.5624066,36.1004774],[32.5651607,36.1001956],[32.5772462,36.0915064],[32.581693,36.0902107],[32.5926642,36.0791839],[32.5977666,36.078659],[32.6011293,36.0766329],[32.6083446,36.0761888],[32.6154111,36.0729573],[32.6197305,36.0721391],[32.6298907,36.0657455],[32.6424079,36.0611006],[32.6476411,36.0566196],[32.6526931,36.0555711],[32.6568817,36.0536869],[32.6625072,36.0486713],[32.6635987,36.046648],[32.6653844,36.0462147],[32.6670048,36.0443708],[32.6704574,36.0448511],[32.6727778,36.0429103],[32.6775331,36.0427826],[32.6803019,36.0403071],[32.6836762,36.0429378],[32.6860344,36.0430638],[32.6915223,36.0412256],[32.6936549,36.0393266],[32.6969517,36.0389524],[32.7030104,36.036416],[32.7076828,36.036815],[32.7090347,36.0354876],[32.7152091,36.0368628],[32.7160674,36.0356438],[32.7185619,36.036134],[32.719388,36.0355354],[32.7216518,36.0365982],[32.7243179,36.0365982],[32.7244198,36.0357089],[32.7304172,36.0355093],[32.731303,36.033832],[32.7355563,36.0318397],[32.7379075,36.0333115],[32.7406621,36.0335476],[32.743602,36.0324525],[32.745942,36.032767],[32.7482113,36.0311181],[32.7526337,36.0313337],[32.754406,36.030669],[32.7546859,36.0292451],[32.7580011,36.030039],[32.7653204,36.0284745],[32.7681559,36.0301127],[32.771952,36.0294486],[32.7755647,36.0275656],[32.7818537,36.0259238],[32.784154,36.026615],[32.7911692,36.0254897],[32.7984005,36.0204248],[32.7996972,36.0176531],[32.8029936,36.0167224],[32.804105,36.017399],[32.8047693,36.0167731],[32.8034659,36.020108],[32.8038012,36.0211435],[32.8079009,36.0269631],[32.8106421,36.0298568],[32.8117096,36.0298741],[32.8113985,36.0307591],[32.8133726,36.0332622],[32.820864,36.038381],[32.8358522,36.0420312],[32.8437245,36.0470767],[32.8558159,36.0600713],[32.8650695,36.0682909],[32.8693503,36.0711267],[32.8754559,36.0738082],[32.8800336,36.0738481],[32.8881565,36.0790929],[32.8948273,36.0801927],[32.8964718,36.0819333],[32.905241,36.0859132],[32.9097578,36.0863315],[32.913757,36.0877058],[32.9184884,36.0870338],[32.9214388,36.0856357],[32.9215971,36.086364],[32.9230589,36.0867867],[32.9233754,36.0880287],[32.9268247,36.0886248],[32.9201904,36.0959188],[32.9111352,36.0987796],[32.9090968,36.1137061],[32.9071441,36.1195996],[32.9001918,36.1237075],[32.9015866,36.1295483],[32.9002991,36.1322172],[32.9053202,36.1380747],[32.9109207,36.1410379],[32.9138389,36.146063],[32.9181519,36.1495458],[32.925334,36.1574344],[32.9330561,36.1579677],[32.9244497,36.1737427],[32.9283662,36.1822405],[32.9308674,36.1936794],[32.9363461,36.2005035],[32.9393236,36.2079036],[32.931582,36.2150148],[32.9296764,36.2224135],[32.9261033,36.2211644],[32.926937,36.2177053],[32.9241977,36.2153991],[32.9228875,36.2121319],[32.9259842,36.2099217],[32.9227684,36.2090568],[32.9184808,36.2104022],[32.9180044,36.2129007],[32.9185999,36.2158796],[32.9220538,36.221837],[32.9190763,36.2221253],[32.9168133,36.2202036],[32.9147886,36.2124202],[32.9133594,36.2151109],[32.912883,36.2198192],[32.9163369,36.2254881],[32.916456,36.2304841],[32.9099054,36.2244312],[32.9077616,36.2270254],[32.9087144,36.2335583],[32.9051414,36.235864],[32.9051414,36.237305],[32.9074043,36.2376892],[32.9133594,36.2357679],[32.9169324,36.2361522],[32.9272943,36.2432607],[32.9314629,36.2496003],[32.9330112,36.2541145],[32.9266988,36.2568037],[32.9237213,36.2593967],[32.9299146,36.262758],[32.930391,36.2671754],[32.9266988,36.2699601],[32.9286044,36.2746652],[32.9271752,36.2769696],[32.9298111,36.2847144],[32.9236178,36.2935465],[32.9285316,36.295633],[32.9424967,36.3047194],[32.9538841,36.3185225],[32.9643057,36.3248071],[32.9701422,36.3422313],[32.9897116,36.3472089],[33.0022429,36.3400189],[33.0051611,36.3394658],[33.0121992,36.3429226],[33.0243872,36.3427844],[33.0278204,36.3560572],[33.0391501,36.3631075],[33.0382918,36.366978],[33.0329703,36.3676691],[33.0240439,36.3737509],[33.0252455,36.3799703],[33.0158041,36.3914405],[33.0055044,36.3961386],[33.0056761,36.4006983],[33.0072211,36.4040142],[32.9972647,36.4089879],[32.9890249,36.4059485],[32.98748,36.401251],[32.9806135,36.3995929],[32.9756354,36.4009746],[32.9723738,36.4062248],[32.966194,36.4085735],[32.9567526,36.4192106],[32.9402731,36.4219732],[32.926197,36.4359057],[32.9189443,36.4372177],[32.9092026,36.4417059],[32.9085588,36.4433976],[32.9064989,36.444088],[32.8980875,36.4448303],[32.8932273,36.4437946],[32.8883135,36.4441657],[32.8850198,36.4431128],[32.8831637,36.441378],[32.8765118,36.4450201],[32.8750527,36.4473072],[32.8724992,36.4492576],[32.8717375,36.4512253],[32.8677249,36.4485759],[32.866931,36.447126],[32.8624034,36.4485845],[32.840656,36.4510354],[32.8355169,36.4544959],[32.8353023,36.4611231],[32.8366542,36.4624174],[32.8301954,36.4629697],[32.8194236,36.460847],[32.8128147,36.4616063],[32.7984809,36.4605709],[32.7951335,36.465679],[32.7970647,36.475066],[32.7934226,36.4806493],[32.7917003,36.4799143],[32.7902412,36.4820537],[32.7905201,36.4847969],[32.7887392,36.4845036],[32.788825,36.4853489],[32.7867221,36.4845899],[32.7828598,36.4859355],[32.7785253,36.4847624],[32.7566385,36.4877642],[32.7584409,36.4817259],[32.7495152,36.4839903],[32.73136,36.4837337],[32.7160604,36.4908579],[32.7115344,36.4916285],[32.7111083,36.4968415],[32.7053107,36.4968152],[32.6970503,36.520351],[32.6697245,36.5171117],[32.6615813,36.5190669],[32.6264724,36.5201876],[32.6153646,36.5177899],[32.626283,36.5107746],[32.6146744,36.4978559],[32.6177214,36.4910766],[32.6187728,36.4856424],[32.6171849,36.478724],[32.6121546,36.4720866],[32.6018911,36.4639811],[32.6014136,36.4614684],[32.5993536,36.4580168],[32.5918005,36.4548412],[32.5940321,36.4505609],[32.596607,36.4498705],[32.597637,36.4414471],[32.6008986,36.4381328],[32.6021002,36.4326085],[32.6010702,36.4301225],[32.6029585,36.4247358],[32.6058768,36.4223876],[32.6065634,36.4179674],[32.5990103,36.4034616],[32.598667,36.3987639],[32.6026152,36.3955859],[32.6050184,36.3910259],[32.5993536,36.3882622],[32.596607,36.383149],[32.6015852,36.3799703],[32.6057051,36.3784501],[32.6149748,36.3792793],[32.6170347,36.3755477],[32.6220129,36.3696043],[32.6228712,36.3644899],[32.6211546,36.355366],[32.6170347,36.3463793],[32.619953,36.3409868],[32.619438,36.3383596],[32.6168631,36.3339345],[32.6094816,36.3277114],[32.6151465,36.3210728],[32.6132582,36.3159552],[32.614846,36.3151599],[32.6122282,36.3012921],[32.6158331,36.2974183],[32.6190947,36.2860727],[32.6187514,36.2815063],[32.6213263,36.2791538],[32.6218413,36.274587],[32.618408,36.2662831],[32.6108549,36.2541023],[32.6074217,36.2510569],[32.6012419,36.2513337],[32.5790976,36.2398429],[32.5612448,36.2323661],[32.5514601,36.2336123],[32.5490568,36.2287659],[32.5435637,36.2246116],[32.5397871,36.2230883],[32.5375555,36.2203186]]],[[[31.6461579,36.664896],[31.649141,36.6638341],[31.6528505,36.6611941],[31.6634023,36.651748],[31.6643957,36.6501776],[31.6641328,36.6492012],[31.668862,36.6500178],[31.6731065,36.6485793],[31.6744606,36.6463495],[31.672162,36.644092],[31.6803485,36.6456149],[31.681347,36.646829],[31.6813662,36.6486497],[31.6825113,36.6486555],[31.6822418,36.6479207],[31.6829127,36.6477757],[31.684214,36.6480962],[31.6843679,36.6484189],[31.683716,36.648139],[31.6833036,36.648532],[31.6862558,36.6493704],[31.688306,36.6488956],[31.6901493,36.6472762],[31.6947422,36.6473075],[31.701979,36.642816],[31.7088674,36.6422085],[31.7116466,36.6432113],[31.716352,36.641173],[31.7186688,36.6413948],[31.7215057,36.6404553],[31.7220461,36.639124],[31.7249751,36.6403766],[31.7257817,36.6390474],[31.7243351,36.6384049],[31.7258304,36.6379172],[31.7305122,36.6406721],[31.7351389,36.6417425],[31.7370407,36.6397405],[31.7392327,36.6396378],[31.7390272,36.6384977],[31.7402631,36.6371407],[31.7416228,36.6375499],[31.7416348,36.6384017],[31.744774,36.638136],[31.7486873,36.6358942],[31.7540976,36.6312212],[31.7547576,36.6292527],[31.7533385,36.628086],[31.7540596,36.6274408],[31.7532201,36.6276001],[31.7534696,36.6269113],[31.7555603,36.6254464],[31.7559278,36.626028],[31.7565393,36.6254141],[31.7578546,36.6258649],[31.7580839,36.6245315],[31.7570744,36.6244304],[31.7577407,36.6233275],[31.758787,36.6228385],[31.7600099,36.6244982],[31.7620637,36.6241972],[31.7630327,36.6229417],[31.7627092,36.622158],[31.7618841,36.6226509],[31.7622881,36.6218821],[31.7644836,36.6206458],[31.765299,36.6209697],[31.7647524,36.62044],[31.7688856,36.6183546],[31.76864,36.6173881],[31.7705051,36.617167],[31.7743106,36.6143857],[31.7758223,36.6113295],[31.7753794,36.608288],[31.774177,36.6066432],[31.7708224,36.6069646],[31.7773925,36.603562],[31.7789349,36.6045484],[31.7789545,36.6056232],[31.7807147,36.6049495],[31.7843649,36.6071672],[31.7870776,36.6070297],[31.7886105,36.6062244],[31.7886212,36.6053793],[31.7961019,36.602114],[31.7976793,36.6002557],[31.801763,36.5996002],[31.8036757,36.5981736],[31.8130368,36.5949893],[31.813598,36.5942046],[31.8148357,36.5943597],[31.8162748,36.5934014],[31.8194345,36.5936296],[31.8203939,36.5946846],[31.822709,36.5952818],[31.8290974,36.595204],[31.8538132,36.5890385],[31.865048,36.5853969],[31.8961161,36.5723135],[31.8998265,36.5715226],[31.900983,36.5715868],[31.9009368,36.5722031],[31.9030459,36.5717867],[31.915702,36.5658328],[31.9189234,36.5635734],[31.9244859,36.5640111],[31.9383931,36.5594115],[31.9384895,36.558619],[31.945639,36.5591542],[31.9481998,36.5569412],[31.9516941,36.5574306],[31.9485324,36.5572168],[31.9471777,36.5581635],[31.9479092,36.5602634],[31.9502612,36.55936],[31.9501861,36.5581685],[31.9517264,36.5594816],[31.953687,36.5588417],[31.9530211,36.5574655],[31.9541277,36.5587126],[31.95492,36.5582496],[31.9575594,36.558983],[31.9641509,36.5575677],[31.9755946,36.5513947],[31.9886304,36.5410372],[31.9891954,36.5373979],[31.9872631,36.5344692],[31.9887297,36.5317631],[31.9881999,36.5297743],[31.9856813,36.5272755],[31.9895246,36.5298131],[31.9935786,36.5291806],[32.0000824,36.5308078],[31.9995625,36.5334969],[31.9981105,36.5357049],[32.0004515,36.5376019],[32.0046646,36.5389484],[32.0003037,36.5379675],[31.9993579,36.5368617],[31.9987242,36.5369885],[31.9991284,36.5397351],[32.0022769,36.5415177],[32.0034036,36.5394617],[32.0028309,36.5408363],[32.0040945,36.5421759],[32.0097199,36.5431705],[32.0146072,36.5427495],[32.0207468,36.540951],[32.0454736,36.5278604],[32.0527066,36.5226381],[32.0653344,36.5117435],[32.0770053,36.5042636],[32.1000045,36.4809839],[32.114746,36.469195],[32.118294,36.464854],[32.1230617,36.4560019],[32.1239272,36.4536761],[32.1229685,36.4519423],[32.1237548,36.4514863],[32.1235378,36.4504449],[32.1271933,36.4477773],[32.1270463,36.4471488],[32.128185,36.4473177],[32.1297079,36.4446064],[32.1310642,36.444347],[32.1308818,36.4435465],[32.132907,36.4413417],[32.133092,36.4396604],[32.1346396,36.4374767],[32.1366996,36.4376881],[32.1398932,36.4366787],[32.1465051,36.4318398],[32.1489588,36.4315028],[32.16524,36.41766],[32.1679911,36.4144409],[32.1754344,36.4011633],[32.193643,36.376232],[32.1945399,36.3736765],[32.1938786,36.3695557],[32.1983423,36.3654143],[32.200955,36.360352],[32.205625,36.35396],[32.2057235,36.3526181],[32.206922,36.351399],[32.20626,36.3508727],[32.207895,36.34935],[32.2086954,36.3469755],[32.2103155,36.3462755],[32.211163,36.3444953],[32.210927,36.3429657],[32.213382,36.34065],[32.2138281,36.338909],[32.2165924,36.337131],[32.2161519,36.3363068],[32.217536,36.3348635],[32.220596,36.333889],[32.2221025,36.3319532],[32.2214325,36.330843],[32.2225463,36.331389],[32.2241986,36.330892],[32.2287092,36.3268379],[32.2301457,36.3226522],[32.2329416,36.3220921],[32.2342301,36.3204148],[32.2336822,36.3189135],[32.2351715,36.3198124],[32.2371731,36.3184],[32.2411448,36.3182978],[32.2461499,36.31382],[32.2679,36.3276],[32.2703,36.3303],[32.2705,36.335],[32.2762,36.3359],[32.2759,36.3346],[32.2789,36.333],[32.2806,36.3348],[32.2795,36.3364],[32.2809,36.3371],[32.2811,36.3395],[32.2765,36.3469],[32.2791,36.3511],[32.2767,36.3579],[32.2827,36.3685],[32.2808,36.3755],[32.2847,36.3856],[32.2948,36.3885],[32.2943,36.3923],[32.2987138,36.3999755],[32.2970151,36.4021144],[32.2987532,36.4032542],[32.298367,36.4049294],[32.3007917,36.4071918],[32.3022723,36.4071745],[32.3055339,36.409385],[32.30563,36.4135091],[32.3070359,36.4148418],[32.3047059,36.4167615],[32.3040533,36.4185198],[32.3084325,36.4215312],[32.3087311,36.4230091],[32.3057657,36.4273038],[32.3061776,36.4289311],[32.3085594,36.4297425],[32.3104477,36.4320646],[32.3123551,36.4313793],[32.3146641,36.4319092],[32.3168635,36.4331867],[32.3171103,36.4345074],[32.3190093,36.4359921],[32.3234081,36.4364927],[32.3255539,36.4359575],[32.3337936,36.4381154],[32.3351749,36.4401355],[32.3364115,36.4398848],[32.3387396,36.4418613],[32.3382354,36.4460558],[32.3392009,36.4482825],[32.3414762,36.4480673],[32.3450804,36.4509405],[32.3472693,36.4511733],[32.3489427,36.4527355],[32.3524618,36.453167],[32.3538673,36.4541594],[32.3544313,36.4534946],[32.3622343,36.4545856],[32.3709368,36.4541163],[32.3784685,36.4548757],[32.3807,36.4557],[32.3836,36.4594],[32.3849,36.4662],[32.3898,36.4648],[32.4029775,36.4663269],[32.3956592,36.4671424],[32.3944349,36.4720275],[32.401596,36.4869249],[32.4010737,36.4930765],[32.3951773,36.4944771],[32.3995,36.4967445],[32.4038081,36.496524],[32.4079939,36.4997583],[32.4171,36.5013],[32.4276,36.5081],[32.4321,36.5076],[32.4371,36.5109],[32.4464,36.5139],[32.4503946,36.5136718],[32.4524545,36.5160172],[32.456383,36.5168083],[32.4553942,36.5188971],[32.4572611,36.5182936],[32.4578619,36.5198456],[32.4625611,36.5203802],[32.4629611,36.5207947],[32.4579263,36.5275362],[32.4594927,36.5316399],[32.4579692,36.5346916],[32.4585914,36.5371054],[32.4580335,36.5395363],[32.4606014,36.5407923],[32.4600076,36.5414671],[32.461338,36.5445013],[32.4702644,36.5486385],[32.4713421,36.5504619],[32.4752425,36.5509484],[32.4789332,36.552879],[32.488594,36.5530629],[32.4948978,36.5557748],[32.498331,36.5584636],[32.4987601,36.5624622],[32.4965285,36.5690802],[32.4963568,36.5756976],[32.5013,36.5822],[32.4982,36.5915],[32.5037,36.5982],[32.5106,36.6004],[32.5137,36.6119],[32.5137,36.618],[32.4982451,36.6224167],[32.4838255,36.6214523],[32.4793623,36.6233811],[32.4736975,36.62407],[32.4695776,36.6266875],[32.4635695,36.634953],[32.4658011,36.6388099],[32.4642561,36.6422534],[32.4659727,36.6433553],[32.4690626,36.6474873],[32.4685476,36.6532716],[32.4700926,36.6549242],[32.4761007,36.6565768],[32.4802206,36.6587801],[32.4761007,36.6704844],[32.4700926,36.6791582],[32.4783323,36.6920982],[32.4833105,36.6934746],[32.4865721,36.6977415],[32.489662,36.700219],[32.4951552,36.7017329],[32.50082,36.7000813],[32.5069998,36.6969157],[32.5160979,36.7026963],[32.5176428,36.7071003],[32.5238226,36.7134307],[32.5251959,36.7172836],[32.5286291,36.7194853],[32.5262259,36.7229251],[32.5279425,36.728979],[32.5265692,36.7313179],[32.5281141,36.7355826],[32.5312041,36.7384716],[32.5257109,36.7431486],[32.5212477,36.7515391],[32.5229643,36.7560779],[32.5160979,36.770655],[32.5095747,36.7699675],[32.4979017,36.7672173],[32.488632,36.7699675],[32.4857138,36.7621291],[32.4812506,36.7580033],[32.4738692,36.7538773],[32.4645993,36.7559405],[32.4594494,36.7520894],[32.4536129,36.7603414],[32.4498364,36.7677675],[32.4431263,36.771068],[32.4366549,36.7710087],[32.4331854,36.7685924],[32.4321554,36.7661172],[32.4326704,36.7606163],[32.424774,36.7490633],[32.4215124,36.7428735],[32.4137877,36.7333815],[32.4074362,36.7347572],[32.4017714,36.7391594],[32.3940466,36.7403975],[32.3871802,36.7428735],[32.3852919,36.745212],[32.3784254,36.761304],[32.3737906,36.7626792],[32.3696707,36.7659796],[32.3662375,36.7717551],[32.3559378,36.7757426],[32.3494147,36.770105],[32.3513029,36.761304],[32.3561094,36.7549776],[32.3591994,36.7487882],[32.3518179,36.745212],[32.3557661,36.737371],[32.3526762,36.7271904],[32.3360251,36.717834],[32.3346518,36.7079261],[32.3286436,36.7020082],[32.3117348,36.7042104],[32.2895047,36.6951265],[32.2654721,36.6772309],[32.2351571,36.6733718],[32.2130803,36.6774481],[32.1466913,36.6940056],[32.1247734,36.6964253],[32.078813,36.6990952],[32.074753,36.7016474],[32.0794581,36.7082013],[32.0718875,36.7131609],[32.0676658,36.7179526],[32.0683196,36.7197494],[32.0671615,36.7216959],[32.0645649,36.7219505],[32.0615388,36.7237023],[32.0593906,36.7265171],[32.0418781,36.7355122],[32.0362347,36.7434393],[32.0246905,36.7434909],[31.9905728,36.7652904],[31.980831,36.7640012],[31.9785136,36.7655311],[31.9757884,36.7654967],[31.9642013,36.769433],[31.9540965,36.7668676],[31.9491275,36.7691924],[31.9424455,36.7684666],[31.9340788,36.7719481],[31.9303414,36.7764499],[31.9249902,36.7811328],[31.8924013,36.780033],[31.8878569,36.7818812],[31.880099,36.7820399],[31.8762342,36.7836273],[31.8712793,36.7828336],[31.867273,36.7790238],[31.8579295,36.7733202],[31.839101,36.7743181],[31.8280304,36.771347],[31.8206971,36.7628869],[31.8084232,36.7573181],[31.7956113,36.7539608],[31.7772924,36.7522707],[31.76407,36.7496505],[31.7551512,36.7446707],[31.7514386,36.7402816],[31.7518243,36.7378091],[31.7538907,36.736015],[31.7541842,36.734486],[31.7532566,36.732008],[31.7505042,36.7304914],[31.7496255,36.7279561],[31.7479282,36.726472],[31.7414192,36.724293],[31.7393895,36.7223408],[31.739726,36.7209924],[31.7362993,36.7170073],[31.7323095,36.7138091],[31.7296211,36.7074727],[31.7308261,36.7045747],[31.7298886,36.7016934],[31.7260106,36.6981457],[31.7275704,36.6949516],[31.7231429,36.6935407],[31.7223261,36.6907874],[31.7116541,36.6891355],[31.7086025,36.6859553],[31.7088601,36.6842044],[31.7079491,36.6832329],[31.7064606,36.6820463],[31.7042704,36.6820463],[31.6971552,36.6795983],[31.693099,36.6740901],[31.688002,36.6759863],[31.6857599,36.6751473],[31.6831556,36.6727673],[31.6833557,36.6710898],[31.6853116,36.6695891],[31.6860327,36.6675768],[31.6836127,36.6646301],[31.6758917,36.6646098],[31.6753176,36.6654963],[31.6756823,36.6674339],[31.6740761,36.6677674],[31.6702031,36.6626459],[31.667068,36.662799],[31.6660867,36.6641787],[31.6618718,36.6652272],[31.6613593,36.6666451],[31.6620331,36.6682164],[31.6596751,36.6701999],[31.6519056,36.6657662],[31.6461579,36.664896]]],[[[31.6608609,36.647309],[31.6636273,36.6463385],[31.6644631,36.6467186],[31.6617333,36.6478723],[31.6608609,36.647309]]]]}}]}