{"type":"FeatureCollection","features":[{"type":"Feature","properties":{"id":"kizoren","name":"Kızören Obruğu","source":"OpenStreetMap"},"geometry":{"type":"Polygon","coordinates":[[[33.1838,38.17489],[33.18403,38.17434],[33.1842,38.17405],[33.1845,38.17386],[33.185,38.17368],[33.18553,38.17367],[33.18568,38.17382],[33.18613,38.17385],[33.18629,38.17398],[33.18659,38.17401],[33.18686,38.17414],[33.1872,38.17439],[33.18736,38.1747],[33.18748,38.17487],[33.18749,38.175],[33.1877,38.17522],[33.18767,38.17541],[33.18733,38.17553],[33.18682,38.1758],[33.18634,38.17593],[33.18624,38.17594],[33.18588,38.17591],[33.18556,38.17617],[33.18502,38.17605],[33.18471,38.17563],[33.18427,38.17523],[33.1838,38.17489]]]}},{"type":"Feature","properties":{"id":"avlan","name":"Avlan Gölü","source":"OpenStreetMap"},"geometry":{"type":"Polygon","coordinates":[[[29.92146,36.58251],[29.9241,36.57937],[29.92858,36.57833],[29.93457,36.57673],[29.93781,36.57136],[29.94835,36.57341],[29.95026,36.57136],[29.9505,36.57243],[29.95118,36.57234],[29.95663,36.57385],[29.95762,36.57771],[29.96054,36.57584],[29.96703,36.57772],[29.96532,36.58293],[29.96134,36.58543],[29.95322,36.589],[29.9501,36.57675],[29.94824,36.58799],[29.9496,36.57515],[29.94776,36.58526],[29.94027,36.58734],[29.93031,36.59053],[29.92649,36.59025],[29.92771,36.58861],[29.92735,36.58641],[29.92501,36.58457],[29.92146,36.58251]]]}}]}
