{
  "type": "FeatureCollection",
  "features": [
    {
      "type": "Feature",
      "properties": {
        "id": "aktas",
        "name": "Aktaş Gölü",
        "source": "OpenStreetMap relation 4011904, simplified shoreline"
      },
      "geometry": {
        "type": "Polygon",
        "coordinates": [[
          [43.23105, 41.19214],
          [43.2186, 41.19345],
          [43.21513, 41.19676],
          [43.21175, 41.19019],
          [43.21276, 41.18805],
          [43.21013, 41.1873],
          [43.20608, 41.18857],
          [43.20295, 41.18661],
          [43.19381, 41.18836],
          [43.18906, 41.18711],
          [43.18114, 41.18917],
          [43.17121, 41.18654],
          [43.16664, 41.19305],
          [43.16923, 41.19725],
          [43.1746, 41.19907],
          [43.17755, 41.19807],
          [43.18263, 41.20284],
          [43.19523, 41.20789],
          [43.19313, 41.21257],
          [43.19508, 41.21758],
          [43.18981, 41.22575],
          [43.19316, 41.22953],
          [43.21736, 41.23501],
          [43.25091, 41.23516],
          [43.2549, 41.23183],
          [43.25585, 41.225],
          [43.25312, 41.22259],
          [43.25182, 41.21719],
          [43.25171, 41.21244],
          [43.25339, 41.21092],
          [43.24985, 41.20666],
          [43.25212, 41.20515],
          [43.25226, 41.20219],
          [43.2389, 41.19315],
          [43.23105, 41.19214]
        ]]
      }
    }
  ]
}
