{"type":"FeatureCollection","name":"MEB Nüfus Haritası Fiziki Yöreleri","features":[{"type":"Feature","id":"population-yildiz","properties":{"id":"population-yildiz","name":"Yıldız Dağları · Seyrek","source":"MEB","source_url":"https://ogmmateryal.eba.gov.tr/panel/upload/etkilesimli/kitap/defterim/10/cografya/files/basic-html/page139.html","geometry_note":"MEB'deki Yıldız Dağları konumu; gerçek dağ ekseni boyunca"},"geometry":{"type":"Polygon","coordinates":[[[26.97989694114526,41.876854850092116],[27.526236163516863,41.938645544616115],[27.5622785924581,41.9049170636914],[27.574093838597697,41.934657405026044],[28.052265733368685,41.89480974712846],[27.9982323732085,41.8877461779806],[27.9822586487427,41.8283766267579],[28.0419687260276,41.7296366120494],[28.1005908249888,41.6772996402304],[28.0881309652986,41.6563035622975],[28.140517155451416,41.581925662524036],[28.1822554994761,41.570435237265],[28.2736649214385,41.4958641540167],[28.5929127204725,41.36809204838478],[27.504972036190903,41.458753772074914],[26.729768336301408,41.361853309588724],[26.676029357990537,41.36120006632821],[26.632554645698036,41.37002933810393],[26.6290048122177,41.4182080838605],[26.6134786688278,41.4247252558856],[26.5920714474564,41.6101060773575],[26.526692829756,41.6234661787087],[26.4889470792648,41.6535022275649],[26.4932182291181,41.6719075142742],[26.471042664867834,41.67113049778641],[26.528244144681018,41.76763032590688],[26.643754871321445,41.8333162778289],[26.97696336122294,41.87648815260182],[26.9913353347102,41.8418298969389],[26.97989694114526,41.876854850092116]],[[28.130450919469126,41.594181787739295],[28.12269065509314,41.595671178056044],[28.1296662104369,41.5923474026294],[28.130450919469126,41.594181787739295]],[[28.1230121647174,41.5646960333518],[28.12584606581071,41.56787298570616],[28.1236558040611,41.558173819431005],[28.1230121647174,41.5646960333518]],[[28.117540395907742,41.54006616103075],[28.1241830332419,41.5528312288388],[28.12404040522638,41.55427652648476],[28.117540395907742,41.54006616103075]],[[28.0741479048554,41.5051378379895],[28.1112254180407,41.5279307520623],[28.112637898134366,41.5306450962702],[28.0741479048554,41.5051378379895]],[[27.9716789604412,41.5564799086146],[27.96791817215104,41.55298643134094],[28.0034003979249,41.5511453722165],[27.9716789604412,41.5564799086146]],[[26.89913486459111,41.6554594359022],[26.9571032183125,41.6771680737391],[26.9000586057401,41.657431118775],[26.89913486459111,41.6554594359022]],[[26.888207196673257,41.38487228775566],[26.882800551540537,41.400057738268025],[26.8806425772178,41.3956356597068],[26.888207196673257,41.38487228775566]]]}},{"type":"Feature","id":"population-teke","properties":{"id":"population-teke","name":"Teke Yöresi · Seyrek","source":"MEB","source_url":"https://ogmmateryal.eba.gov.tr/panel/upload/etkilesimli/kitap/defterim/10/cografya/files/basic-html/page139.html","geometry_note":"MEB'deki Teke Yöresi; Teke Yarımadası fiziki sınır odağı"},"geometry":{"type":"Polygon","coordinates":[[[29.537583448478,37.4759154088654],[29.53804161923535,37.49663653475551],[30.05,37.62],[30.8,37.28],[30.96077766186552,36.85554697267503],[30.7586340895365,36.8465746771132],[30.6964220790859,36.8849733039454],[30.632774326363,36.8580676716882],[30.5744982960124,36.7937259644209],[30.563870987138,36.7262457068756],[30.5559607011474,36.6262846011662],[30.5914974331305,36.5915135215501],[30.5086872277971,36.4412278050202],[30.4824050209565,36.4359830308069],[30.4770627357927,36.3999781681911],[30.5291156176275,36.3363866488617],[30.411015900516997,36.268558745284345],[30.2794986731307,36.3153123280996],[30.1934475640878,36.315161883867],[30.150560050426,36.3011980772656],[30.1513741796718,36.2738779738638],[30.1151805629529,36.2479207005604],[30.0528304274391,36.2749368488689],[30.0463821144988,36.2530192714184],[29.9825200043239,36.2195856475215],[29.9243884861401,36.2337673464665],[29.8866473156084,36.1940602389696],[29.8404875885995,36.1949837778169],[29.7817371234312,36.1393232318933],[29.7594859402622,36.1416709843961],[29.7793918247092,36.1596376060329],[29.7238785612844,36.163844428742],[29.6857703685633,36.1350055981921],[29.6313138601318,36.1706910160239],[29.6508487867841,36.1746519814666],[29.6451076407145,36.1966346536108],[29.5841956089299,36.1874865943996],[29.630280348348,36.2055698835828],[29.4109219169044,36.226803225697],[29.4132492278706,36.2622098647271],[29.3739719072474,36.2612833424665],[29.3519409212882,36.2313225995789],[29.2299245103446,36.3261574573784],[29.1662745714343,36.3413480355015],[29.1398491380154,36.3776972186952],[29.1012295481194,36.3885396823033],[29.1337125735238,36.4255984236052],[29.1031416448452,36.4727613360335],[29.1200608862411,36.5490337324059],[29.0956932370662,36.5472392170347],[29.0886096142529,36.564906040225],[29.0524370746633,36.5584755614396],[29.0519210706251,36.5393382486733],[29.0111213118707,36.543909090299],[29.0468113561049,36.5589450621641],[29.0231928746637,36.5836785430213],[29.0404761792689,36.6190943602483],[29.0733001267209,36.6143377175165],[29.0793992890545,36.6455495090862],[29.1012493707795,36.6330465669088],[29.0915344681874,36.6202778820959],[29.1158727522945,36.6259028500362],[29.1220005998194,36.6477462484798],[29.0967975944667,36.676001387769],[29.0554468430947,36.6819507637716],[28.9296696480541,36.7554491009042],[28.9289604804168,36.7348913409827],[28.8949680231838,36.7125671688576],[28.9086479799561,36.707139889622],[28.8705923850218,36.6970162285537],[28.8508779807788,36.661187009891],[28.8708231998775,36.633851394229],[28.9059446306513,36.6451663495335],[28.8460366299156,36.5891582919856],[28.8258532359446,36.6171322720018],[28.8505192299965,36.6365276357852],[28.8170765392076,36.6592688709102],[28.7963851496735,36.6510401257401],[28.8048105791866,36.6682941517924],[28.7862545458907,36.6866437494512],[28.7264452681341,36.7056555849961],[28.670185462966,36.6937521786522],[28.6591370319047,36.7182557421641],[28.6188019289074,36.7044313560488],[28.6322994569322,36.7550600167554],[28.6134299728254,36.7647742416161],[28.6298758963453,36.7816656565737],[28.611971745246816,36.79627677185965],[28.62,36.88],[28.912564213583156,37.14330779222484],[28.9437001845386,37.1381780203322],[28.912826414853622,37.143543773368265],[29.22,37.42],[29.537782089002544,37.49657399735001],[29.537583448478,37.4759154088654]],[[29.537583448478,37.4759154088654],[29.5499029728453,37.4454886669636],[29.550261991809144,37.44522848876811],[29.537583448478,37.4759154088654]],[[30.7671453548434,37.2311313354048],[30.79213698464738,37.2380060234713],[30.7851457175819,37.2384080772081],[30.7671453548434,37.2311313354048]],[[30.7429533785786,37.2432592391054],[30.7489534991895,37.2347697059787],[30.750166955756487,37.23452701470245],[30.7429533785786,37.2432592391054]],[[30.43954623900103,37.26056350151938],[30.4399472729469,37.2603021351974],[30.4903099897216,37.2410251509794],[30.43954623900103,37.26056350151938]],[[30.3555625936372,37.30581369062],[30.3687756255481,37.2934942937214],[30.370047008181857,37.2930867992897],[30.3555625936372,37.30581369062]],[[30.231394014745497,37.3458960690407],[30.2807525763309,37.3140478993166],[30.2353686822903,37.3459634363456],[30.231394014745497,37.3458960690407]],[[30.203052878276303,37.340401585688646],[30.223080655051902,37.345755164517016],[30.2127724824587,37.3455804495759],[30.203052878276303,37.340401585688646]],[[30.146674736504345,37.306328868760325],[30.180186135284952,37.32821757620898],[30.1518856174558,37.3131383068246],[30.146674736504345,37.306328868760325]],[[30.12316422145217,37.29219752186337],[30.1253638062428,37.2924091657659],[30.126771630018563,37.29332871684071],[30.12316422145217,37.29219752186337]],[[29.91882467237483,37.18257801752562],[29.9856615237954,37.2113117867985],[29.9406499776544,37.1951625252907],[29.91882467237483,37.18257801752562]],[[29.9856615237954,37.2113117867985],[30.044003717280397,37.28447054028381],[30.0421201082095,37.284334535159],[29.9856615237954,37.2113117867985]],[[29.884454279591267,37.16275999118725],[29.8719039121463,37.1555234281911],[29.868779141455537,37.152352629820655],[29.8694145004875,37.1529701854498],[29.884454279591267,37.16275999118725]],[[29.8628930924367,37.0916710782963],[29.833781630799606,37.11683960798975],[29.8329031262992,37.1159481631722],[29.8628930924367,37.0916710782963]],[[29.810893327557096,37.00207404406319],[29.8578717140187,37.0263080590165],[29.859025588304043,37.030124980381935],[29.810893327557096,37.00207404406319]],[[29.8119241796254,36.8731952329785],[29.80760509405519,36.88354196359762],[29.810454404715703,36.86366892214577],[29.8119241796254,36.8731952329785]],[[29.7767546120293,36.8099429818773],[29.778396195337,36.823544671248],[29.775798650671426,36.80929528342097],[29.7767546120293,36.8099429818773]],[[29.778396195337,36.823544671248],[29.8095765046308,36.8579788337971],[29.81000163016408,36.860734274746754],[29.778396195337,36.823544671248]],[[29.7874151315971,36.9319087068279],[29.785089910087496,36.93323796068764],[29.788634990308267,36.92898643328813],[29.7874151315971,36.9319087068279]],[[29.77829160242035,36.985256295435036],[29.7642634449021,36.9820731253634],[29.73788195694474,36.96492683942082],[29.73834969637255,36.964652081000864],[29.77829160242035,36.985256295435036]],[[29.770913608320484,36.80598549023347],[29.7547104940528,36.7972793397538],[29.755450712275724,36.79550881791187],[29.770913608320484,36.80598549023347]],[[29.7594789029379,36.7759387571781],[29.759476052742258,36.77595160896838],[29.75944968312786,36.775757756718676],[29.7594789029379,36.7759387571781]],[[29.7566647598157,36.7585067068922],[29.75718524408868,36.761730817261025],[29.751536362159335,36.75564434577688],[29.7566647598157,36.7585067068922]],[[29.746516576537104,36.75023570342458],[29.741108805088,36.7006604411223],[29.744193543833216,36.679425960975216],[29.7448609947162,36.6820558316585],[29.746516576537104,36.75023570342458]],[[29.735934769200046,36.64688497580096],[29.724190142744515,36.635418329087294],[29.7275071149304,36.6360915014644],[29.735934769200046,36.64688497580096]],[[29.69940199596561,36.98753064968352],[29.707910441861767,36.98253263794511],[29.7017010359949,36.987312140344],[29.69940199596561,36.98753064968352]],[[29.610849196994632,36.99594703798877],[29.6410210846519,36.9897158869137],[29.691621142402763,36.988270171027764],[29.610849196994632,36.99594703798877]],[[29.65715720324174,36.62126591451908],[29.6547302585387,36.6207700574756],[29.6439427118041,36.6134220185395],[29.65715720324174,36.62126591451908]],[[29.6399875734662,37.3748059395521],[29.6347356842111,37.397647488621],[29.639248727068633,37.37349874975542],[29.6399875734662,37.3748059395521]],[[29.634568958128,37.3652191584491],[29.637739690450598,37.37082891570547],[29.618279665206266,37.35532103682242],[29.634568958128,37.3652191584491]],[[29.602023302231586,36.99678588394656],[29.5903078887483,36.9902435383113],[29.590175622234014,36.989842366316154],[29.602023302231586,36.99678588394656]],[[29.583379268808297,36.9692286329138],[29.5857935348654,36.9707204240364],[29.587889626816676,36.98290880987194],[29.583379268808297,36.9692286329138]],[[29.579048988684,37.3190358801729],[29.58628285621191,37.32982247593679],[29.549894220772636,37.300824026858415],[29.579048988684,37.3190358801729]],[[29.54340140756699,36.9445260454235],[29.580976188024856,36.9677437532465],[29.5585315275581,36.9578808976163],[29.54340140756699,36.9445260454235]],[[29.5592057494776,36.5278251786361],[29.563207368950604,36.532589011320205],[29.55541934244703,36.52679422642602],[29.5592057494776,36.5278251786361]],[[29.5205894588023,36.4909286415904],[29.5434152817454,36.5235257946884],[29.518186662949624,36.49024878076138],[29.5205894588023,36.4909286415904]],[[29.505935252513833,36.897335413426234],[29.5254653512232,36.9139099192792],[29.5060594923576,36.8983735063731],[29.505935252513833,36.897335413426234]],[[29.5254653512232,36.9139099192792],[29.538355185664404,36.94007191368623],[29.5365460377907,36.9384750392092],[29.5254653512232,36.9139099192792]],[[29.499486169245884,36.872157790067],[29.5014865113257,36.8737497577681],[29.501604464445258,36.87440341473822],[29.499486169245884,36.872157790067]],[[29.49111267811388,37.253980457404346],[29.4884330629755,37.2518450466586],[29.487686699779236,37.25052714406986],[29.49111267811388,37.253980457404346]],[[29.485487962115002,37.24664468835105],[29.479179734577,37.2355058360546],[29.473137297113848,37.204556075236574],[29.485487962115002,37.24664468835105]],[[29.4675995432005,36.8467808911488],[29.4541151097529,36.8490087535559],[29.444675963246144,36.84325418644769],[29.4675995432005,36.8467808911488]],[[29.443944838712,37.1237156274759],[29.4605341394052,37.1425557377688],[29.460618717851876,37.14359704156549],[29.443944838712,37.1237156274759]],[[29.443944838712,37.1237156274759],[29.4330242442841,37.0952053731043],[29.433237103662876,37.094168720265735],[29.443944838712,37.1237156274759]],[[29.3890246029539,36.4711109052911],[29.4600853905752,36.4738092737763],[29.460219589384543,36.473847244756506],[29.3890246029539,36.4711109052911]],[[29.3890246029539,36.4711109052911],[29.3639219277402,36.4618495292295],[29.362681283588664,36.460639819547055],[29.3890246029539,36.4711109052911]],[[29.421970987227397,36.84210170631345],[29.4233940519846,36.8399800461675],[29.432609856635736,36.84139786230496],[29.421970987227397,36.84210170631345]],[[29.38124191470292,36.88158660959161],[29.38339533516439,36.8805244494992],[29.3825303549552,36.8817231622282],[29.38124191470292,36.88158660959161]],[[29.3824227106582,37.0516897213016],[29.3496609267242,37.0318492520222],[29.349508923077178,37.029470841943],[29.3824227106582,37.0516897213016]],[[29.3802552639592,36.9739951098514],[29.379741188942603,36.97536299650915],[29.379587965111284,36.972646753291265],[29.3802552639592,36.9739951098514]],[[29.274922466461934,36.86406382133239],[29.2760619579992,36.8643106548145],[29.2998062859276,36.8875273314224],[29.274922466461934,36.86406382133239]],[[29.2998062859276,36.8875273314224],[29.34583175303464,36.8794928741127],[29.3302928319185,36.8885826353356],[29.357080261789,36.9465685784891],[29.3289555632931,36.8917155157343],[29.2998062859276,36.8875273314224]],[[29.357080261789,36.9465685784891],[29.372169022653,36.9576558990973],[29.37454563625578,36.96245812909099],[29.357080261789,36.9465685784891]],[[29.34996944132192,37.00611864000296],[29.3509947397728,37.0040059038249],[29.370668483072,36.9995042850555],[29.34996944132192,37.00611864000296]],[[29.349094342893995,37.022983881230964],[29.3482437503492,37.0096746092401],[29.348581341872826,37.00897896610833],[29.349094342893995,37.022983881230964]],[[29.3392323633268,36.4380698641924],[29.339770830479665,36.438604912342186],[29.32532390239596,36.440462005290954],[29.3392323633268,36.4380698641924]],[[29.3330573446048,36.3937956265346],[29.319569427726233,36.425145424581125],[29.33273098737969,36.39361926578945],[29.3330573446048,36.3937956265346]],[[29.32050726375151,36.43723455793864],[29.3150611355896,36.4301056746179],[29.315588089253872,36.4295258936602],[29.32050726375151,36.43723455793864]],[[29.3161375794863,36.3610226288178],[29.316062280284303,36.36118189466111],[29.316032445584487,36.36056682214881],[29.3161375794863,36.3610226288178]],[[29.3148352874257,36.3831437693538],[29.311258258997622,36.37269448106224],[29.31558098223921,36.3835747754658],[29.3148352874257,36.3831437693538]],[[29.3151578079773,36.3204829515275],[29.314312677806615,36.32511206999223],[29.314036449780925,36.31941734985873],[29.3151578079773,36.3204829515275]],[[29.3019087378235,36.3078926558386],[29.301947072230675,36.30792908417023],[29.30112770442649,36.307909245622845],[29.3019087378235,36.3078926558386]],[[29.2800231334688,36.3073982613872],[29.282476502810006,36.29774058306685],[29.28125000181689,36.30742796634478],[29.2800231334688,36.3073982613872]],[[29.136410186896157,36.8619519363477],[29.1408658535126,36.860851604049],[29.14186424898711,36.86101282642601],[29.136410186896157,36.8619519363477]],[[29.10500163322577,36.88503567087618],[29.1216358788574,36.8656004697155],[29.124043890903007,36.86500580820747],[29.10500163322577,36.88503567087618]],[[29.075990071587846,36.96844204985142],[29.1058063267276,37.0117600045689],[29.0760233158411,36.9686098173938],[29.075990071587846,36.96844204985142]],[[29.1058063267276,37.0117600045689],[29.0983605736592,37.033628237976],[29.096943399125276,37.03454227365977],[29.1058063267276,37.0117600045689]],[[29.087891336339965,36.90665899638941],[29.0875143989969,36.9054674910205],[29.088370881781167,36.904466789481546],[29.087891336339965,36.90665899638941]],[[29.07383991730837,36.95759126922314],[29.0735023133988,36.9558875468452],[29.0736511319593,36.95568453664999],[29.07383991730837,36.95759126922314]],[[29.0549758741817,37.0452365769964],[29.0351394642422,37.0603420931015],[29.026525313156533,37.061461102548655],[29.0549758741817,37.0452365769964]],[[28.994281196293315,37.09491624721844],[28.998016208342417,37.09056999373833],[28.9946227854022,37.0947785543832],[28.994281196293315,37.09491624721844]],[[28.9742129641631,37.1032583565115],[28.9722565651572,37.1151364012873],[28.972030206976438,37.11531904554599],[28.9742129641631,37.1032583565115]]]}},{"type":"Feature","id":"population-taseli","properties":{"id":"population-taseli","name":"Taşeli Yöresi · Seyrek","source":"MEB","source_url":"https://ogmmateryal.eba.gov.tr/panel/upload/etkilesimli/kitap/defterim/10/cografya/files/basic-html/page139.html","geometry_note":"MEB'deki Taşeli Yöresi; Taşeli Platosu fiziki sınır odağı"},"geometry":{"type":"Polygon","coordinates":[[[31.3,37.22],[32.35,37.52],[33.55,37.28],[34.25,36.82],[34.32815082362045,36.61159780367881],[34.2740711686964,36.582464825451],[34.1673396541719,36.4674398915889],[34.0819108305822,36.4144447909827],[34.0737364978462,36.3215029471413],[34.0479088269356,36.2961580763293],[34.0076041197535,36.2935468399997],[33.9622097788506,36.2336419002871],[33.9345888973972,36.2893094854773],[33.8694313913241,36.3163122294588],[33.8409804180086,36.276864504501],[33.8143199786142,36.2717259001341],[33.8009177002265,36.2359291912187],[33.6944248382895,36.1701193861173],[33.6856349395955,36.1342680604214],[33.6472663426377,36.1940421390247],[33.5922980695996,36.1756074272323],[33.5575276411428,36.1263248560724],[33.4661237383089,36.1595503143608],[33.3961722689079,36.1267486238084],[33.357283176003,36.1502784097607],[33.2916218244147,36.1287803278403],[33.1429523561844,36.1326470306695],[33.0822522683748,36.0715001411882],[33.0617066878179,36.0912795215904],[32.9458832036747,36.1035848018328],[32.8015630272903,36.0208559123095],[32.6754760010649,36.0409682668092],[32.5854864353752,36.0871540914413],[32.5924010597337,36.1017768920851],[32.5841032939873,36.0883261969878],[32.4913459552022,36.1097604992547],[32.2981010318447,36.2344511416909],[32.2727374888717,36.290718920611],[32.1638836625093,36.4158589438987],[32.0216178246263,36.5415216875056],[31.9920806843583,36.5308388682484],[31.9666698199629,36.5571614856672],[31.8109256045564,36.5957532668667],[31.7425170815557,36.6397130798597],[31.6725107660543,36.6454424741818],[31.5802792791956,36.7033232297342],[31.4082349590894,36.7608696907245],[31.3241111497181,36.8105750680326],[31.079471486493098,36.84195111970245],[31.3,37.22]],[[32.5924010597337,36.1017768920851],[32.578275047246564,36.11315979899277],[32.5785963846199,36.1119134734393],[32.5924010597337,36.1017768920851]],[[33.8611347760666,37.0334915792275],[33.86304426776967,37.03565797039233],[33.8269399017325,37.0142410176945],[33.8611347760666,37.0334915792275]],[[33.5735798385574,36.977515295129],[33.4647774503874,36.9764652347649],[33.46394008989044,36.976258679090826],[33.5735798385574,36.977515295129]],[[33.3275426630782,36.9412478327217],[33.3538749408785,36.9590988548395],[33.32442731745718,36.94017913806899],[33.3275426630782,36.9412478327217]],[[33.277624417821,36.9241237738632],[33.28006677301857,36.92496160447886],[33.2193056922379,36.9288894317151],[33.277624417821,36.9241237738632]],[[33.208630908322,36.5253941828233],[33.2230119283508,36.5324502733403],[33.2082890319237,36.52547787005389],[33.208630908322,36.5253941828233]],[[33.2230119283508,36.5324502733403],[33.2097894332144,36.5586196801354],[33.1768212177369,36.5950718600531],[33.168037497645294,36.59982705251111],[33.2230119283508,36.5324502733403]],[[33.13036387617511,36.574176319115324],[33.1628971700625,36.5441920066693],[33.18694207767641,36.53070334771614],[33.13036387617511,36.574176319115324]],[[33.1462422185237,36.6116262384845],[33.1382729974179,36.613290638762976],[33.148507184857735,36.61040006657591],[33.1462422185237,36.6116262384845]],[[33.116552437046344,36.849683855138274],[33.1175306297944,36.848277120786],[33.14828963911378,36.8455602275637],[33.116552437046344,36.849683855138274]],[[33.0691881687803,36.5670226179119],[33.12125999588552,36.581171464187975],[33.1204553439245,36.5817897343125],[33.0691881687803,36.5670226179119]],[[33.0691881687803,36.5670226179119],[33.0392822918185,36.544742998232],[33.039281271785015,36.54474119304107],[33.0691881687803,36.5670226179119]],[[33.0715477973812,36.6675471955797],[33.0830426600636,36.6597360143361],[33.070651801164104,36.669923130288225],[33.0715477973812,36.6675471955797]],[[33.0830426600636,36.6597360143361],[33.1045677909254,36.6228104304435],[33.10547583300295,36.62255396052935],[33.0830426600636,36.6597360143361]],[[33.03654920870457,36.86893307547085],[33.09935453515785,36.87259997103178],[33.0991949630197,36.8728323735184],[33.03654920870457,36.86893307547085]],[[32.97799801946758,36.69035257908964],[32.9778580025513,36.6884509818668],[33.0586771002266,36.7016767326347],[32.97799801946758,36.69035257908964]],[[33.0530776072557,36.4823127237274],[33.0527565183693,36.483101975733604],[33.0469825198062,36.4472807586743],[33.0530776072557,36.4823127237274]],[[33.0332537765632,36.4359782165834],[33.03333801164369,36.43604756528677],[33.025926160964474,36.436112652794876],[33.0332537765632,36.4359782165834]],[[32.9993584740037,36.8547390287631],[33.00282070833151,36.85609146405532],[32.974993508085134,36.85275053526604],[32.9993584740037,36.8547390287631]],[[32.9769956433809,36.4370103572829],[32.979148642700075,36.43697085724801],[32.8412289019045,36.4810700355773],[32.9769956433809,36.4370103572829]],[[32.95745307203679,36.85064463358526],[32.9557304932248,36.8504378210747],[32.953518493706426,36.842453556406596],[32.95745307203679,36.85064463358526]],[[32.893725555357896,37.3654553622045],[32.89047931632313,37.34818670904242],[32.8946873198514,37.3517983030885],[32.893725555357896,37.3654553622045]],[[32.88688090905991,37.345098311858365],[32.8543260473016,37.3305097103686],[32.884636572175,37.3431720697161],[32.88688090905991,37.345098311858365]],[[32.81292294551057,36.886938993435805],[32.809694533603526,36.877225926870125],[32.8114718728995,36.8788591575597],[32.81292294551057,36.886938993435805]],[[32.7994030609692,37.3354955140443],[32.79594157593815,37.3319919867268],[32.81074288678701,37.334466106340535],[32.7994030609692,37.3354955140443]],[[32.8055719302494,36.87343758868723],[32.6999375852215,36.8176577510516],[32.795854962099,36.8645084829004],[32.8055719302494,36.87343758868723]],[[32.8013024146995,37.0117347970751],[32.79997643040443,37.02558595869142],[32.79615744378317,36.9880508215212],[32.8013024146995,37.0117347970751]],[[32.7887983346157,37.0843850880223],[32.798024951693954,37.04597100179483],[32.7954460737439,37.0729098240777],[32.7887983346157,37.0843850880223]],[[32.796409410403264,37.18639656519052],[32.79554569194176,37.18568165214084],[32.796341917251,37.1862382823249],[32.796409410403264,37.18639656519052]],[[32.77423662111,37.1536323686576],[32.776891299022815,37.17024112432312],[32.7756611357342,37.1692228992562],[32.77423662111,37.1536323686576]],[[32.77423662111,37.1536323686576],[32.79276581390893,37.113600162250656],[32.7931510208927,37.1164366863488],[32.77423662111,37.1536323686576]],[[32.7798555431173,37.3157105771836],[32.77967194721783,37.31124526247309],[32.78770284483718,37.32365319016551],[32.7798555431173,37.3157105771836]],[[32.6568717989871,36.398948378522626],[32.65967100627724,36.38515816665768],[32.6602537360899,36.38775953944],[32.6568717989871,36.398948378522626]],[[32.6377479839895,36.44591203051582],[32.64474184468158,36.439079256974345],[32.6435420644196,36.4430486236059],[32.6377479839895,36.44591203051582]],[[32.6439325235479,36.3148997729425],[32.615900377924255,36.265615204761275],[32.6184638290568,36.2673099477265],[32.6439325235479,36.3148997729425]],[[32.60675882654301,36.46122672430296],[32.6120970487266,36.4548925650616],[32.63199455641298,36.448755346979425],[32.60675882654301,36.46122672430296]],[[32.4440392044344,36.7452184992393],[32.44306994961971,36.74487849523208],[32.5767565651428,36.7477509716019],[32.4440392044344,36.7452184992393]],[[32.4703894868871,36.5313640838577],[32.541814315357,36.4905805753899],[32.568032874490314,36.48038066592391],[32.4703894868871,36.5313640838577]],[[32.43558202541148,36.55863254999011],[32.4359509474855,36.5579543843405],[32.4578557336827,36.5484076465963],[32.43558202541148,36.55863254999011]],[[32.42862884267459,36.571414137267155],[32.4325400570599,36.56422440417415],[32.4303868977113,36.5704881387982],[32.42862884267459,36.571414137267155]],[[32.423569450155696,36.70080785638024],[32.4104617391504,36.6783556095202],[32.4243641828574,36.6985260470766],[32.423569450155696,36.70080785638024]],[[32.4121810583655,36.7335058166939],[32.411676189367334,36.734653922638806],[32.422325187773794,36.704380339899664],[32.4121810583655,36.7335058166939]],[[32.4203752510545,36.6451203808836],[32.4066664757531,36.5840761342313],[32.40757245726444,36.58358829801922],[32.4203752510545,36.6451203808836]],[[32.39325224398918,36.76977991367455],[32.39498894900502,36.76812617228452],[32.3947703126384,36.768564725987],[32.39325224398918,36.76977991367455]],[[32.2963996035904,36.8473087765359],[32.3407178638244,36.8075806222774],[32.359540151072196,36.79676586075631],[32.2963996035904,36.8473087765359]],[[32.2570671488437,36.9065053095766],[32.28231542007937,36.881554076173074],[32.2808090730888,36.8852167168941],[32.2570671488437,36.9065053095766]],[[31.9048161212353,37.1849189501328],[31.931735699880164,37.175170913419535],[31.9314862175269,37.175897018799],[31.9048161212353,37.1849189501328]],[[31.8030457009223,37.3456122123641],[31.8177623963993,37.3058444879342],[31.819920345893138,37.30349527509428],[31.8030457009223,37.3456122123641]]]}},{"type":"Feature","id":"population-tuz-lake","properties":{"id":"population-tuz-lake","name":"Tuz Gölü Çevresi · Seyrek","source":"MEB","source_url":"https://ogmmateryal.eba.gov.tr/panel/upload/etkilesimli/kitap/defterim/10/cografya/files/basic-html/page139.html","geometry_note":"MEB'deki tuzlu toprak odağı; gerçek Tuz Gölü kıyı çevresi"},"geometry":{"type":"MultiPolygon","coordinates":[[[[32.59973395037534,38.8452282461594],[32.64509688868277,39.02593344753146],[32.72537467111208,39.16653855235281],[32.770394747336844,39.3551652547309],[32.89599029093698,39.53913582563869],[33.03099367973452,39.63832097446655],[33.14508132395728,39.6843309732159],[33.264141542085476,39.707321320944025],[33.324820162581716,39.709364691084154],[33.47046093647823,39.69150615581575],[33.63365675913405,39.6269777963888],[33.76306190972825,39.53555315474744],[33.731964306208184,39.52467643238308],[33.76445894598745,39.53443755507848],[33.80130192303195,39.50353122425421],[34.135217177753,39.070341473634926],[34.28709141064902,38.74152555665369],[34.30431821966759,38.57379095403339],[34.28851369741573,38.46227209486301],[34.19453401216949,38.25871779312414],[34.088349291371095,38.12371157241166],[34.02927993416978,38.06659901966635],[34.012177227951,38.0788786335939],[34.02890174100038,38.0662808146699],[33.95703352821413,38.01322482825546],[33.7274681539621,37.926814516308966],[33.49931357614266,37.93523226546821],[33.316101815081154,38.01327865669196],[33.08879825395565,38.06956183829179],[32.88470298616008,38.20674083947886],[32.72636564823792,38.39336013030137],[32.659162419026984,38.51214985392934],[32.610477384318635,38.661352767587445],[32.59973395037534,38.8452282461594]],[[34.012177227951,38.0788786335939],[33.9911670897542,38.114145651666],[33.98341907137946,38.12070867873883],[34.012177227951,38.0788786335939]],[[34.2716748160881,38.7273424203062],[34.2694999447869,38.7585155693078],[34.27035145097398,38.723913458087544],[34.2716748160881,38.7273424203062]],[[34.2084077427972,38.8102985184663],[34.2416293784777,38.83302503347],[34.24203396894748,38.83351847555431],[34.2084077427972,38.8102985184663]],[[34.2084077427972,38.8102985184663],[34.16979903375453,38.80078102289132],[34.1756782459635,38.8000524025901],[34.2084077427972,38.8102985184663]],[[34.1409161190983,38.8440235888397],[34.137572217116556,38.84914721055548],[34.1457280603993,38.8129948645041],[34.1409161190983,38.8440235888397]],[[34.1457280603993,38.8129948645041],[34.156264553073,38.8024583730261],[34.16031167740972,38.80195680634531],[34.1457280603993,38.8129948645041]],[[34.1334078319646,38.8555279999189],[34.11936703009049,38.86211210474566],[34.13560893298422,38.85215541033812],[34.1334078319646,38.8555279999189]],[[34.08352697681548,38.88408295756655],[34.0673680875789,38.8994438770352],[34.0748902029451,38.8893775168714],[34.08352697681548,38.88408295756655]],[[34.0101906025687,38.97095735111771],[34.00482754691199,38.975370379481184],[34.0061955938492,38.9731163557939],[34.0101906025687,38.97095735111771]],[[33.9779876630835,39.0231162959592],[33.973155321808385,39.02755422176828],[33.993332430866744,38.99430998100317],[33.9779876630835,39.0231162959592]],[[33.9393921062793,38.1287777122382],[33.979399937576744,38.12411312135639],[33.9752218950408,38.1276521690133],[33.9393921062793,38.1287777122382]],[[33.9617322269359,39.0515954106716],[33.95891920688266,39.05100995225878],[33.96332699887399,39.04374757895355],[33.9617322269359,39.0515954106716]],[[33.8954373884736,39.0377978300751],[33.88416199185031,39.03134157329684],[33.935197600766365,39.046072904671675],[33.8954373884736,39.0377978300751]],[[33.87555958392734,39.0458958739357],[33.8524344360151,39.0690303326621],[33.874080966382,39.0465094816889],[33.87555958392734,39.0458958739357]],[[33.79629422336252,38.05267009249897],[33.801302035622,38.0513028279959],[33.81878704370033,38.061906688154984],[33.79629422336252,38.05267009249897]],[[33.7829949622653,38.9144635248345],[33.80018177193032,38.88824770090206],[33.801413081808,38.8911504990616],[33.7829949622653,38.9144635248345]],[[33.134768543610924,38.76785995179558],[33.16750040719088,38.69605655321303],[33.25812761321507,38.590164515815104],[33.33082945529965,38.5490750959053],[33.42998104334336,38.55547331321155],[33.55203968548661,38.65087340486647],[33.5775457252667,38.6533617988518],[33.59789531840028,38.65946667684207],[33.62965375688616,38.56522770918546],[33.5913331816376,38.53168543090681],[33.58263805003071,38.49768324596821],[33.619484467976584,38.4565612947346],[33.68377475803628,38.4741986898123],[33.70154819407951,38.532001072283364],[33.768598854971906,38.58842104098075],[33.70954291137323,38.70688409546313],[33.757991704904114,38.741129138945475],[33.70868777411352,38.70822464161044],[33.68143434913601,38.786958085885466],[33.60795698308091,38.86259163406683],[33.545768154241486,38.86848224286888],[33.51069789960545,38.83211240964038],[33.47714734418087,38.84791036616838],[33.461466396419524,38.87698245739293],[33.46794073283606,38.936065887134944],[33.50203951283545,38.97857022787957],[33.49984001629272,39.01798699069039],[33.45543892839695,39.09501590495172],[33.3556533467896,39.168714104481445],[33.30544287562259,39.17364989762756],[33.26385490828187,39.14788402403356],[33.26129297160259,39.110062799448414],[33.32897335355735,38.99458523157963],[33.31905982979681,38.96598269614923],[33.2284000293577,38.93609131625247],[33.183603877700754,38.89027076492314],[33.139026886190905,38.82036555713606],[33.134768543610924,38.76785995179558]],[[33.7487329489831,39.0984813721067],[33.7619385059576,39.0739155867671],[33.76316755604401,39.073849238789066],[33.7487329489831,39.0984813721067]],[[33.71504770265488,38.10595987431018],[33.758531397529,38.0629803374967],[33.7237802542922,38.1019522672919],[33.71504770265488,38.10595987431018]],[[33.74983101378192,39.47361884283931],[33.7527456552917,39.4732763914522],[33.753538686314556,39.47574878234006],[33.74983101378192,39.47361884283931]],[[33.7202737977834,38.9801714108824],[33.7226797686406,38.9636614753808],[33.721155971554225,38.98051235990696],[33.7202737977834,38.9801714108824]],[[33.716966053160355,39.113091161876916],[33.65944335661687,39.154256790741094],[33.7163807023019,39.1133486135413],[33.716966053160355,39.113091161876916]],[[33.66012485102532,39.49457695863432],[33.66742897034642,39.49811489110091],[33.6635439931722,39.4980154180534],[33.66012485102532,39.49457695863432]],[[33.629696143190934,38.096255425431245],[33.63962424191305,38.09978024641322],[33.633613699634,38.0983294259011],[33.629696143190934,38.096255425431245]],[[33.6381525099086,39.1694934042252],[33.5520462225317,39.2153049562695],[33.638658764666104,39.16913110731093],[33.6381525099086,39.1694934042252]],[[33.591890601195374,38.068098855746115],[33.61573904001987,38.088866370811274],[33.6085000184284,38.0850339476158],[33.591890601195374,38.068098855746115]],[[33.5673473492848,38.0179234400259],[33.58461110514742,38.06067662457402],[33.5815925033591,38.0575988345537],[33.5673473492848,38.0179234400259]],[[33.55500982755426,39.420160562284664],[33.55662696691,39.419771593964],[33.5738447741369,39.4389333467628],[33.55500982755426,39.420160562284664]],[[33.49913705805846,37.97714116458339],[33.5116329649005,37.9794087616102],[33.5439219827603,37.9934428772765],[33.49913705805846,37.97714116458339]],[[33.530727845547226,39.2495222090731],[33.5088851194536,39.2869576990236],[33.50703056925454,39.2875577356169],[33.530727845547226,39.2495222090731]],[[33.45254377954408,37.971801215981145],[33.4569737773441,37.9694899127617],[33.47886341817139,37.97346216424257],[33.45254377954408,37.971801215981145]],[[33.4631222552498,39.3322715062377],[33.4640730376486,39.3408315711951],[33.46224572424992,39.342385827970695],[33.4631222552498,39.3322715062377]],[[33.46007270986185,39.30340405437545],[33.4577621278578,39.3115770519249],[33.4594451042895,39.3035853344848],[33.46007270986185,39.30340405437545]],[[33.4062188175793,38.0181344791322],[33.4375581589202,37.9796198007202],[33.44297805494836,37.97679202885565],[33.4062188175793,38.0181344791322]],[[33.419500443168,39.3958148714914],[33.41907466576903,39.39590145043374],[33.432269188571055,39.368109971935006],[33.419500443168,39.3958148714914]],[[33.3844163231072,39.413274235891386],[33.3838691265685,39.4125839362809],[33.40304827146436,39.398048228917425],[33.3844163231072,39.413274235891386]],[[33.3952440959718,39.4249495876841],[33.394496485847526,39.42599056708331],[33.389802990240725,39.4200696265071],[33.3952440959718,39.4249495876841]],[[33.3930099126979,39.4631824366168],[33.39154018292792,39.4635952360375],[33.38914776603719,39.4496257448328],[33.3930099126979,39.4631824366168]],[[33.38932576420094,39.43319032874842],[33.38690927964357,39.43655506467304],[33.386751692819,39.4356349040738],[33.38932576420094,39.43319032874842]],[[33.35841395763792,39.47294791523749],[33.3458410137621,39.4871750954612],[33.3581253686248,39.4730110401309],[33.35841395763792,39.47294791523749]],[[33.245456439788626,39.6747323040771],[33.238150408602216,39.68179206491068],[33.2403714451726,39.6764719075164],[33.245456439788626,39.6747323040771]],[[33.234446283985235,39.69066473555156],[33.23671346204946,39.70088764755519],[33.2331433283555,39.6937857688206],[33.234446283985235,39.69066473555156]],[[33.17839416027807,38.27710205464145],[33.1799846529675,38.2693768050014],[33.192752532088,38.252810217726],[33.17839416027807,38.27710205464145]],[[33.1382462806863,39.2842821936102],[33.13665197705378,39.28230724306392],[33.1831881806207,39.2751918656804],[33.1382462806863,39.2842821936102]],[[33.17811150799481,38.29385635695309],[33.1755528265861,38.2909028172775],[33.176685066215704,38.28540336805073],[33.17811150799481,38.29385635695309]],[[33.1428339219466,39.2433332401677],[33.1723137703594,39.2483456635669],[33.174760965308685,39.25145295720265],[33.1428339219466,39.2433332401677]],[[33.12977363585601,39.23022481044274],[33.134580441125735,39.23619797256425],[33.1296656907802,39.2319490914339],[33.12977363585601,39.23022481044274]],[[33.13231260587825,39.27693182818131],[33.12025410169332,39.261994303771516],[33.1277966509239,39.2668661449086],[33.13231260587825,39.27693182818131]],[[33.05543948033858,39.20574065375358],[33.042987101400875,39.200292738006645],[33.0524403834961,39.20229933072],[33.05543948033858,39.20574065375358]],[[33.03591876442726,39.19879238359809],[33.018457849256,39.2030639376469],[33.0344296404932,39.1984762959996],[33.03591876442726,39.19879238359809]],[[32.9958594649405,39.2907388747258],[32.99490594564987,39.290600281797886],[33.0114914297593,39.2785051625356],[32.9958594649405,39.2907388747258]],[[32.9520219961124,39.2843671492485],[32.951155239367374,39.28198356810896],[32.97782467737905,39.288117539177584],[32.9520219961124,39.2843671492485]],[[32.94661782980516,39.26950569133798],[32.94331092170883,39.26041169372696],[32.9442909698831,39.2612590270714],[32.94661782980516,39.26950569133798]],[[32.935142759487846,39.25334963658089],[32.92071662142011,39.246914184251374],[32.9279793538873,39.2471562752907],[32.935142759487846,39.25334963658089]],[[32.9126872140717,39.2466465373872],[32.868679833234,39.2676307521208],[32.85441469672654,39.26994006723493],[32.9126872140717,39.2466465373872]],[[32.8272211422884,39.2743423024493],[32.824635901022084,39.271532594194795],[32.841593846335336,39.27201557373772],[32.8272211422884,39.2743423024493]]],[[[33.59766255828537,38.66000832959754],[33.553005016762974,38.65219873227112],[33.56619074181161,38.71965648720163],[33.59766255828537,38.66000832959754]]]]}}]}