{"type":"FeatureCollection","features":[{"type":"Feature","properties":{"id":"kuyucuk","name":"Kuyucuk Lake Ramsar Area","source":"OpenStreetMap protected-area geometry","osm":"R1715028"},"geometry":{"type":"Polygon","coordinates":[[[43.439941,40.736361],[43.441509,40.732273],[43.447994,40.729519],[43.455866,40.728655],[43.460755,40.730731],[43.461934,40.750448],[43.456189,40.754742],[43.446398,40.752913],[43.448843,40.744058],[43.43997,40.737313],[43.439941,40.736361]]]}},{"type":"Feature","properties":{"id":"sultan-sazligi","name":"Sultan Sazligi Ramsar Area","source":"OpenStreetMap protected-area geometry","osm":"R271965"},"geometry":{"type":"Polygon","coordinates":[[[35.161201,38.262286],[35.163356,38.252512],[35.170412,38.245478],[35.193466,38.236874],[35.213203,38.22557],[35.219926,38.225684],[35.24472,38.233349],[35.252726,38.242775],[35.261768,38.24764],[35.293884,38.29728],[35.316509,38.301564],[35.328368,38.311043],[35.331839,38.320751],[35.329145,38.370308],[35.333112,38.373512],[35.359287,38.381506],[35.360099,38.386378],[35.365775,38.389951],[35.363141,38.394402],[35.336495,38.403247],[35.326796,38.4002],[35.310844,38.407448],[35.306298,38.414133],[35.29402,38.41517],[35.287813,38.420507],[35.273407,38.41175],[35.247531,38.401889],[35.226408,38.374874],[35.221465,38.363372],[35.224712,38.340742],[35.233847,38.324394],[35.228627,38.310003],[35.218588,38.298681],[35.16608,38.269636],[35.16133,38.264061],[35.161201,38.262286]]]}},{"type":"Feature","properties":{"id":"kizilirmak-delta","name":"Kizilirmak Delta Ramsar Area","source":"OpenStreetMap protected-area geometry","osm":"R1715023"},"geometry":{"type":"Polygon","coordinates":[[[35.710289,41.64997],[35.710996,41.646859],[35.738886,41.635802],[35.762856,41.634721],[35.770734,41.638005],[35.77943,41.649369],[35.807319,41.662784],[35.817736,41.675907],[35.842175,41.68421],[35.869231,41.68646],[35.874565,41.695939],[35.894905,41.702902],[35.94599,41.729942],[35.961451,41.73074],[35.978493,41.721296],[35.986303,41.714096],[35.986129,41.706092],[36.012572,41.685687],[36.01303,41.679734],[36.030503,41.671045],[36.032606,41.665751],[36.035689,41.66631],[36.037445,41.660587],[36.034217,41.657875],[36.034974,41.648025],[36.032155,41.639736],[36.049613,41.61573],[36.043146,41.601946],[36.031605,41.593982],[36.034939,41.591659],[36.028477,41.580533],[36.029016,41.574101],[36.03916,41.571917],[36.047203,41.563071],[36.051517,41.553868],[36.065214,41.547728],[36.067992,41.531367],[36.078244,41.533365],[36.080199,41.527763],[36.092347,41.523442],[36.097425,41.522108],[36.111729,41.524266],[36.122872,41.52115],[36.126431,41.517884],[36.134941,41.518972],[36.137055,41.52275],[36.140047,41.539055],[36.140343,41.580638],[36.134778,41.597],[36.131823,41.618347],[36.123932,41.634146],[36.107693,41.647772],[36.094218,41.66822],[36.074736,41.689838],[36.047649,41.706698],[35.999566,41.726022],[35.987951,41.739545],[35.97719,41.745799],[35.953007,41.748634],[35.881724,41.719424],[35.821335,41.69877],[35.714332,41.670516],[35.710631,41.651032],[35.710289,41.64997]]]}},{"type":"Feature","properties":{"id":"goksu-delta","name":"Goksu Delta Ramsar Area","source":"OpenStreetMap protected-area geometry","osm":"W1335093229"},"geometry":{"type":"Polygon","coordinates":[[[33.915585,36.296811],[33.925756,36.279838],[33.924841,36.264967],[33.937564,36.23414],[33.947083,36.224622],[33.959646,36.22329],[33.969545,36.228049],[33.976221,36.242654],[33.990675,36.261743],[34.015232,36.274116],[34.051972,36.284396],[34.060188,36.290809],[34.065297,36.299054],[34.079748,36.307085],[34.084459,36.314795],[34.08752,36.339084],[34.086566,36.341036],[34.077513,36.341354],[34.077159,36.333009],[34.070992,36.329323],[34.05171,36.328165],[34.03133,36.335721],[34.014736,36.326226],[33.984713,36.326973],[33.969288,36.323923],[33.967055,36.325422],[33.963032,36.321254],[33.953387,36.318551],[33.932991,36.317298],[33.921147,36.306384],[33.923722,36.303203],[33.920997,36.300209],[33.915585,36.296811]]]}},{"type":"Feature","properties":{"id":"gediz-r","name":"Gediz Delta Ramsar Area","source":"OpenStreetMap protected-area geometry","osm":"R1715004"},"geometry":{"type":"Polygon","coordinates":[[[26.788266,38.5997],[26.789345,38.593153],[26.809354,38.581158],[26.81678,38.570013],[26.816069,38.56119],[26.80066,38.545677],[26.800075,38.540422],[26.80366,38.533395],[26.812796,38.523639],[26.829217,38.512921],[26.870779,38.501641],[26.874341,38.494962],[26.900108,38.478532],[26.896953,38.468154],[26.90032,38.457437],[26.890146,38.448441],[26.890412,38.445703],[26.896494,38.440807],[26.926067,38.428773],[26.981277,38.429248],[26.98557,38.430751],[26.987664,38.436299],[26.999249,38.437556],[27.004531,38.44526],[27.019584,38.451307],[26.999955,38.470178],[26.986103,38.466347],[26.977693,38.459],[26.970625,38.458331],[26.953606,38.465943],[26.949876,38.47165],[26.951052,38.475442],[26.947432,38.47777],[26.939549,38.506162],[26.91076,38.526841],[26.911898,38.537956],[26.905158,38.553017],[26.905703,38.556542],[26.912199,38.561383],[26.915319,38.5676],[26.913746,38.575009],[26.902763,38.579643],[26.901925,38.590636],[26.861606,38.590278],[26.848084,38.592337],[26.836728,38.609571],[26.819182,38.616466],[26.81266,38.616124],[26.806195,38.609712],[26.794094,38.608521],[26.789456,38.6021],[26.788266,38.5997]]]}},{"type":"Feature","properties":{"id":"yumurtalik-r","name":"Yumurtalik Lagoons Ramsar Area","source":"OpenStreetMap protected-area geometry","osm":"R272109"},"geometry":{"type":"Polygon","coordinates":[[[35.551095,36.694137],[35.552015,36.688227],[35.568255,36.680956],[35.570054,36.673074],[35.584587,36.663527],[35.586248,36.659419],[35.582373,36.652979],[35.587909,36.649314],[35.586525,36.645316],[35.576596,36.637431],[35.583018,36.633675],[35.583901,36.620577],[35.591576,36.614464],[35.592684,36.609947],[35.566106,36.588629],[35.559517,36.576742],[35.559601,36.566336],[35.566105,36.552804],[35.580085,36.551804],[35.586926,36.555123],[35.591994,36.56598],[35.60078,36.573579],[35.625786,36.580906],[35.646399,36.594743],[35.654847,36.609664],[35.658564,36.627835],[35.656199,36.644376],[35.658564,36.653323],[35.66566,36.661455],[35.710941,36.683951],[35.74034,36.688286],[35.74676,36.693435],[35.752167,36.70373],[35.752167,36.709961],[35.748112,36.717817],[35.737269,36.7264],[35.712701,36.738879],[35.69488,36.74387],[35.679482,36.732639],[35.663496,36.753002],[35.647935,36.759815],[35.623204,36.749524],[35.616293,36.739773],[35.611648,36.738184],[35.607719,36.740844],[35.601432,36.738308],[35.600724,36.734688],[35.588788,36.734008],[35.590199,36.732504],[35.579807,36.72182],[35.581827,36.719367],[35.575339,36.720987],[35.572411,36.71884],[35.573087,36.716243],[35.568645,36.717877],[35.563699,36.715778],[35.56003,36.710355],[35.56092,36.707591],[35.551485,36.701073],[35.555255,36.698378],[35.552284,36.694645],[35.551095,36.694137]]]}}]}
