{"type":"FeatureCollection","name":"Türkiye kapalı havzaları · Tarım ve Orman Bakanlığı resmî CBS sınırları","source":"https://cbs1.tarimorman.gov.tr/server/rest/services/TATUS_TEST/MapServer/11/query?where=1%3D1&outFields=*&outSR=4326&f=geojson","features":[{"type":"Feature","properties":{"id":"burdur-basin","name":"Göller Yöresi-Burdur Kapalı Havzası","sourceId":10},"geometry":{"type":"Polygon","coordinates":[[[30.334712540251587,38.04349149623562],[30.322002473935072,38.03180679824521],[30.330012696728602,38.000716021027586],[30.29200152215259,37.98123797894959],[30.281398775133425,37.93723998423792],[30.252496209432593,37.90359856961834],[30.169022745103632,37.88149801901841],[30.162121443050182,37.93410475513042],[30.112653204182095,37.94275887092522],[30.102802370433096,38.017285373221455],[30.06756731577906,38.04910086371393],[30.08895152579231,38.098851869218436],[30.07307150304746,38.10112760905196],[30.007683788176337,38.05830973530607],[29.951881866055317,38.0603709562547],[29.877162315288672,38.102644126825055],[29.865872302764615,38.142385838036034],[29.81854424262275,38.14316113457875],[29.796440258411224,38.11846030220124],[29.801073886650613,38.09142611222535],[29.770486264829287,38.0284624452857],[29.733582432683193,38.010685284698184],[29.681336475797764,38.02312487631207],[29.661629058034634,37.97968298997807],[29.634109821411187,37.959396174094195],[29.679610185761533,37.88270232005607],[29.61827845378764,37.83827464096197],[29.636037723262348,37.72990485772306],[29.575002280131173,37.734928819609365],[29.56929707819768,37.68706257098091],[29.550768170714548,37.66116532192211],[29.62334052894232,37.62786990796991],[29.59913890663529,37.61910995456083],[29.57340838109195,37.583855588764436],[29.57290287756581,37.547107250299405],[29.62366783630165,37.5118839821601],[29.638677525747255,37.47053085401575],[29.67875912673236,37.44605236462496],[29.675599849753326,37.418987828825266],[29.71445471431366,37.35330910413188],[29.715495182256916,37.29534079883882],[29.73382244914677,37.25657868585773],[29.83803374296292,37.19195279658436],[29.833267855926863,37.13196051936251],[29.87492860976755,37.15998400765591],[29.92417578898153,37.16989879129625],[29.999227852383513,37.13999427921266],[30.007802199212165,37.17856462705595],[29.99625009366696,37.221797614368484],[30.075754999993308,37.28102388234635],[30.12262730620529,37.275153072956016],[30.122246849812313,37.32169363635228],[30.153317799676756,37.35601641962211],[30.1897915031754,37.36706348569135],[30.194737696187758,37.3838408231955],[30.288559274391048,37.39759528389527],[30.328470104012126,37.454908997852044],[30.285168534400384,37.51284796006536],[30.288849842646187,37.52849604675521],[30.332441520060172,37.561034817902566],[30.39780493704825,37.55169492228288],[30.401886987694354,37.577458936780545],[30.385569417794443,37.594237636757555],[30.476533910111925,37.61674787891155],[30.450102000606876,37.65479276007784],[30.484970836035302,37.69203490188926],[30.46808016057099,37.710975703366046],[30.478081863687123,37.73729510318651],[30.457626325094907,37.77200385569341],[30.46140168983618,37.835119924444996],[30.4938774149108,37.841234718107785],[30.49963838290512,37.86200125485408],[30.54255641864387,37.869161254988],[30.56154247220735,37.83619155929307],[30.59385749922427,37.81844357990735],[30.63961922005103,37.83215314824923],[30.70318019421063,37.82169769579207],[30.73724796392247,37.79493735567445],[30.718854443078158,37.761169243665734],[30.794462353155097,37.75911263983653],[30.793720855832873,37.79410429657605],[30.822108859136563,37.82800737613957],[30.824818376167173,37.85768810632112],[30.79110094904962,37.89640150572495],[30.75422408937027,37.90504695655187],[30.715345597821113,37.945390576813736],[30.69256480542151,37.98224526460734],[30.71360683778539,38.018231220794235],[30.70429369339928,38.050083743569985],[30.560565068323285,38.05812838341819],[30.53215038303381,38.006305824654135],[30.51375858529053,37.99993693833909],[30.48139829989168,38.02524960108826],[30.407843756084503,38.01705402802105],[30.34466750020505,38.04527284636481],[30.334712540251587,38.04349149623562]]]}},{"type":"Feature","properties":{"id":"akaracay-basin","name":"Akşehir-Eber (Akarçay) Kapalı Havzası","sourceId":11},"geometry":{"type":"Polygon","coordinates":[[[31.557904753901312,38.06838527276216],[31.621717676729475,38.17083949634571],[31.667359533215915,38.20289717426522],[31.6789410393975,38.25899461271126],[31.72594141086745,38.31694288380709],[31.714190345608017,38.361044724134786],[31.770512827704863,38.39455148416374],[31.81964874909056,38.492930635840196],[31.7954474199625,38.53167397187633],[31.770289669932367,38.542187646442756],[31.765492677145403,38.60199677583057],[31.71800499183695,38.62049361528818],[31.69800858682686,38.65371138087556],[31.663024092288083,38.66178960860361],[31.64008146868491,38.64732841477456],[31.60066970884003,38.647939425863854],[31.56826494836872,38.67515837256087],[31.513182938941554,38.693032608668034],[31.45400924622976,38.69424233621487],[31.409812213562873,38.74503712276504],[31.352571020935898,38.76821061133069],[31.32665303800735,38.75838888234108],[31.31537072457934,38.793774092300566],[31.275942936117644,38.815593995966196],[31.18772895372831,38.82255371797976],[31.139471243702985,38.85145298586667],[31.069552650834225,38.84739704074087],[31.004801075908972,38.870015197043756],[30.974416378013473,38.86550241790229],[30.954614363262294,38.887016949572626],[30.91554363892783,38.887026493178155],[30.88201796255896,38.91954181000659],[30.84103132343688,38.929768016281],[30.839570735401196,38.96484383787288],[30.7562505038577,38.96277762298894],[30.753029402085303,38.990266171146914],[30.688672898435584,38.994961988405066],[30.695133869932192,39.016857294828355],[30.60767516697541,39.080944768985944],[30.49794030370208,39.120538914939004],[30.42831525584444,39.0620128330259],[30.42085184693525,39.019562735232114],[30.369496753972044,39.000953365405564],[30.39307820019883,38.96605014439871],[30.37115517127421,38.88366653788046],[30.325991827860605,38.87443563469685],[30.208374756689693,38.914567502388365],[30.17895647116427,38.86057274633521],[30.085280926673477,38.8477863608519],[30.068026562675755,38.82104885631969],[30.033199698607234,38.821262676431445],[30.014040662246828,38.803275978303816],[30.00319520529456,38.740710915176635],[30.058661209946933,38.732426474702095],[30.109467899024366,38.66656839191779],[30.148909161128927,38.65558097068532],[30.153918371435736,38.63368976786853],[30.26059641299412,38.68079699678401],[30.321395948664133,38.66778406038611],[30.365791980615484,38.679936625275104],[30.373594360191646,38.66585329239558],[30.445597792903868,38.644318400973475],[30.40340244786472,38.61756109696711],[30.38748271015902,38.56481618182141],[30.358123757405508,38.53589156744192],[30.418317362256516,38.385731494712786],[30.507140182073783,38.37612134742227],[30.52109986986318,38.35009887226522],[30.546009158795698,38.34036735516935],[30.55413157830975,38.309377359577525],[30.542186579646966,38.2595842379223],[30.5840019539271,38.22053299560133],[30.794100057671585,38.30775299420537],[30.816771506899556,38.33261746002779],[30.799852154753182,38.34114956210266],[30.80875317581848,38.36633212262939],[30.838017156566593,38.358880469658004],[30.877316919340387,38.39216054567271],[30.927260565922438,38.40441833843562],[31.03456835504562,38.48952663624533],[31.057844407693324,38.48293451031947],[31.107608932706114,38.501604042992255],[31.212877908388805,38.435730576405035],[31.22854386190977,38.38352638493478],[31.274906169783947,38.354799194227496],[31.296100383625856,38.32799738187373],[31.29821121927239,38.295947607196354],[31.33575675187268,38.2725824614115],[31.371436905288988,38.21214175164056],[31.417067716302142,38.1872026007195],[31.460465614996167,38.1974135922635],[31.49916071409575,38.183982722924384],[31.497911226621852,38.167419543677056],[31.533279844089577,38.12965135332735],[31.5275538552263,38.095352256401554],[31.554135289611963,38.069769716099586],[31.557904753901312,38.06838527276216]]]}},{"type":"Feature","properties":{"id":"konya-closed-basin","name":"Tuz Gölü-Konya Kapalı Havzası","sourceId":16},"geometry":{"type":"Polygon","coordinates":[[[35.04489263608633,37.98317409610769],[35.06251537318599,38.007138039289146],[35.04801552919338,38.07072507310369],[34.97266209218185,38.0988262951974],[34.94982733416418,38.23087382226913],[34.913787215407694,38.24384800238346],[34.89247113983129,38.28869876933277],[34.863683352804514,38.27764780380318],[34.817884310112845,38.30885970710983],[34.80888615507206,38.384146211178745],[34.86257692678379,38.43946760574545],[34.878954280915366,38.43726378199801],[34.88865295207211,38.462944242283015],[34.855838184384766,38.50973178469417],[34.78792446993839,38.52037818120817],[34.72377339302773,38.49352422166555],[34.685775597665724,38.50505562121998],[34.638702215634794,38.45789698795568],[34.60369835329641,38.44312668544825],[34.569185615224,38.44999145344286],[34.55659135011075,38.48013187838353],[34.53121529864717,38.49615018178554],[34.44841991504711,38.5232390550384],[34.429278358809256,38.51133956836645],[34.384441197703154,38.51703453421641],[34.37139180638678,38.49082397934325],[34.33173314666743,38.4745999308422],[34.29788481513219,38.50327331601079],[34.18157140119928,38.53968878840692],[34.162821538383355,38.55077374920921],[34.15542491043135,38.593795918346984],[34.113744608027275,38.60213918977183],[34.07766904608968,38.64063675638124],[34.049757706852745,38.64364740510371],[34.00979953691916,38.67222070831906],[33.967022556246036,38.72718506124164],[33.93567868372435,38.819729522099806],[33.830958673104305,38.87214368188546],[33.754524820264294,38.931647344849125],[33.659778273148845,39.05097326190656],[33.633012573071824,39.033477157444906],[33.575864152708505,39.05009128058816],[33.49640038496983,39.041921429030765],[33.478815542603286,39.08020552806272],[33.40633550787743,39.115322972077536],[33.370848209577275,39.14415965884126],[33.33847061762498,39.19827130068006],[33.30468103340303,39.22779015019535],[33.26273701110421,39.24111369444148],[33.22035325809645,39.23989986328809],[33.18751270055077,39.20993449857832],[33.15552476415661,39.21329542424451],[33.13831212060791,39.192191391719405],[33.07263497782202,39.16400402176822],[33.012921321361944,39.17661956933773],[32.99004425114134,39.21274188433057],[32.94221822469137,39.219667058887694],[32.94432393690022,39.349353753173204],[32.90309463460977,39.41391201432805],[32.89748700012501,39.447276828063195],[32.84952191510433,39.48620178578386],[32.79003130490088,39.462890004869905],[32.78370796565014,39.41833548899166],[32.76421337964382,39.395531051616786],[32.64980404182313,39.39805738843779],[32.62490092223982,39.33759225308006],[32.65017501486511,39.31049519419793],[32.64599825661429,39.267805766123274],[32.672316236405265,39.257063589113386],[32.68647884812037,39.230729562719205],[32.67211862477478,39.2075107968858],[32.688257173829584,39.14023889440949],[32.62367083494115,39.09935058895854],[32.67232195429483,39.05424567539768],[32.7063095206679,39.070321264714664],[32.73482215292006,39.06397070658289],[32.72725370589387,39.00516853100294],[32.701080498965894,38.968454268749554],[32.592577077370265,38.96043298969079],[32.587016070934965,38.930175813862775],[32.4549580541709,38.83837026117868],[32.451955481360415,38.79967910021037],[32.41889011039035,38.76533677017585],[32.425781803187704,38.74769548455902],[32.51253574342985,38.694587412379235],[32.55387410110893,38.64607216080162],[32.603719862781475,38.63750634044533],[32.62481247571526,38.61197323407754],[32.60045024798063,38.552721198724385],[32.62704010721524,38.544075634582896],[32.627955832895395,38.52796282322578],[32.562530118969846,38.47321899486076],[32.51986979115799,38.34121815339512],[32.477508748729804,38.29963775128124],[32.47528739809502,38.25561891298253],[32.442018727282516,38.217936622277364],[32.482904836589,38.15288572869349],[32.444175217912004,38.126464180277765],[32.377405504960166,38.137919827238306],[32.303709495996486,38.110539977438066],[32.253107793889626,38.116644238241065],[32.12192700642623,38.086207657557395],[32.07365826441742,38.09226836329441],[32.06379619993476,38.080348143651975],[32.029102559635476,38.08064341176407],[32.035116649014185,38.0592319181186],[31.971023272605976,38.019206462708155],[31.881345124677807,38.00807445297369],[31.830795103011667,38.024770988190596],[31.765962098072407,38.016391662944955],[31.729979052091608,37.980047970837234],[31.683454863551162,37.9814147002283],[31.655928676966937,37.9602296288943],[31.641105057252616,37.96961481617086],[31.650757186694875,38.0021842083346],[31.563222907411273,38.04702468344243],[31.54599808164619,38.08695427292139],[31.5275538552263,38.095352256401554],[31.52750736837038,38.147523035359825],[31.503805796999984,38.15910464766142],[31.49916071409575,38.183982722924384],[31.460465614996167,38.1974135922635],[31.409126986821036,38.19027647807707],[31.365641477072586,38.15626401217446],[31.304575639554173,38.164739001903456],[31.242666648946738,38.14875740792809],[31.175406372006535,38.11449330991837],[31.124724446775872,38.06550678211238],[31.13404721210918,38.05274191380835],[31.17763263293972,38.047164495645006],[31.20938477159001,38.01567630261934],[31.142044231056445,37.99982252299111],[31.139512259083517,37.96799408316048],[31.16460522465144,37.92499441416095],[31.194821253797897,37.908831043817656],[31.269719362258797,37.824301101814456],[31.281143925052163,37.78458863655641],[31.25859461185189,37.76096698793617],[31.291910205691465,37.72794381585447],[31.304544275697822,37.68928097903398],[31.280429421780468,37.630716352177956],[31.316782604433683,37.60621007193731],[31.34330561885929,37.53910766468704],[31.324044958208333,37.411556844972495],[31.337666381298504,37.38919408533883],[31.365247936443154,37.37903282000866],[31.37507765141254,37.3495066158377],[31.400349633328972,37.34368516124124],[31.399362449317607,37.31384738604805],[31.4292912619822,37.296614202883234],[31.44968365827424,37.250351959875104],[31.536246818136192,37.28354405701265],[31.522950225672446,37.33075341743631],[31.573493656207347,37.34173404788805],[31.59710116029038,37.32227819927954],[31.8400616634151,37.315254998619366],[31.849944191970962,37.29783948600351],[31.84243010806307,37.253654499755385],[31.896056349820753,37.227326082432796],[31.911034077360853,37.180880653819145],[31.9284985931356,37.17749484660993],[31.979170433368836,37.09617164330672],[32.035102666355044,37.0779420625762],[32.06922899991844,37.04506478211408],[32.14776845794802,37.06134409755214],[32.15735845862599,37.0888414212946],[32.18686080917905,37.078179647272975],[32.2151786779537,37.087164193772594],[32.22816145019084,37.07302356238756],[32.25519690371419,37.1064358909037],[32.281809590440275,37.104740069898355],[32.30966166975031,37.160486566801694],[32.296599794045335,37.177828024743576],[32.302133965610096,37.19599690213539],[32.34525710523127,37.228048738958194],[32.36339066174969,37.19322876099858],[32.42429545137401,37.176594365337735],[32.44853984813551,37.1923700901076],[32.45007721758958,37.21260012729408],[32.48251647155797,37.249759098903326],[32.58699121637159,37.244827415552834],[32.598323191262295,37.211473944067336],[32.64508749878911,37.20144081144434],[32.73417352408893,37.203595103231464],[32.7449814550302,37.23084228684212],[32.80834800655532,37.22199461356064],[32.83798587324952,37.20051862683323],[32.92472540365452,37.18281472322093],[32.99127590595833,37.144370363201745],[32.99119055579956,37.10502515498695],[33.0186758097409,37.087204601211454],[33.01665284235486,37.043059934268626],[33.04020122410725,37.019883120010036],[33.140463209009965,36.991361500832625],[33.16809592478717,36.95437087421652],[33.297737616098175,36.91331212925144],[33.34867436063331,36.91948216556955],[33.3523526435597,36.950864824951736],[33.45886015387305,36.973251683718274],[33.515791410445274,36.971918195968044],[33.54044341143435,36.952891716079876],[33.595504168082925,36.94248417500472],[33.705910366270416,36.99812617788086],[33.71837345986734,37.03111731071539],[33.8895608826287,37.011231856864754],[33.9081104736195,37.02613347208211],[33.94225463714184,37.024298209394885],[34.00660213228264,37.075878312734005],[34.061028546730086,37.067886967609525],[34.13409775880456,37.09705921031434],[34.128160234107554,37.11780020811318],[34.14610343562509,37.12203038969079],[34.13816752920815,37.139585328700036],[34.17478896973523,37.16983670569948],[34.12496978842506,37.18957869070408],[34.20515616412575,37.19239489430896],[34.46514146490671,37.288355497408304],[34.46865297485493,37.31492864094406],[34.40012165009415,37.3290325826876],[34.39887288207791,37.34339549590544],[34.515397694248236,37.38254532460712],[34.4257567188975,37.44151815823648],[34.39178125380187,37.49845000656262],[34.419647335556135,37.514140073605574],[34.38868603912948,37.52488253390186],[34.398252322886435,37.55672655538626],[34.52478015657903,37.59745972598563],[34.536873501111245,37.66547359433099],[34.606333196020216,37.670562641952415],[34.624594879849894,37.69056568665718],[34.6676618846883,37.69346718556221],[34.78321684997769,37.78194046408123],[34.83160132933796,37.7996775014156],[34.87195836029014,37.919977455295395],[34.857026792252725,37.97325399477609],[34.956377815184055,37.991463999064365],[35.000425855368974,37.97296249302468],[35.03832880283204,37.98151321556247],[35.04489263608633,37.98317409610769]]]}},{"type":"Feature","properties":{"id":"aras-basin","name":"Aras-Kura (Hazar Denizi) Havzası","sourceId":24},"geometry":{"type":"Polygon","coordinates":[[[44.0336012538948,39.370425454171425],[44.07008444344234,39.41000813736571],[44.13385514040249,39.40505064706974],[44.13849420324493,39.391723731265245],[44.229996399314416,39.41925385328278],[44.29168179328019,39.37393137033655],[44.42389277393244,39.41431618494403],[44.43382272104179,39.44116746900352],[44.416474026255344,39.471918634337555],[44.44051552067481,39.502396639593314],[44.423707560355695,39.56122657544614],[44.48056498708456,39.610082767205995],[44.48801783165766,39.64190192243581],[44.47461934870404,39.6833311179368],[44.61196988110515,39.77915698730516],[44.66936087020804,39.71420908588067],[44.71627846897621,39.70734253363105],[44.80107990461397,39.65244085356261],[44.805630751158276,39.62319169094383],[44.826463183029546,39.65242558307426],[44.791605430846005,39.66662034015661],[44.79791246628736,39.68851761339721],[44.77445851334977,39.715953176198184],[44.750802739954565,39.71031571120119],[44.738470521097724,39.73811429973517],[44.72073162666328,39.740722435292184],[44.720074010007636,39.769148786587266],[44.69502276758669,39.775729822073686],[44.70255151763848,39.787691297215645],[44.65737174810772,39.7879785469724],[44.6196308216052,39.83119178067619],[44.59293409593181,39.82459608983771],[44.59964055177011,39.85590732326443],[44.563352899117035,39.88233216409816],[44.55701493059462,39.90739777768533],[44.50275055329547,39.93198186367215],[44.491961784209025,39.962768527945286],[44.36749359405417,40.00904351074945],[44.33733649118619,40.04035179439984],[44.19293330622713,40.04814961801054],[44.15180000116919,40.03051834904261],[44.04012146103668,40.039967956555984],[43.99402556203012,40.03486282725771],[43.98809213284568,40.02040077277752],[43.93561932557145,40.021409071071844],[43.92536778899233,40.03479540058731],[43.82372540410415,40.04656783104065],[43.80753025171981,40.07023812938621],[43.76999682309497,40.08591427042728],[43.719379354973285,40.07604047788578],[43.66772907843426,40.1036272472997],[43.660478665857795,40.14678755859899],[43.71017945321927,40.17092207529362],[43.70016121157073,40.196688008045214],[43.65244212260592,40.226275208733966],[43.67864708279666,40.235452281197865],[43.68676615323545,40.262034123875765],[43.63256545063507,40.286227475117926],[43.60754906683604,40.32409697319679],[43.60105868570986,40.35169848070035],[43.619068348025905,40.397645451076755],[43.608133510153436,40.441625142786165],[43.54513337480546,40.476975511210924],[43.557412509379844,40.497484413774714],[43.57644834581458,40.49332732279777],[43.633384644885496,40.5275106571911],[43.6300244692539,40.540005218965746],[43.65736464456273,40.52922311835226],[43.654227659978574,40.56166926112758],[43.706071071322924,40.61409031241806],[43.75323837405176,40.69992473723687],[43.7548436477162,40.73293861392597],[43.72842366861744,40.799089489888104],[43.683171807632846,40.84407032938225],[43.67722720707002,40.93552490814807],[43.595658015804815,40.98496733557414],[43.47355431597896,41.02982016736689],[43.47210860272986,41.070028595243514],[43.45257193114975,41.09523568927568],[43.473773951107034,41.134325970267355],[43.44896977763318,41.177953673623165],[43.36414336062762,41.206286268796305],[43.238554905684396,41.17136025986815],[43.238675047015874,41.19375180769981],[43.19725398498349,41.25493433135438],[43.14043476235446,41.25347720570852],[43.21588576681472,41.292151361396236],[43.21866767297479,41.30604013494434],[43.133259430578335,41.32160106293878],[43.1004779396053,41.356905717924576],[43.050156897922534,41.37796995275119],[43.01894029835614,41.369729056550796],[42.9656899920995,41.44415357392836],[42.9041376411393,41.479999422935066],[42.89359872709963,41.49935562576155],[42.87352459638305,41.500084848237236],[42.844908771422695,41.47301015909164],[42.80243290805231,41.49358302773459],[42.79738168771479,41.517218164386804],[42.83017563789542,41.56486616014524],[42.82541234810145,41.585203122226346],[42.77490299917412,41.57530354792044],[42.693043027413864,41.59877312657858],[42.599068183150166,41.580770132735495],[42.57537716622329,41.561343542670386],[42.56945554513737,41.508133205882814],[42.51577708424509,41.47114289942533],[42.528983991817825,41.422037864356014],[42.51991463115536,41.3982497116549],[42.565185698061555,41.37672212722447],[42.55865510734736,41.34352809204785],[42.60677416619484,41.2995169672343],[42.60328744156226,41.283323828432],[42.568222065595876,41.266916488205425],[42.50091995219407,41.194455507415796],[42.42939454692083,41.19790773855135],[42.41225810382849,41.1794842208202],[42.42014038097386,41.15284127280654],[42.38794057329886,41.154284558785434],[42.34651087327825,41.101769505858044],[42.276004184945236,41.09266629021715],[42.30739185534992,41.04270308787727],[42.29200224640658,41.0111128074102],[42.25662798389442,40.98384761757353],[42.28773792566477,40.97457342912048],[42.351460542170344,40.987340344281506],[42.35680270308234,40.96375029963667],[42.41549710660621,40.9571541888148],[42.37027327029523,40.93099564893009],[42.3320651882579,40.88490340027175],[42.32110955895905,40.86156892316734],[42.33038637073446,40.81322585488937],[42.35839082577604,40.80002566435297],[42.378051989607684,40.80650372836442],[42.41290716523355,40.77384578895203],[42.48705699728265,40.790825160053146],[42.560612587900664,40.774436265821066],[42.61318594837286,40.688420820064835],[42.636578365199455,40.678993588583296],[42.61506922586415,40.62285131263803],[42.53921797542927,40.57908850233258],[42.53319267959853,40.549042868633535],[42.49166857234678,40.5054940052442],[42.48808760775694,40.462574158270854],[42.51971138707091,40.411552078865384],[42.515639859392024,40.39629337883639],[42.45686522914707,40.35024478237085],[42.396458913048434,40.355443235217194],[42.40019913588145,40.38015303743276],[42.36542311498482,40.39420183005046],[42.266041485426285,40.34474573922455],[42.146471256743155,40.341789521069586],[42.0219570635677,40.22349985863161],[41.97561963813587,40.1969801429193],[41.94712689888735,40.197747526327305],[41.91148207983417,40.1564709152006],[41.82313192479853,40.148113647626815],[41.78944552339226,40.1815879151502],[41.75722695855734,40.15780689856956],[41.732926665333366,40.16900276376657],[41.687766329252725,40.161655992430155],[41.677855711272116,40.17598923071847],[41.60396062118576,40.19566132580957],[41.57314946477601,40.18347837192937],[41.55137409194083,40.13583633867614],[41.498016492966826,40.08168613480734],[41.47888490571387,40.06615549418075],[41.45527965083528,40.07662660383477],[41.43218312355236,40.04421899970714],[41.40270445844408,40.0319075147201],[41.379639148428,39.95576510967214],[41.34711569363441,39.92827587892873],[41.34420133262546,39.910058159356595],[41.35914153775184,39.9005392788647],[41.334983805957904,39.86128363862906],[41.29739822744631,39.84002283898286],[41.293922273993815,39.806374311625234],[41.220154985664124,39.775598880783775],[41.263646576628275,39.736295846276334],[41.26655015386655,39.71278944217909],[41.22586879141164,39.67730384539618],[41.185071938918895,39.665551260282484],[41.16288243637541,39.617823635852176],[41.20387511804233,39.60560655629757],[41.230009789020585,39.57888974156839],[41.23057337975774,39.45263753119718],[41.31049210912357,39.33419232741403],[41.335784358161675,39.330812772291665],[41.37523576731684,39.3565738819791],[41.41804357674971,39.443353084177545],[41.53388168818941,39.46135274513313],[41.61332847762719,39.50974094858594],[41.66124046217766,39.50726968085115],[41.70877298858261,39.482752748140854],[41.77473410309642,39.508228754753304],[41.83718249537594,39.50399442010644],[41.84580168779769,39.52585995807067],[41.95795899371262,39.56532945888745],[42.081611747883926,39.58094463488703],[42.12090513356509,39.60606117888034],[42.12959236599494,39.64479792198654],[42.15255622618895,39.66177411668218],[42.23333668773802,39.688455835368586],[42.22334599232374,39.74054627339183],[42.14334068432515,39.74731606758252],[42.09246816667263,39.79432912488926],[42.10694892255481,39.82254691890523],[42.24656231739709,39.852815481049674],[42.27802412431396,39.84452651338796],[42.32400748485759,39.86399821524549],[42.3901504287993,39.86410064532856],[42.43410452940054,39.88453308573338],[42.49897901466983,39.86236531890438],[42.5170742070091,39.89651685776681],[42.62335622490991,39.90837137833648],[42.669134674026054,39.93771462532976],[42.82779159270791,39.945357192680376],[42.87399111699648,39.97066107714704],[42.967199028412494,39.97413337305676],[43.03669931961798,40.00885432576655],[43.11877455310321,40.00766869465457],[43.1503627534384,39.98514072866175],[43.3342974573618,39.97705368218175],[43.40706811070481,39.92280037643627],[43.432373489844736,39.89033731111806],[43.41998681973598,39.875578137720936],[43.42436134609932,39.81063311772425],[43.469027977759026,39.77650621938659],[43.497161269676894,39.77606883590812],[43.51981669208675,39.72147348381429],[43.56681549963565,39.69236989175715],[43.64036833383159,39.70508134572759],[43.65654235394652,39.69312260542398],[43.69023672874209,39.56824251498011],[43.728881327311456,39.552972749692685],[43.742072607365,39.53269336130961],[43.796895629130006,39.39139581776283],[43.85234376065608,39.356079237766664],[43.99143775924523,39.357840640932864],[44.023986138749365,39.37531274698574],[44.0336012538948,39.370425454171425]]]}},{"type":"Feature","properties":{"id":"van-basin","name":"Van Gölü Kapalı Havzası","sourceId":25},"geometry":{"type":"Polygon","coordinates":[[[44.0336012538948,39.370425454171425],[43.86608876678321,39.35576234905324],[43.74520108256394,39.37097446869683],[43.642558488783266,39.330893746349375],[43.62995088222749,39.31267685325423],[43.55523594228498,39.27780363363087],[43.49012277064941,39.3292706903901],[43.452264954763905,39.338056082022604],[43.45307579071522,39.36208099833948],[43.43057024572033,39.38388647777879],[43.28561544179928,39.375257945897545],[43.24176378387159,39.341429690827624],[43.16135925692424,39.34099195661355],[43.1789035713428,39.241864114837085],[43.150850192282576,39.19289774443541],[43.15057074234596,39.15485326796397],[43.11409097921535,39.11881687509879],[43.14546387106083,39.08420374660568],[43.08483837399183,39.03960695539672],[43.04734665682281,39.04492084522087],[42.91729148511399,38.993280347909774],[42.84489476807914,38.937953800227774],[42.64637382589143,38.94052054898418],[42.594258464956226,38.90880153596214],[42.55939407487671,38.934139177381155],[42.485288107260374,38.93440745324142],[42.43966980042103,38.958884056753845],[42.374381136880004,38.91706141864961],[42.352914753113396,38.92035805088341],[42.34611209859452,38.93672493061109],[42.31739023007509,38.93285298767529],[42.266857600398,38.89536033970796],[42.176404923948155,38.8768243806407],[42.14947624333399,38.84688328593495],[42.15229578881963,38.81802487155062],[42.1218360173184,38.783181733350375],[42.12333601364617,38.75497537241557],[42.14840854301991,38.72390768529152],[42.197146804881186,38.71844030367714],[42.21631670055535,38.70267275914057],[42.21474698158801,38.6669830027634],[42.1904320186228,38.629152665663014],[42.200785281115884,38.60468614085278],[42.23069360092899,38.59085906529367],[42.226926761760694,38.537560163270996],[42.238691690968835,38.50196640592492],[42.258529151599134,38.49219739879095],[42.22376426610805,38.468471228264605],[42.22823439130417,38.448731110252595],[42.31642456414238,38.44697284122367],[42.35215093371869,38.48033012943199],[42.369721746661355,38.460023661562786],[42.42712969158208,38.441591575091195],[42.43945973228085,38.407237772405324],[42.45440344206526,38.40742780185161],[42.473923904264836,38.43478805362582],[42.50899472202883,38.43971589057594],[42.52798280356359,38.43551706386148],[42.55535038121519,38.39448850913743],[42.61407900664091,38.38261669640349],[42.63818234204149,38.39604570324667],[42.63612838131979,38.429160819316394],[42.64876142070307,38.438085199372495],[42.75774837988388,38.42392359399872],[42.78094652696069,38.3949599508411],[42.78863907143602,38.333972395709566],[42.84926235707218,38.29788531975174],[42.81204876513846,38.22824142480198],[42.90363395514299,38.19771629776898],[42.936981962347716,38.19459178498295],[42.980441756881646,38.22600802774832],[43.03212375430786,38.21227494033627],[43.09942276594796,38.229980488808565],[43.16116499886567,38.17312654695263],[43.21988352220683,38.16139552128635],[43.27864540725977,38.19139398014812],[43.53083884603598,38.21582304100059],[43.547824237198824,38.19500503515428],[43.60829220362234,38.17571587588702],[43.60194168596007,38.08565217510784],[43.660103925555745,38.062937125847725],[43.66650680174757,38.03226193344153],[43.70392434103559,37.99610212481326],[43.688339695220805,37.97459256369592],[43.70598719425368,37.92358572869847],[43.779706102654586,37.91152029642461],[43.78042787424704,37.94784709566699],[43.89118791069359,38.09880443087985],[43.88699515620158,38.13501840117834],[43.921591443090676,38.19207339996751],[44.00820605316687,38.23802748398123],[44.12548695595831,38.340323391811125],[44.23095486527484,38.32827423636695],[44.29543289880928,38.34099865406466],[44.329663918854806,38.36775167280149],[44.316024635228814,38.37758124118136],[44.30569239618717,38.44239147618572],[44.323300027374444,38.484688765674036],[44.31125637128457,38.52411173287021],[44.32189590866932,38.621291399378606],[44.27252601606284,38.6449011041027],[44.28064323209952,38.67408411169248],[44.25374660602108,38.71794885385657],[44.27443682539922,38.72842462199878],[44.28711321570239,38.78239373838039],[44.30903488215415,38.81007547890027],[44.29353369882119,38.8447200800677],[44.24783799722587,38.84883776455126],[44.23709930958552,38.87525095286924],[44.21414229233295,38.885366628866905],[44.21746774963697,38.91365258789665],[44.1913977471084,38.93049942231056],[44.18909875080675,38.977351050410675],[44.17331274498724,38.99171466330114],[44.21102055575409,39.02247755759328],[44.19603241676265,39.076964309355446],[44.22589971759794,39.09994653730291],[44.18341581788576,39.16668262280484],[44.09937357732878,39.20452719257594],[44.10221889288766,39.23721077255914],[44.08825309240632,39.252606469013415],[44.105036084847484,39.285453052016805],[44.08071414224395,39.29660793241021],[44.07761539683315,39.329410940562525],[44.033664113807845,39.369578943013835],[44.0336012538948,39.370425454171425]]]}}]}
