{"type":"FeatureCollection","features":[{"type":"Feature","properties":{"id":"kizilirmak","name":"Kızılırmak"},"geometry":{"type":"MultiLineString","coordinates":[[[35.9398004,41.7078392],[35.9434053,41.7167276]],[[35.9351324,41.6960033],[35.9348251,41.6997423]],[[35.9355583,41.6977714],[35.9385877,41.7041737]],[[35.9368126,41.7035575],[35.9395795,41.7089332]],[[35.921997,41.6645233],[35.924499,41.6675743]],[[35.9030676,41.6011865],[35.9077889,41.6095365]],[[35.8933841,41.5863819],[35.8968562,41.5903234]],[[35.8875811,41.5776279],[35.8910665,41.5820666]],[[35.8748746,41.5569666],[35.8805873,41.566219]],[[35.8531681,41.5299563],[35.8562208,41.5345658]],[[35.8497512,41.5245035],[35.8519686,41.5280505]],[[35.8467266,41.5193985],[35.8483887,41.5229592]],[[35.8454108,41.5152848],[35.844482,41.5167976]],[[35.8435981,41.5126899],[35.8465353,41.519975]],[[35.8360894,41.4861461],[35.8368305,41.4893122]],[[34.4266757,41.0944749],[34.4223045,41.0955175]],[[34.6018803,41.0288361],[34.5995557,41.0299594]],[[34.6319371,41.0098275],[34.6284798,41.0096919]],[[34.6425478,41.0022375],[34.6412565,41.0031723]],[[34.8473806,40.9238207],[34.8465005,40.9256282]],[[34.836823,40.8750432],[34.8328016,40.8770188]],[[34.8630887,40.8678592],[34.861888,40.8703692]],[[34.5069878,40.6073608],[34.5188913,40.6199572],[34.5290637,40.6093996]],[[34.4988433,40.6040755],[34.5066637,40.607022]],[[34.4909836,40.596838],[34.4912606,40.5986153]],[[34.4850658,40.5946585],[34.4919097,40.5992767]],[[34.4898707,40.597728],[34.4944923,40.6028354]],[[34.4833286,40.5872176],[34.4844264,40.5924641]],[[34.4781822,40.5815666],[34.4807035,40.5838338]],[[34.4769252,40.5812156],[34.4848649,40.5879209]],[[34.470258,40.5786958],[34.4743966,40.580486]],[[34.446487,40.5707801],[34.45015,40.5727401]],[[34.4514419,40.5728534],[34.4597422,40.5747019]],[[34.4520594,40.5733741],[34.4576626,40.5736604]],[[34.4344074,40.5686017],[34.4370646,40.5671454]],[[34.4216358,40.5664956],[34.42642,40.5684283]],[[34.4060966,40.5617579],[34.4102051,40.5647542]],[[34.354417,40.5154614],[34.3576857,40.5247763]],[[34.356819,40.5206442],[34.3585624,40.5213161]],[[34.349925,40.5124712],[34.3534368,40.5145839]],[[34.3345389,40.5179166],[34.3410476,40.5152859]],[[34.2995533,40.5083846],[34.3113649,40.5106078]],[[34.3128151,40.5108338],[34.3207366,40.5134557]],[[34.2946862,40.5096016],[34.3023072,40.5097869]],[[34.2887518,40.507319],[34.2913311,40.5095505]],[[34.2631924,40.4974656],[34.27863,40.4996863]],[[34.2580849,40.4945378],[34.2609872,40.496518]],[[34.2522164,40.485447],[34.2539998,40.4889571]],[[34.2500538,40.4791714],[34.2522275,40.4857183]],[[34.2437731,40.4755376],[34.2496793,40.4782781]],[[35.9560176,41.7359262],[35.914045,41.6571344],[35.9059444,41.6047873],[35.8376627,41.5024041],[35.83448,41.4733566],[35.8493751,41.4527956],[35.8379343,41.4440504],[35.8378399,41.4269411],[35.8173345,41.4203769],[35.828901,41.4014259],[35.8113297,41.3923169],[35.8045202,41.3758059],[35.7850278,41.3789622],[35.7420875,41.3644703],[35.6067721,41.3445828],[35.5386966,41.295901],[35.516068,41.2911002],[35.5047727,41.2716846],[35.4248173,41.2819804],[35.3627586,41.2425136],[35.3117322,41.2327676],[35.1943125,41.2678298],[35.19335,41.3041464],[35.1486263,41.3239352],[35.1197842,41.4082591],[35.1033371,41.3835512],[35.043206,41.3581479],[35.0291398,41.360473],[35.0169841,41.3533884],[35.0182288,41.3436169],[34.9982526,41.3353412],[34.9304717,41.3150606],[34.9336205,41.2849848],[34.8844373,41.2674444],[34.8702436,41.2219995],[34.8274867,41.176577],[34.7780291,41.1458085],[34.7678876,41.1286173],[34.7269803,41.1102811],[34.5848644,41.1161911],[34.4160707,41.1032739],[34.4640965,41.0669889],[34.4836286,41.0628246],[34.5197484,41.0758492],[34.5525211,41.0489963],[34.6140981,41.0215195],[34.6201312,41.0079252],[34.6327249,41.009631],[34.6573708,40.9897474],[34.6952409,40.9764458],[34.7601343,40.9892187],[34.8052166,40.9653063],[34.8400007,40.9644816],[34.8399237,40.9309177],[34.8619022,40.8952448],[34.8313057,40.878861],[34.8592437,40.8738836],[34.8565024,40.8601298],[34.8702548,40.8467097],[34.8407592,40.8036331],[34.8208986,40.8078632],[34.7957501,40.7714652],[34.7264225,40.7299947],[34.7178984,40.7165519],[34.721566,40.6914109],[34.6680044,40.6719144],[34.6607876,40.6553424],[34.5454359,40.6054818],[34.5258715,40.6114151],[34.4954145,40.6033636],[34.4813564,40.5824484],[34.4105674,40.5649254],[34.3661847,40.5405296],[34.3485572,40.5111779],[34.3326329,40.5179641],[34.2909211,40.5094577],[34.2598826,40.4963642],[34.2401361,40.4750125]],[[34.2351714,40.4738465],[34.2041788,40.4855078],[34.1429317,40.4728231],[34.1115972,40.4763469],[34.0847127,40.4445295],[34.0312278,40.4181703]],[[34.2026069,40.4854651],[34.2142562,40.4821979]],[[34.1937125,40.4843576],[34.1966042,40.4849482]],[[34.1910541,40.482658],[34.1913357,40.4834936]],[[34.1827587,40.4812898],[34.1942731,40.484174]],[[34.1532755,40.4790531],[34.1554387,40.4785627]],[[34.146629,40.4747259],[34.1587176,40.4794475]],[[34.1408199,40.4728804],[34.1460209,40.4744461]],[[34.1442457,40.4745416],[34.1469763,40.4748481]],[[34.1381517,40.4755335],[34.1446571,40.4743201]],[[34.1285797,40.4767512],[34.135967,40.4777122]],[[34.1312593,40.4775253],[34.1332618,40.4786462]],[[34.1230108,40.4759174],[34.1256521,40.4761079]],[[34.1221938,40.475615],[34.1274192,40.4760538]],[[34.1209173,40.4758174],[34.1251429,40.4752918]],[[34.1037418,40.470288],[34.1082334,40.4741447]],[[34.0985273,40.4610796],[34.1015549,40.4640052]],[[34.096086,40.4598255],[34.1030834,40.4695051]],[[34.0933791,40.4574374],[34.0954568,40.4583648]],[[34.0919455,40.4533204],[34.0956618,40.4589458]],[[34.0895318,40.4503436],[34.0910988,40.4513699]],[[34.0827698,40.4437852],[34.0864255,40.4464072]],[[34.0723009,40.4434611],[34.0740517,40.444204]],[[34.0732169,40.4438852],[34.0750662,40.4437109]],[[34.0639395,40.4376534],[34.0652046,40.4400378]],[[34.0623282,40.4351261],[34.0638614,40.4373423]],[[34.0576231,40.4284022],[34.0595136,40.4283936]],[[34.0511841,40.4251067],[34.0551778,40.4274604]],[[34.0393808,40.4203881],[34.0451059,40.4226244]],[[34.0337978,40.4196772],[34.0372747,40.4199235]],[[34.0350425,40.4103975],[34.0310574,40.4147645]],[[34.0365948,40.4071807],[34.0361476,40.4097884]],[[34.0324154,40.3969443],[34.0325664,40.4015709]],[[34.0323354,40.3985861],[34.031943,40.4008322]],[[34.0329706,40.4004037],[34.0346022,40.4034558]],[[34.0333992,40.4195739],[34.0296762,40.3905411]],[[34.0328246,40.3958848],[33.9975464,40.354881],[33.9773274,40.347385],[33.9489873,40.3461596],[33.9128409,40.3598844]],[[34.0245586,40.386876],[34.027516,40.3897104]],[[34.0194772,40.3817913],[34.0188053,40.3841594]],[[34.0193789,40.3820574],[34.0194611,40.3850802]],[[34.016319,40.3766774],[34.0182536,40.3785901]],[[34.0072514,40.374197],[34.0103317,40.3745151]],[[33.9836817,40.3509144],[33.9880947,40.3516023]],[[33.9608086,40.3447911],[33.9653581,40.3455291]],[[33.914351,40.3619017],[33.9148648,40.3609827]],[[33.8976663,40.3563843],[33.9010568,40.3597345]],[[33.8714823,40.3512095],[33.8725181,40.3527122]],[[33.8636868,40.3490554],[33.8665366,40.3502277]],[[33.7933784,40.3290752],[33.7938407,40.3319938]],[[33.7931715,40.3270179],[33.7938713,40.3300755]],[[33.7807007,40.3228306],[33.7828751,40.3213313]],[[33.7638316,40.3200495],[33.766847,40.320604]],[[33.6921346,40.3291554],[33.6926024,40.3315317]],[[33.6827771,40.3295822],[33.6846346,40.3289963]],[[33.6787957,40.331095],[33.6820874,40.330961]],[[33.6737407,40.327193],[33.6755767,40.3291312]],[[33.9184899,40.3595966],[33.7953655,40.3339047],[33.7864407,40.3207058],[33.7305594,40.321988],[33.6965075,40.3337124],[33.6667201,40.3234261]],[[33.6653991,40.3231437],[33.6571672,40.318772],[33.6595572,40.2960293],[33.6471635,40.2940774],[33.6438652,40.2800462],[33.6288553,40.2855056],[33.6211363,40.2626204],[33.6097817,40.2583083],[33.619877,40.2433504],[33.6039384,40.2204992],[33.5657859,40.2109959],[33.5801813,40.1850804],[33.5521297,40.1569311],[33.5551362,40.1495566],[33.5430544,40.1491176],[33.5324655,40.1265727],[33.4606916,40.0939773],[33.4462192,40.0760582],[33.4400721,40.0042663],[33.4461118,39.9824195],[33.4303713,39.9766201],[33.4353501,39.9643386],[33.4130195,39.9390592],[33.4278341,39.9250055],[33.412739,39.9084195],[33.4232594,39.8993864],[33.4061321,39.890569],[33.4156054,39.8864799],[33.4143185,39.8711369],[33.4267797,39.8549278],[33.4526811,39.8396205],[33.4695375,39.8406694],[33.4636795,39.8226445],[33.4820308,39.8162706],[33.4592768,39.785268],[33.4859273,39.7699133],[33.4755048,39.7475814],[33.4852525,39.7416193],[33.4848796,39.720579],[33.4499204,39.6712215],[33.488578,39.6488344],[33.4355533,39.6139934],[33.4230152,39.56231],[33.3932888,39.5692751],[33.4210404,39.5433032]],[[33.6577488,40.3213144],[33.6590753,40.3231983]],[[33.617797,40.2496728],[33.6166406,40.2510471]],[[33.6196706,40.2430397],[33.6181289,40.249385]],[[33.605699,40.2249307],[33.6053569,40.227127]],[[33.57028,40.2128785],[33.5729452,40.213042]],[[33.5732487,40.1942236],[33.5697864,40.1965206]],[[33.4711924,40.09876],[33.4730188,40.0985383]],[[33.4681749,40.0978859],[33.4700176,40.0986184]],[[33.4082657,39.8888207],[33.4066211,39.8917318]],[[33.4760338,39.8064198],[33.4823882,39.8121232]],[[33.410148,39.5692667],[33.4143145,39.5621053]],[[33.4126092,39.5551303],[33.4095602,39.5568158]],[[33.411175,39.5565151],[33.4057653,39.5583386]],[[33.4216097,39.5444366],[33.4220688,39.5479573]],[[33.3978484,39.5366289],[33.399996,39.5403217]],[[33.3961842,39.525712],[33.3972954,39.5327359]],[[33.3904977,39.4968446],[33.3907932,39.4977289]],[[33.3912559,39.4933518],[33.3907697,39.4970326]],[[34.0988688,39.0096886],[34.0968981,39.0122273]],[[34.103406,39.0011573],[34.1021028,39.0046247]],[[34.1095396,38.985506],[34.1067567,38.9875104]],[[34.1263568,38.9779333],[34.1229129,38.9776977]],[[34.1238276,38.9774259],[34.1090359,38.9854828]],[[34.1552818,38.9989336],[34.151935,38.9983389]],[[34.177062,38.9693231],[34.1682914,38.9927712]],[[34.2066434,38.9480692],[34.2045905,38.9512034]],[[34.2071425,38.9457235],[34.205453,38.9483818]],[[34.2166809,38.9406427],[34.2093839,38.9424604]],[[34.2342541,38.9307929],[34.2323376,38.9321919]],[[33.4189537,39.540575],[33.4075624,39.5456922],[33.3977428,39.5363263],[33.3954168,39.5241369],[33.4113612,39.5124919],[33.3905902,39.4936811],[33.4117186,39.488199],[33.4186079,39.4744049],[33.3889655,39.4759451],[33.3954844,39.4594838],[33.387545,39.4376327],[33.3960887,39.426481],[33.3840919,39.4126519],[33.4059702,39.3970076],[33.4208125,39.4007863],[33.4336948,39.367614],[33.4437556,39.3576611],[33.4566706,39.3597921],[33.4709755,39.3412233],[33.4441363,39.3207358],[33.4617421,39.3027583],[33.5073245,39.289908],[33.529698,39.2416209],[33.5563241,39.2168961],[33.6561516,39.1610492],[33.7096704,39.1164982],[33.7428821,39.1041984],[33.7634602,39.0729452],[33.8434301,39.0718802],[33.8890722,39.0391384],[33.9519673,39.0495064],[33.9620825,39.0338366],[34.0237398,39.0407535],[34.0573324,39.0083498],[34.078097,39.0207815],[34.0957333,39.0130887],[34.1060253,38.9881412],[34.1226167,38.9776825],[34.1623742,38.9973816],[34.1786508,38.9671889],[34.1996219,38.9604528],[34.2090795,38.9427331],[34.2255959,38.9412424],[34.2535079,38.9118487]],[[34.2492262,38.913837],[34.2697023,38.8987432],[34.2933353,38.8971906],[34.3521035,38.8450367],[34.404131,38.8398233],[34.4190573,38.8261262],[34.4152113,38.8156912],[34.4543312,38.8025948],[34.4535116,38.7916214],[34.5041138,38.7860612],[34.5342935,38.7943439],[34.5527081,38.7778017],[34.5750763,38.7769234],[34.5827874,38.7652588],[34.629906,38.7494708],[34.6767151,38.7583086],[34.746226,38.7518591],[34.7731596,38.7312662],[34.8706296,38.7142903],[34.8807955,38.7297123],[34.9881617,38.7498569],[34.9646722,38.7690563],[34.9781599,38.7906727],[34.9987166,38.7922852],[35.0167463,38.7727465],[35.0483179,38.7744451],[35.0797964,38.7897026],[35.0951064,38.7873167],[35.1171595,38.8030695],[35.1346598,38.8019979],[35.1539755,38.8139433],[35.1546265,38.827345],[35.1745753,38.8356084],[35.2037466,38.8408089],[35.221077,38.8320657],[35.2280071,38.8397745],[35.2233874,38.8553688],[35.2350801,38.861083],[35.2677695,38.8495825],[35.2727563,38.8699687],[35.2588499,38.876213],[35.2572242,38.8884685],[35.2675785,38.903455],[35.2871947,38.9206173],[35.3108707,38.9170122],[35.3388611,38.9496558],[35.448997,38.9558214],[35.461774,38.9643994],[35.4484462,38.9792478],[35.4616611,38.987916],[35.477401,38.9875727],[35.4989868,38.9694656],[35.5076125,38.980459],[35.5261872,38.9817429],[35.5321669,38.9976912],[35.5481891,38.9991226],[35.5545891,39.0250029],[35.6200202,39.032529],[35.6485325,39.0597628],[35.6860894,39.0659806],[35.7374291,39.0416833],[35.7776454,39.0537118],[35.8171168,39.0936877],[35.892099,39.1236142],[35.8984641,39.1434422],[35.9225473,39.1570853],[35.9374329,39.1848159],[35.9623271,39.197265],[35.9579183,39.2100198],[35.9757024,39.2083587],[35.9991672,39.2339295],[36.0425118,39.2325993],[36.0824208,39.275582],[36.1035591,39.2779468],[36.1040032,39.2899537],[36.1246133,39.2984104],[36.1212659,39.3154763],[36.1363709,39.3220391],[36.1600111,39.3168352],[36.1571643,39.3345465],[36.1754746,39.328603],[36.2176531,39.3706339],[36.2743454,39.3908052],[36.2939559,39.4187335],[36.3615479,39.4582157],[36.3593714,39.4788104],[36.3874403,39.4977242],[36.3748652,39.5215806],[36.4116053,39.550788],[36.4308503,39.5529666],[36.4200106,39.5752537],[36.4405076,39.5799365],[36.4567811,39.5670141],[36.4683794,39.5895419],[36.5150646,39.6022596],[36.5250993,39.6152462],[36.5692171,39.6217081],[36.5703943,39.6311076],[36.5943593,39.6442054],[36.5992295,39.6676087],[36.6341016,39.6647548],[36.6403824,39.6866232],[36.6732555,39.6749699],[36.6750882,39.6899238],[36.6937505,39.7012349],[36.7007794,39.6935951],[36.6885062,39.6832544],[36.7146612,39.6805515],[36.7103851,39.6920384],[36.7214406,39.7058309],[36.7380409,39.7084569],[36.7380387,39.6971429],[36.7456385,39.7044102],[36.7569812,39.6938078],[36.780231,39.7002613],[36.7826172,39.7131966],[36.7938481,39.698658],[36.820731,39.7041861],[36.8300264,39.7170115],[36.8719259,39.7168417],[36.8827718,39.7287054],[36.9164022,39.7110106],[36.960122,39.7214818],[36.9819036,39.7127537],[37.0368926,39.7172545],[37.0516341,39.7426799],[37.0794995,39.7447645],[37.0954306,39.7683283],[37.1236462,39.773759],[37.161169,39.8012582],[37.1986242,39.7824174],[37.2229886,39.7926132],[37.2396178,39.7864016],[37.2593773,39.8053],[37.3113184,39.8129456],[37.3204538,39.8248721],[37.3434573,39.8168597],[37.4056405,39.8507297],[37.4465333,39.8487724],[37.4412855,39.8371465],[37.4649132,39.8367028],[37.4848177,39.8578927],[37.5142922,39.8532138],[37.5128297,39.8604951],[37.5347536,39.8672153],[37.5310103,39.8746206],[37.5391679,39.8781717],[37.5736654,39.8759196],[37.5748917,39.866655],[37.6114934,39.854142],[37.6166553,39.8424316],[37.6622912,39.8480247]],[[34.2681828,38.9001234],[34.2673397,38.9027478]],[[34.3511252,38.8461529],[34.3501604,38.8490749]],[[34.3765891,38.8410918],[34.37508,38.843182]],[[34.4192183,38.824273],[34.4184051,38.8266269]],[[34.4193399,38.8134125],[34.4167563,38.8147805]],[[34.4380416,38.8062885],[34.4343616,38.8071141]],[[34.4459803,38.8035621],[34.4393371,38.8060719]],[[34.5443939,38.7863738],[34.5405154,38.7911521]],[[34.5471874,38.785089],[34.5449341,38.7856719]],[[34.5510396,38.7795462],[34.5491132,38.7821713]],[[34.8474231,38.7173521],[34.8418198,38.7161029]],[[34.8684625,38.714052],[34.8618535,38.7159452]],[[34.8732418,38.7185882],[34.8736793,38.7158243]],[[35.6448433,39.0566718],[35.6448658,39.0536389]],[[35.6941657,39.0584598],[35.6925331,39.0608278]],[[35.7601252,39.0464463],[35.7515609,39.0464255]],[[35.7696518,39.0503335],[35.7622491,39.0466485]],[[35.7956809,39.0667125],[35.79509,39.0655545]],[[35.7987038,39.0691432],[35.795557,39.0663208]],[[35.8112767,39.085637],[35.8095812,39.0840784]],[[35.8422214,39.1003515],[35.8409084,39.0986565]],[[35.8764192,39.1136317],[35.8638431,39.1109287]],[[35.8818734,39.1177502],[35.8802514,39.1164355]],[[35.978329,39.2099695],[35.9757024,39.2083587]],[[36.1216959,39.2985267],[36.11302,39.2971857]],[[36.1597284,39.3217228],[36.1603591,39.3184251]],[[36.3671197,39.4815226],[36.3642631,39.481724]],[[36.3731899,39.4909361],[36.3713386,39.4873838]],[[36.4278477,39.5652286],[36.4304602,39.5596187]],[[36.4191969,39.5739816],[36.4193991,39.5728504]],[[36.4506996,39.5686848],[36.4489902,39.5715234]],[[36.4651775,39.5827512],[36.4624536,39.578255]],[[36.4788758,39.5877306],[36.4741177,39.5878559]],[[36.4996846,39.6029301],[36.4951184,39.6010467]],[[36.5173492,39.604774],[36.5160951,39.6031608]],[[36.5208098,39.608488],[36.5176147,39.6051448]],[[36.5427035,39.6171227],[36.5408097,39.6153432]],[[36.5461985,39.6212703],[36.543229,39.6177081]],[[36.5592007,39.6221305],[36.5539316,39.62137]],[[36.5675903,39.6212957],[36.5650586,39.6212623]],[[36.5699807,39.6288519],[36.5701924,39.6248511]],[[36.5954402,39.647322],[36.5945302,39.6447671]],[[36.5982835,39.6665389],[36.5968716,39.6643254]],[[36.6154741,39.6687205],[36.612437,39.6691957]],[[36.6196576,39.6669834],[36.6165706,39.6683479]],[[36.6250491,39.6648662],[36.6224288,39.6655954]],[[36.6378733,39.6681891],[36.6357702,39.6655958]],[[36.6390154,39.6856407],[36.6357334,39.6830732]],[[36.6445956,39.6873459],[36.6404664,39.6866562]],[[36.6638129,39.6779634],[36.6624312,39.6803371]],[[36.6924895,39.701262],[36.6884532,39.7003958]],[[36.7865567,39.7082526],[36.7858289,39.7095188]],[[36.8226635,39.7079728],[36.821989,39.7063396]],[[36.9863059,39.712931],[36.982137,39.7127647]],[[37.0810877,39.7482201],[37.0799222,39.7451251]],[[37.1523696,39.7957992],[37.1498,39.7947066]],[[37.3383236,39.8178898],[37.3344393,39.8198972]],[[37.4654273,39.8445862],[37.4664339,39.8410153]],[[37.5111084,39.8544185],[37.5080541,39.8559617]],[[37.5176883,39.8645593],[37.5154333,39.8616612]],[[37.5331315,39.8766078],[37.5314064,39.8753772]],[[37.610437,39.8545941],[37.6084515,39.8550842]],[[37.6754924,39.8593581],[37.6749033,39.8579133]],[[37.6725681,39.8651211],[37.6720333,39.8636946]],[[37.6818742,39.8715549],[37.6802489,39.8702988]],[[37.7054278,39.8750193],[37.7030568,39.8745322]],[[38.409563,39.8510936],[38.3312707,39.8625128],[38.2637219,39.8365688],[38.233772,39.8677172],[38.171869,39.8823533],[38.1012806,39.874595],[38.0544627,39.8944562],[38.0321703,39.8857646],[38.010531,39.9032922],[37.9795555,39.8964485],[37.9506709,39.9131447],[37.9049327,39.9126822],[37.893493,39.9268022],[37.8880021,39.917558],[37.8670377,39.918569],[37.8627706,39.9022849],[37.8499436,39.8994713],[37.8268982,39.9019453],[37.8152073,39.9132693],[37.7648267,39.9027944],[37.738091,39.8648322],[37.7172596,39.8750821],[37.6828104,39.8718201],[37.6605748,39.8473283]]]}},{"type":"Feature","properties":{"id":"yesilirmak","name":"Yeşilırmak"},"geometry":{"type":"MultiLineString","coordinates":[[[36.6608467,41.364917],[36.6592663,41.3675257]],[[36.6542105,41.3570849],[36.6566665,41.3589866]],[[36.6716252,41.3298644],[36.6623179,41.3323306]],[[36.654778,41.3335162],[36.642877,41.3381389]],[[36.6906462,41.2520266],[36.6817641,41.2567721]],[[36.4823639,40.7606873],[36.5057591,40.7641133]],[[36.4893655,40.7614944],[36.4927049,40.761887]],[[36.440075,40.7548966],[36.4435315,40.7587432]],[[36.4132549,40.7370587],[36.4201565,40.7375716]],[[36.2833866,40.7460255],[36.2878928,40.7456273]],[[36.2772472,40.7446781],[36.2800714,40.746311]],[[36.2398685,40.7415885],[36.2425742,40.7413008]],[[36.2378427,40.7421757],[36.2957541,40.7461429],[36.3110088,40.768898],[36.3211703,40.7572786],[36.4008151,40.7320343],[36.4232793,40.7379572],[36.4504347,40.7615158],[36.5066558,40.7642836],[36.5117073,40.7705606],[36.5030831,40.7789311],[36.4805736,40.7749925],[36.4791209,40.7835453],[36.4128932,40.815341],[36.4143554,40.8536708],[36.4277929,40.8584972],[36.4326113,40.8736103],[36.448223,40.8704255],[36.4501087,40.8806135],[36.461009,40.881991],[36.4730941,40.8733398],[36.5089398,40.8766898],[36.568476,40.89929],[36.5850444,40.8955174],[36.5956736,40.9084856],[36.6148118,40.8948324],[36.6362462,40.9102688],[36.6510658,40.9049086],[36.6477218,40.9431277],[36.628411,40.9509581],[36.6375798,40.9813107],[36.6337804,41.0221203],[36.6593262,41.0374579],[36.6735126,41.0829323],[36.7150791,41.1131538],[36.7392323,41.1555523],[36.7177519,41.1833453],[36.7265263,41.2189994],[36.7117265,41.2170694],[36.7153756,41.2307263],[36.7020454,41.2387195],[36.7160663,41.2478785],[36.6808812,41.2540451],[36.6884244,41.2709996],[36.6735726,41.2957737],[36.6887226,41.3191768],[36.6389087,41.3403267],[36.6595578,41.3607809],[36.6603961,41.3802365]],[[36.2191088,40.7348777],[36.2162859,40.7348668]],[[36.197644,40.7326784],[36.2057071,40.7335137]],[[36.1778847,40.730689],[36.193098,40.7320431]],[[37.5337673,40.2644439],[37.5307935,40.2636428]],[[36.6616952,41.3704253],[36.660459,41.3725703]],[[36.6554392,41.358211],[36.6615097,41.3749605]],[[36.2429772,40.7412363],[36.158448,40.7271443],[36.1410631,40.7491462],[36.1180158,40.7411271],[36.0683849,40.7537089],[35.9965837,40.7424654],[35.9605237,40.7030547],[35.8433464,40.6711759],[35.8336204,40.6527309],[35.8037644,40.6484386],[35.8188646,40.6245689],[35.7998508,40.609527],[35.8065987,40.6020514],[35.7943365,40.5982199],[35.799506,40.5879142],[35.7599292,40.5620906],[35.743546,40.5305499],[35.7567383,40.5308856],[35.7543974,40.5232795],[35.7673793,40.5155712],[35.7814536,40.5192875],[35.7960028,40.4952559],[35.8694182,40.4912814],[35.9781905,40.5014463],[36.0184772,40.4834049],[36.0091784,40.4770227],[36.013558,40.4676374],[36.1131534,40.4423373],[36.1165335,40.4247172],[36.0866998,40.4006859],[36.0835668,40.3618437],[36.1220701,40.3467387],[36.1414411,40.3141817],[36.1584725,40.3040018],[36.2170596,40.3018984],[36.2476066,40.2849053],[36.2545046,40.2931104],[36.2645853,40.2862756],[36.2712564,40.2940351],[36.2743632,40.2857822],[36.2964544,40.2947941],[36.312948,40.2886112],[36.3835743,40.3305516],[36.4331128,40.3391429],[36.5041822,40.3416546],[36.5638481,40.3292221],[36.5984475,40.337157],[36.695186,40.3825075],[36.7407701,40.4302476],[36.7809147,40.4409751],[36.8421199,40.4359582],[36.855741,40.424087],[36.8721409,40.4287015],[36.8946741,40.4176811],[36.939262,40.378969],[37.0159697,40.3407073],[37.085119,40.3331281],[37.0931281,40.319602],[37.1217835,40.3114487],[37.1588657,40.309803],[37.1836347,40.3210173],[37.2277703,40.3120037],[37.2487483,40.3225391],[37.2788483,40.3200867],[37.3189611,40.3009114],[37.354787,40.2984442],[37.380746,40.2816932],[37.4372688,40.2866862],[37.5126605,40.2740845],[37.5993615,40.2196718],[37.6178943,40.2177082],[37.6573738,40.182589],[37.6945337,40.1661824],[37.7278058,40.1679773],[37.7551048,40.142062],[37.7528919,40.1228049]]]}},{"type":"Feature","properties":{"id":"sakarya","name":"Sakarya"},"geometry":{"type":"MultiLineString","coordinates":[[[31.9301373,39.8023998],[31.9503696,39.7859174],[31.9425393,39.7741116],[31.9661129,39.7604131],[31.9706824,39.7464897],[31.9370198,39.7380999],[31.9421551,39.72636],[31.9788936,39.7302992],[31.9922536,39.7020979],[31.9792743,39.6850935],[31.974501,39.6167865],[31.9487189,39.5828036],[31.9469339,39.5660583],[31.9722627,39.5348819],[31.9665328,39.5121316],[31.9977658,39.4970945],[31.98626,39.4792951],[31.9977015,39.4552259],[31.9927796,39.4272749],[31.9705783,39.3962658],[31.991981,39.375326],[31.9722737,39.3565371],[32.0278992,39.3237116],[32.0434291,39.3007656],[32.0588851,39.3013718],[32.0637039,39.2844595],[32.0365057,39.2691094],[32.0323096,39.2533558],[32.0128861,39.2510334],[32.0039436,39.2200025],[31.9668736,39.2468772],[31.9540237,39.2329065],[31.9257636,39.2279539],[31.9252543,39.2116324],[31.8866801,39.1823312],[31.8520781,39.1827462],[31.8418536,39.173034],[31.830081,39.1784755],[31.827384,39.1634544],[31.8031138,39.1477122],[31.7470631,39.1631813],[31.7309698,39.1568828],[31.7228296,39.1646501],[31.7099762,39.1540396],[31.7009755,39.1631291],[31.7154627,39.1732825],[31.6971833,39.1692583],[31.6807991,39.1782488],[31.6763842,39.199016],[31.6568752,39.2059998],[31.6477455,39.1990116],[31.6261695,39.2070359],[31.6247969,39.1952063],[31.604611,39.1822673],[31.5731798,39.1911634],[31.5579262,39.1823092],[31.5350082,39.190181],[31.5270111,39.1833752],[31.5171066,39.2000927],[31.4961687,39.1868329],[31.4773482,39.2032572],[31.451023,39.2036948],[31.4446239,39.2200326],[31.4278842,39.2268951],[31.4304138,39.2432551],[31.4099566,39.2503096],[31.3997256,39.2443109],[31.3429062,39.2701766],[31.327858,39.3073102],[31.3388935,39.3263578],[31.3105832,39.345742],[31.3087453,39.3563506],[31.2853208,39.3641091],[31.193509,39.3912731],[31.1298806,39.3915145],[31.1129013,39.3805657],[31.0712893,39.3764672],[31.0589899,39.3534725]],[[31.9280932,39.8029505],[31.9264421,39.803399]],[[31.9390593,39.7923769],[31.9376273,39.7947276]],[[31.936591,39.7960453],[31.9351396,39.7980589]],[[31.943488,39.7891126],[31.9402868,39.7910932]],[[31.9456726,39.7805158],[31.9467268,39.7814315]],[[31.9502811,39.7841152],[31.9506087,39.7853908]],[[31.9664732,39.7595955],[31.9635843,39.7619923]],[[31.9559817,39.7659263],[31.9524178,39.7665473]],[[31.9688867,39.7506594],[31.9679504,39.752551]],[[31.9677702,39.7528908],[31.9667327,39.7548729]],[[31.9625411,39.7425099],[31.9647307,39.7425813]],[[31.8923489,39.1930555],[31.8910415,39.2012679],[31.900077,39.1977576]],[[31.9336915,39.8003848],[31.8913977,39.8106068],[31.894564,39.8246168],[31.8798996,39.8315563],[31.8998203,39.8560396],[31.8465611,39.8530984],[31.872443,39.8707754],[31.8599371,39.8823653],[31.8053153,39.8758733],[31.7694036,39.8999067],[31.7660987,39.9133181],[31.7382652,39.9347209],[31.7345578,39.972633],[31.7211851,39.9656686],[31.6987713,39.9776422],[31.6946675,39.9918247],[31.7137401,40.025153],[31.6805624,40.0083557],[31.6623231,40.012168],[31.6697449,40.0510838],[31.6311621,40.0271544],[31.5355331,40.0382228],[31.5045356,40.0207567],[31.4656202,40.0442129],[31.4555292,40.029234],[31.4028954,40.0172786],[31.3891162,40.0363619],[31.4319545,40.0487844],[31.3928239,40.0638119],[31.340375,40.0468077],[31.3013792,40.0620736],[31.2676524,40.0636456],[31.1881338,40.0471399],[31.1170239,40.0731928],[31.1014581,40.0538003],[31.0451102,40.053094],[31.0148013,40.0398954],[31.0167426,40.0290623],[31.0051091,40.0258191],[30.9819871,40.0335047],[30.9380311,40.029619],[30.896827,40.0540959],[30.8842289,40.0487284],[30.8597374,40.061971],[30.8433849,40.0913945],[30.8293244,40.0983473],[30.8216772,40.0940491],[30.8241318,40.0754601],[30.811172,40.070425],[30.7905793,40.0707832],[30.7759586,40.0851239],[30.7640261,40.0616184],[30.7480082,40.071221],[30.7411703,40.0565459],[30.6836949,40.0519395],[30.6762636,40.0413626],[30.6482747,40.0454755],[30.6373573,40.0293696],[30.6071724,40.0361873],[30.586081,40.0307763],[30.5844851,40.0226162],[30.554443,40.0268812],[30.5422363,40.0156764],[30.5124274,40.0184732],[30.4590759,40.0450707],[30.3976539,40.0483071],[30.3929549,40.0566325],[30.4024085,40.0668922],[30.3744762,40.0718413],[30.366467,40.087432],[30.3329389,40.0796318],[30.3206433,40.0895383],[30.3016961,40.0765701],[30.2766246,40.0809691],[30.2682628,40.0923216],[30.2566896,40.0821124],[30.2408485,40.0867666],[30.2010606,40.1249533],[30.1716918,40.1390981],[30.1729685,40.1607674],[30.1460344,40.1908488],[30.1284793,40.1851165],[30.0793401,40.2060892],[30.0764961,40.2228245],[30.0649122,40.2306133],[30.0782282,40.2538746],[30.0532186,40.2903004],[30.060103,40.301205],[30.0834793,40.3064572],[30.0868984,40.323767],[30.0458879,40.3465744],[30.0328318,40.3677046],[30.0141299,40.3601678],[29.9661271,40.3783107],[30.0048906,40.4057067],[30.0262946,40.4051225],[30.0555519,40.4402903]],[[30.4463872,40.0444284],[30.4396273,40.0442267]],[[30.0559321,40.4409093],[30.0581544,40.4540135],[30.080958,40.4663967],[30.1241038,40.4582317],[30.170721,40.4762257],[30.2034103,40.4780564],[30.221487,40.4962235],[30.2843097,40.521678],[30.3381928,40.5758195],[30.3233854,40.5909263],[30.3249444,40.6220187]],[[30.6487369,41.1278995],[30.6473038,41.0835271],[30.638272,41.0776676],[30.6213722,41.0756733],[30.6091313,41.100061],[30.5909412,41.0964073],[30.6076446,41.073807],[30.6037354,41.0655583],[30.6196075,41.0560168],[30.6101336,41.0474021],[30.6160564,41.0349006],[30.5975786,41.0338736],[30.6085131,41.0172659],[30.5992962,40.9993515],[30.5756002,41.0006266],[30.5692945,41.0121167],[30.5453058,41.0107633],[30.5474298,40.9982701],[30.5260148,40.9867245],[30.5152812,40.9969663],[30.5027115,40.9767041],[30.5040085,40.962567],[30.5254792,40.9708228],[30.5830844,40.9599031],[30.5825148,40.9456172],[30.593623,40.9406785],[30.5899581,40.9249608],[30.6003852,40.9162446],[30.5837019,40.9084957],[30.5946436,40.8889214],[30.5752398,40.867803],[30.5538278,40.8724203],[30.5266626,40.8502864],[30.5223351,40.8603832],[30.5080341,40.8544015],[30.4380345,40.8044758],[30.4317469,40.7933389],[30.4383651,40.7767265],[30.4232629,40.7632796],[30.4324055,40.7532717],[30.4211168,40.7422702],[30.4283336,40.7320882],[30.4175825,40.7241569],[30.4197188,40.7141014],[30.3993939,40.7027589],[30.3790755,40.7056966],[30.3871033,40.6847335],[30.3712723,40.6769888],[30.3809939,40.6614591],[30.3668741,40.6581036],[30.3655963,40.6470107],[30.3474558,40.6461723],[30.3249629,40.6185505]],[[31.6246819,39.195706],[31.645757,39.1974132]],[[31.5573061,39.1823011],[31.5651949,39.187495]],[[31.5551609,39.1822608],[31.5720863,39.1860769],[31.6099406,39.1723053],[31.60746,39.1836477]],[[31.6460176,39.1999396],[31.6460083,39.1998267]],[[32.1353698,39.5717747],[32.1155566,39.5643247],[32.0607906,39.5787021],[32.0306257,39.569006],[31.9481662,39.5756475]],[[32.2750895,39.5211027],[32.2551017,39.5065008],[32.1146815,39.4863205],[32.0653565,39.4604166],[32.0310368,39.4689912],[31.9972711,39.4945318]]]}},{"type":"Feature","properties":{"id":"firat","name":"Fırat"},"geometry":{"type":"MultiLineString","coordinates":[[[36.0933709,36.1371209],[36.1114141,36.1353143],[36.1112156,36.1215532],[36.1010849,36.1204981]],[[36.1010849,36.1204981],[36.0884142,36.100465]],[[36.0624933,36.0897085],[36.0337186,36.0686205],[36.0142189,36.0791609],[35.9995124,36.0748534],[35.9637657,36.0440779]],[[36.1514275,36.1897287],[36.1299748,36.1777655],[36.133765,36.1689312],[36.1043814,36.1625823],[36.1146167,36.154953]],[[38.3662948,39.3925657],[38.4140407,39.3270192],[38.4808099,39.2998825],[38.5056156,39.2509642],[38.5303724,39.2531549],[38.5469567,39.2346724],[38.5704338,39.2313141]],[[36.2039503,36.2524832],[36.1840188,36.2312236],[36.1681402,36.2274892],[36.1514275,36.1897287]],[[38.5193278,39.4479675],[38.4705347,39.4500378],[38.4497017,39.4329646],[38.414312,39.427633]],[[38.5704338,39.2313141],[38.5929704,39.2125741],[38.6145473,39.1714015],[38.7018682,39.1733223],[38.7262177,39.1574977],[38.7338217,39.1163215],[38.7452164,39.1062018],[38.7411225,39.0789923],[38.7504922,39.032108],[38.7872218,38.982918],[38.753893,38.9172498],[38.7530669,38.8941784],[38.7910938,38.8631695]],[[38.7531773,38.8038855],[38.7245612,38.8022632],[38.725487,38.7820187],[38.6788434,38.7625081],[38.6475807,38.7689095],[38.6419181,38.7818168],[38.6282607,38.7788099],[38.6452291,38.7588912],[38.6255725,38.7443732],[38.5294792,38.76498],[38.506961,38.7471548],[38.4713715,38.7511825],[38.4727049,38.7322092]],[[40.1765031,38.2312655],[40.1747423,38.2289128]],[[37.8907701,37.0548517],[37.8911179,37.0546458]],[[40.2152355,38.1101398],[40.251165,38.0954909],[40.2608773,38.0383129]],[[41.0142896,37.787736],[41.0277879,37.7967632],[41.0300451,37.788118],[41.0168195,37.7757681],[41.0482665,37.7821394],[41.0707325,37.7660709],[41.087036,37.7859391],[41.0941136,37.7744229],[41.1126347,37.7710257],[41.0994913,37.7596869],[41.1053091,37.751885],[41.1429293,37.7588896],[41.1486833,37.7475028],[41.1607714,37.7572998],[41.1702671,37.7378484],[41.2016761,37.7413459],[41.2120898,37.7280667],[41.2273705,37.7398952]],[[40.2382314,37.8416904],[40.3135308,37.822099],[40.3366739,37.8329397],[40.3716271,37.827163],[40.3807881,37.8157595],[40.4262401,37.8111086],[40.4661019,37.8329309],[40.5157406,37.8298577],[40.5460026,37.8533087]],[[40.5460026,37.8533087],[40.5760133,37.8442455],[40.6361972,37.8498332],[40.7139821,37.8267061],[40.7286773,37.8310417]],[[36.9042142,37.4148694],[36.8928938,37.434194],[36.8955202,37.4903063],[36.9076634,37.5051385]],[[40.2574319,39.7287584],[40.2225448,39.6798271],[40.1776196,39.6475238],[40.188459,39.6209466]],[[40.2664888,40.3744266],[40.3036467,40.3867378],[40.364601,40.3747462],[40.4323644,40.3859205],[40.4728427,40.3758135]],[[37.4508335,37.5920055],[37.4475145,37.5716305],[37.3889219,37.5491729]],[[37.2914835,37.5158558],[37.2927057,37.5059125],[37.2388022,37.4678558]],[[36.3892668,36.2193425],[36.3720448,36.221465],[36.3795621,36.2275913],[36.3678465,36.229199],[36.3753596,36.2385621],[36.3536058,36.2405833],[36.3584536,36.248964],[36.3354617,36.2550452]],[[36.3901278,36.0819724],[36.3766444,36.0989068],[36.3853052,36.0945007],[36.3856807,36.1025672],[36.3751692,36.1029464],[36.3814428,36.1088256],[36.3702393,36.116481],[36.3796753,36.1157639],[36.371465,36.122266],[36.3889101,36.1460104]],[[36.3354617,36.2550452],[36.3165387,36.2699311],[36.2904985,36.2641246],[36.2875317,36.2747282],[36.2653756,36.2801764]],[[36.3889101,36.1460104],[36.3672781,36.1596329],[36.3743323,36.1721488],[36.367659,36.1789559],[36.4001459,36.1935143]],[[36.2653756,36.2801764],[36.2698308,36.2682509],[36.2546065,36.268093],[36.2549069,36.2615099],[36.2472063,36.2673729],[36.242373,36.2520604]],[[38.3137035,37.4794367],[38.2715058,37.4759749],[38.2464391,37.4437605],[38.199039,37.4509603],[38.1919151,37.4197013],[38.1769167,37.4103562],[38.1663698,37.4212052],[38.1181328,37.4278213],[38.0914909,37.4491073],[38.0643072,37.4293369],[38.0352307,37.4428383],[37.9819073,37.4391364],[37.9109967,37.3665802],[37.8751137,37.3443108],[37.8869196,37.3254364],[37.8605711,37.3149233],[37.8401397,37.2663515],[37.8817066,37.2173387],[37.8703746,37.2131043],[37.8421333,37.224112],[37.8344735,37.2050489],[37.8471014,37.1728255],[37.8767395,37.1374819],[37.8663557,37.0743778],[37.8907701,37.0548517]],[[38.4727049,38.7322092],[38.4693003,38.7005024],[38.416229,38.683404],[38.3666806,38.6353756],[38.3568963,38.605852],[38.3609327,38.5408276],[38.4921202,38.470583],[38.5632838,38.4601965],[38.6960043,38.4197449],[38.7261872,38.4181898],[38.8163894,38.4415088],[38.8343525,38.4310009],[38.8328631,38.4108551],[38.8746026,38.3879534],[38.8910876,38.3577674],[38.9187684,38.3552302],[38.9727204,38.3188511]],[[39.1360429,38.2261841],[39.1344988,38.2254043]],[[38.7910938,38.8631695],[38.763451,38.8403278],[38.7695072,38.818083],[38.7594318,38.8053067]],[[40.7286773,37.8310417],[40.753346,37.798424],[40.8229798,37.8142551],[40.8180135,37.8345871],[40.8511102,37.8387175],[40.8698761,37.8179241],[40.8941042,37.8274122],[40.9048321,37.8153159],[40.9288828,37.8157924],[40.9473804,37.8020386],[40.9613964,37.8170948],[40.9760007,37.7904242],[41.0142896,37.787736]],[[40.0370474,39.5578355],[39.8674971,39.5940747]],[[39.8400199,39.6078869],[39.7918019,39.6161129],[39.7554187,39.644917],[39.6736896,39.6424111],[39.6328676,39.661513]],[[40.2691838,40.2055712],[40.2260958,40.2551391],[40.2342255,40.2725619],[40.2303518,40.2984857]],[[37.3574746,37.7770274],[37.3794378,37.7539251]],[[38.8977384,37.7915407],[38.948298,37.8069947],[38.9634939,37.7589389],[38.9143302,37.7411502],[38.9116859,37.7107482],[38.8866693,37.7099654],[38.8667106,37.6924804],[38.810344,37.6924312],[38.8131515,37.6730421],[38.8510607,37.6608883],[38.8546927,37.6483708],[38.6513543,37.6164173],[38.5780979,37.5526329],[38.4770272,37.4862614],[38.3388435,37.4810741]],[[40.2303518,40.2984857],[40.2379256,40.3293173],[40.2529018,40.3397365],[40.2509265,40.3548568],[40.2664888,40.3744266]],[[40.2408949,37.9267634],[40.2489601,37.9229582]],[[37.3729674,37.7409806],[37.3866087,37.7300222]],[[36.3779613,36.0051704],[36.3695821,36.020068],[36.3898833,36.04056],[36.3797182,36.0447313],[36.3870916,36.052445],[36.3784763,36.0718118],[36.3901278,36.0819724]],[[40.187748,38.4114608],[40.1815384,38.39436],[40.2049347,38.3915467],[40.2156254,38.3717917],[40.2013873,38.3657605],[40.2034801,38.35616],[40.1907644,38.3460486],[40.2044915,38.3329236],[40.1824922,38.3256869],[40.1851216,38.3101924],[40.1686177,38.3038268],[40.1804222,38.2813453],[40.1681702,38.2739671],[40.1846181,38.2465117],[40.1765031,38.2312655]],[[40.188459,39.6209466],[40.1701771,39.5784535],[40.101824,39.5559939],[40.0641346,39.5503922],[40.0370474,39.5578355]],[[40.0241375,38.3496625],[40.0250702,38.3467102]],[[40.0250702,38.3467102],[40.0281715,38.3268571],[40.0393301,38.3284572],[40.0455812,38.3144874],[40.0762954,38.2945006],[40.0928396,38.2579722],[40.1285399,38.2607592],[40.1416729,38.2467032],[40.1718839,38.2474315],[40.1765031,38.2312655]],[[38.9727204,38.3188511],[39.0082606,38.3326765],[39.1097484,38.3462675],[39.1501987,38.2996789],[39.1360429,38.2261841]],[[36.0884142,36.100465],[36.0624933,36.0897085]],[[39.2226505,38.0715414],[39.2007671,38.0635012],[39.1614319,38.0191358],[39.1123688,38.0180153],[39.0544224,37.989686],[39.0558641,37.9635407],[39.0385311,37.9299306],[39.0256297,37.9161102],[38.9736342,37.9004079],[38.9920526,37.8844314],[38.9730978,37.8600992],[38.9774243,37.8275165],[38.9157306,37.8218684],[38.8973562,37.805613],[38.8977384,37.7915407]],[[39.1344988,38.2254043],[39.1062345,38.2039017],[39.1237911,38.1876077],[39.1611076,38.1834465],[39.1945198,38.2067987],[39.2204287,38.2074342],[39.2569506,38.1780166],[39.2617737,38.1446374],[39.2366186,38.1200969],[39.2226505,38.0715414]],[[37.3866087,37.7300222],[37.4527822,37.7060532],[37.4727638,37.6744339]],[[37.3794378,37.7539251],[37.3729674,37.7409806]],[[40.373336,38.4862978],[40.360072,38.4871949],[40.3615575,38.495108],[40.3361084,38.4852148],[40.3039916,38.4894673],[40.2784487,38.4702563]],[[40.2009045,38.4294262],[40.1988747,38.414753],[40.187748,38.4114608]],[[40.2363794,38.4614031],[40.1836612,38.4610442],[40.2009045,38.4294262]],[[40.2784487,38.4702563],[40.2363794,38.4614031]],[[40.454886,38.489491],[40.4218009,38.4954799],[40.394291,38.4881925]],[[38.4045208,40.6362242],[38.4017954,40.6505694],[38.4248903,40.683034]],[[38.2849705,40.575642],[38.3080673,40.5658387],[38.3526528,40.5759791]],[[38.2095471,40.5494899],[38.215055,40.5609112],[38.2849705,40.575642]],[[40.6559122,40.3933675],[40.6742829,40.3947819],[40.6806954,40.4066357],[40.6970515,40.4022409],[40.6830852,40.4115539],[40.6877013,40.4180927],[40.7109452,40.416341],[40.7109072,40.4253151],[40.7256007,40.4164075]],[[40.7932492,40.4347483],[40.8020482,40.4434565],[40.8416141,40.4375193],[40.8593687,40.4447086]],[[40.7256007,40.4164075],[40.7573354,40.4385103],[40.7932492,40.4347483]],[[40.8593687,40.4447086],[40.8829085,40.4516537],[40.9055465,40.4446229]],[[40.9055465,40.4446229],[40.9330651,40.4602033],[40.9717847,40.4601348],[41.0038993,40.5057355]],[[41.1016809,40.5729033],[41.1516072,40.5892926],[41.1846406,40.6250531],[41.2061106,40.624123],[41.206392,40.6403593],[41.2442315,40.6641438],[41.288856,40.6767096]],[[37.1105276,37.3671238],[37.048253,37.3434557],[37.0254318,37.357152],[37.0285694,37.3675707],[37.0178559,37.3796221]],[[36.9076634,37.5051385],[36.9092964,37.5216676],[36.8792984,37.5451046],[36.8368557,37.5517246],[36.811027,37.573693],[36.7814294,37.5728992]],[[40.4728427,40.3758135],[40.5042577,40.3936176],[40.5150233,40.3844998],[40.5512847,40.3963537],[40.566566,40.3897135],[40.5836155,40.4017687],[40.6054772,40.3912791],[40.607522,40.4091573],[40.6559122,40.3933675]],[[41.0038993,40.5057355],[41.0371187,40.5256699],[41.0346866,40.5358764],[41.0563568,40.5542447],[41.1016809,40.5729033]],[[36.242373,36.2520604],[36.2324703,36.2459324],[36.2245014,36.2541195],[36.2039503,36.2524832]],[[37.3889219,37.5491729],[37.2914835,37.5158558]],[[38.5221002,39.4500283],[38.5193278,39.4479675]],[[38.7462687,39.5119873],[38.723504,39.488117],[38.6599842,39.4886227],[38.6500228,39.4998163],[38.6254147,39.5035801],[38.617171,39.4931569],[38.5863719,39.4958468],[38.5714012,39.476733],[38.5527919,39.4757479],[38.5221002,39.4500283]],[[39.4875137,39.6978734],[39.4648552,39.6995007],[39.4614894,39.691936],[39.450519,39.7018225],[39.4001165,39.6927292],[39.3656902,39.6524593],[39.3395721,39.6431999]],[[38.8594597,39.5715331],[38.8305652,39.542511],[38.8077479,39.5473649],[38.7974637,39.5400365],[38.7963384,39.5482065],[38.7753037,39.5498266],[38.7559136,39.5431676],[38.7462687,39.5119873]],[[39.3395721,39.6431999],[39.2908991,39.6268413],[39.2485394,39.633073],[39.1967685,39.6131151],[39.1723251,39.6196697],[39.1596293,39.6093334]],[[39.1596293,39.6093334],[39.0931295,39.6045065],[39.0862656,39.6117758],[39.075157,39.6043043],[39.0362397,39.6134382],[39.0312862,39.6022947],[39.0068534,39.5921182]],[[39.0068534,39.5921182],[38.9392911,39.5766624],[38.9153619,39.5854489],[38.8814612,39.5644966],[38.8688917,39.5752351],[38.8594597,39.5715331]],[[39.6328676,39.661513],[39.5722765,39.697824],[39.541673,39.694621],[39.5301514,39.7039989],[39.4875137,39.6978734]],[[39.6328676,39.661513],[39.5907507,39.6595609],[39.4883258,39.6979697]],[[38.414312,39.427633],[38.4140776,39.4274843]],[[37.8911179,37.0546458],[37.9281893,37.0403574],[37.960639,37.0560633],[37.9787159,37.0518929],[37.9623674,36.9948295],[37.9758778,36.9729954],[38.0042279,36.959709],[38.0092221,36.915909],[38.0392384,36.883122],[38.0314332,36.8695533]],[[38.0314332,36.8695533],[38.0310664,36.8691124]],[[40.1747423,38.2289128],[40.167527,38.2081112],[40.194003,38.1957463],[40.1709468,38.1928821],[40.1834879,38.1815635],[40.1862525,38.1618159],[40.1694419,38.1671964],[40.171026,38.1385428],[40.150003,38.1346969],[40.1342616,38.1167229],[40.1639047,38.1040514],[40.2152355,38.1101398]],[[40.0070617,38.3639537],[40.0241375,38.3496625]],[[38.4140776,39.4274843],[38.3662948,39.3925657]],[[38.0310664,36.8691124],[38.021062,36.8395447],[38.0265905,36.8318111]],[[38.7594318,38.8053067],[38.7531773,38.8038855]],[[40.2608773,38.0383129],[40.238667,37.9873754],[40.2511509,37.9624005],[40.2375414,37.9318323],[40.2489901,37.9229058],[40.2537292,37.8973018],[40.2288392,37.887591],[40.2331871,37.8587844],[40.2490345,37.8554371],[40.2382314,37.8416904]],[[36.4001459,36.1935143],[36.3906965,36.196852],[36.3969353,36.2022588],[36.3897765,36.2151033],[36.3814777,36.2148588],[36.3892668,36.2193425]],[[37.4727638,37.6744339],[37.4487661,37.6534503]],[[37.0178559,37.3796221],[36.9739592,37.4013166],[36.9405577,37.3976583],[36.9042142,37.4148694]],[[37.4487661,37.6534503],[37.4363351,37.6394552]],[[37.1149339,37.3812922],[37.1105276,37.3671238]],[[37.1148497,37.3814281],[37.1149339,37.3812922]],[[37.436503,37.6393846],[37.4479857,37.623539],[37.4508335,37.5920055]],[[37.1865805,37.4595325],[37.1865499,37.45951]],[[37.1865499,37.45951],[37.1148497,37.3814281]],[[37.2386904,37.4680964],[37.1990261,37.4690123],[37.1865805,37.4595325]],[[37.2388022,37.4678558],[37.2386904,37.4680964]],[[37.4363351,37.6394552],[37.436503,37.6393846]],[[38.3388435,37.4810741],[38.3124268,37.4872927]],[[38.3139557,37.481048],[38.3137035,37.4794367]],[[39.8674971,39.5940747],[39.8400199,39.6078869]],[[36.1146167,36.154953],[36.0989082,36.1545651],[36.1027568,36.1423464]],[[36.1027568,36.1423464],[36.0933709,36.1371209]]]}},{"type":"Feature","properties":{"id":"dicle","name":"Dicle"},"geometry":{"type":"MultiLineString","coordinates":[[[41.5178221,39.6195675],[41.5363609,39.6192204],[41.5307199,39.6338212],[41.5469097,39.629881],[41.5516968,39.6388347],[41.5623628,39.6249241],[41.5774719,39.6395039],[41.5709677,39.6224474],[41.5975952,39.6192127]],[[41.7089248,39.6157219],[41.7311724,39.6188691],[41.7376198,39.6390109],[41.7501934,39.6523407],[41.7673936,39.6523352],[41.7664093,39.659285]],[[41.928407,37.413711],[41.9436085,37.4204219],[41.9376346,37.4350042],[41.9593466,37.4251936],[42.0157551,37.4257722],[42.1026008,37.3885494],[42.1413991,37.3852549],[42.1462541,37.3765112]],[[41.6177678,37.7317797],[41.6346699,37.7417047],[41.6316095,37.7617783],[41.6518628,37.7422633],[41.6752517,37.735668],[41.6765025,37.7260409],[41.6966158,37.7277365],[41.7140574,37.7084458],[41.7215765,37.7115781],[41.719399,37.7266772],[41.7422104,37.7324479],[41.7762554,37.7329199],[41.7716856,37.7162816],[41.8205917,37.7117094]],[[40.1765031,38.2312655],[40.1747423,38.2289128]],[[41.2273705,37.7398952],[41.2383279,37.73154],[41.2349457,37.7186455],[41.2482894,37.7418445],[41.256813,37.7324975],[41.2938162,37.7356867],[41.3026354,37.7340347],[41.3003833,37.7251234],[41.3322677,37.7197254],[41.3551435,37.7263468],[41.388876,37.7134722],[41.4268093,37.7157143],[41.4655,37.7330874],[41.5122292,37.7336188],[41.5242004,37.7254494],[41.6177678,37.7317797]],[[40.2152355,38.1101398],[40.251165,38.0954909],[40.2608773,38.0383129]],[[41.0142896,37.787736],[41.0277879,37.7967632],[41.0300451,37.788118],[41.0168195,37.7757681],[41.0482665,37.7821394],[41.0707325,37.7660709],[41.087036,37.7859391],[41.0941136,37.7744229],[41.1126347,37.7710257],[41.0994913,37.7596869],[41.1053091,37.751885],[41.1429293,37.7588896],[41.1486833,37.7475028],[41.1607714,37.7572998],[41.1702671,37.7378484],[41.2016761,37.7413459],[41.2120898,37.7280667],[41.2273705,37.7398952]],[[40.2382314,37.8416904],[40.3135308,37.822099],[40.3366739,37.8329397],[40.3716271,37.827163],[40.3807881,37.8157595],[40.4262401,37.8111086],[40.4661019,37.8329309],[40.5157406,37.8298577],[40.5460026,37.8533087]],[[40.5460026,37.8533087],[40.5760133,37.8442455],[40.6361972,37.8498332],[40.7139821,37.8267061],[40.7286773,37.8310417]],[[40.2574319,39.7287584],[40.2225448,39.6798271],[40.1776196,39.6475238],[40.188459,39.6209466]],[[39.1360429,38.2261841],[39.1344988,38.2254043]],[[40.7286773,37.8310417],[40.753346,37.798424],[40.8229798,37.8142551],[40.8180135,37.8345871],[40.8511102,37.8387175],[40.8698761,37.8179241],[40.8941042,37.8274122],[40.9048321,37.8153159],[40.9288828,37.8157924],[40.9473804,37.8020386],[40.9613964,37.8170948],[40.9760007,37.7904242],[41.0142896,37.787736]],[[40.0370474,39.5578355],[39.8674971,39.5940747]],[[39.8400199,39.6078869],[39.7918019,39.6161129],[39.7554187,39.644917],[39.6736896,39.6424111],[39.6328676,39.661513]],[[41.8529669,37.5284085],[41.8377642,37.5196814],[41.8543371,37.4952965],[41.8492439,37.4662919],[41.8606008,37.457362],[41.847212,37.4406877],[41.8899467,37.4049195],[41.928407,37.413711]],[[41.8696112,37.6079321],[41.8974773,37.5760775],[41.8904515,37.5547179],[41.8519217,37.5496369],[41.8566469,37.5330193]],[[42.1462541,37.3765112],[42.1610266,37.3545968],[42.1931485,37.3459872],[42.2031856,37.3203227],[42.2249073,37.3160334],[42.2069052,37.2792547],[42.2366139,37.2827584],[42.2529791,37.2746805]],[[41.8205917,37.7117094],[41.8128105,37.6965852],[41.8237281,37.6459865],[41.8362342,37.6377312],[41.8303133,37.6253484],[41.8696112,37.6079321]],[[40.2408949,37.9267634],[40.2489601,37.9229582]],[[40.187748,38.4114608],[40.1815384,38.39436],[40.2049347,38.3915467],[40.2156254,38.3717917],[40.2013873,38.3657605],[40.2034801,38.35616],[40.1907644,38.3460486],[40.2044915,38.3329236],[40.1824922,38.3256869],[40.1851216,38.3101924],[40.1686177,38.3038268],[40.1804222,38.2813453],[40.1681702,38.2739671],[40.1846181,38.2465117],[40.1765031,38.2312655]],[[40.188459,39.6209466],[40.1701771,39.5784535],[40.101824,39.5559939],[40.0641346,39.5503922],[40.0370474,39.5578355]],[[40.0241375,38.3496625],[40.0250702,38.3467102]],[[40.0250702,38.3467102],[40.0281715,38.3268571],[40.0393301,38.3284572],[40.0455812,38.3144874],[40.0762954,38.2945006],[40.0928396,38.2579722],[40.1285399,38.2607592],[40.1416729,38.2467032],[40.1718839,38.2474315],[40.1765031,38.2312655]],[[38.9727204,38.3188511],[39.0082606,38.3326765],[39.1097484,38.3462675],[39.1501987,38.2996789],[39.1360429,38.2261841]],[[41.5975952,39.6192127],[41.6500032,39.6313467],[41.6821993,39.6088932],[41.7089248,39.6157219]],[[41.7664093,39.659285],[41.7686454,39.673577],[41.7930624,39.6976151],[41.7948246,39.7172206]],[[39.2226505,38.0715414],[39.2007671,38.0635012],[39.1614319,38.0191358],[39.1123688,38.0180153],[39.0544224,37.989686],[39.0558641,37.9635407],[39.0385311,37.9299306],[39.0256297,37.9161102],[38.9736342,37.9004079],[38.9920526,37.8844314],[38.9730978,37.8600992],[38.9774243,37.8275165],[38.9157306,37.8218684],[38.8973562,37.805613],[38.8977384,37.7915407]],[[39.1344988,38.2254043],[39.1062345,38.2039017],[39.1237911,38.1876077],[39.1611076,38.1834465],[39.1945198,38.2067987],[39.2204287,38.2074342],[39.2569506,38.1780166],[39.2617737,38.1446374],[39.2366186,38.1200969],[39.2226505,38.0715414]],[[40.373336,38.4862978],[40.360072,38.4871949],[40.3615575,38.495108],[40.3361084,38.4852148],[40.3039916,38.4894673],[40.2784487,38.4702563]],[[40.2009045,38.4294262],[40.1988747,38.414753],[40.187748,38.4114608]],[[40.2363794,38.4614031],[40.1836612,38.4610442],[40.2009045,38.4294262]],[[40.2784487,38.4702563],[40.2363794,38.4614031]],[[40.454886,38.489491],[40.4218009,38.4954799],[40.394291,38.4881925]],[[41.4804623,39.6286461],[41.4982679,39.6257275],[41.4953922,39.6185401],[41.5178221,39.6195675]],[[41.2877184,39.511271],[41.2847124,39.5426424]],[[41.2847124,39.5426424],[41.2986313,39.5786743],[41.3735556,39.5987679]],[[41.3735556,39.5987679],[41.3905258,39.5983011],[41.4156254,39.6193497],[41.4804623,39.6286461]],[[41.2826461,39.5036527],[41.2877184,39.511271]],[[39.4875137,39.6978734],[39.4648552,39.6995007],[39.4614894,39.691936],[39.450519,39.7018225],[39.4001165,39.6927292],[39.3656902,39.6524593],[39.3395721,39.6431999]],[[39.3395721,39.6431999],[39.2908991,39.6268413],[39.2485394,39.633073],[39.1967685,39.6131151],[39.1723251,39.6196697],[39.1596293,39.6093334]],[[39.1596293,39.6093334],[39.0931295,39.6045065],[39.0862656,39.6117758],[39.075157,39.6043043],[39.0362397,39.6134382],[39.0312862,39.6022947],[39.0068534,39.5921182]],[[39.6328676,39.661513],[39.5722765,39.697824],[39.541673,39.694621],[39.5301514,39.7039989],[39.4875137,39.6978734]],[[39.6328676,39.661513],[39.5907507,39.6595609],[39.4883258,39.6979697]],[[40.1747423,38.2289128],[40.167527,38.2081112],[40.194003,38.1957463],[40.1709468,38.1928821],[40.1834879,38.1815635],[40.1862525,38.1618159],[40.1694419,38.1671964],[40.171026,38.1385428],[40.150003,38.1346969],[40.1342616,38.1167229],[40.1639047,38.1040514],[40.2152355,38.1101398]],[[40.0070617,38.3639537],[40.0241375,38.3496625]],[[41.8566469,37.5330193],[41.8529669,37.5284085]],[[41.2856951,39.509758],[41.2877184,39.511271]],[[40.2608773,38.0383129],[40.238667,37.9873754],[40.2511509,37.9624005],[40.2375414,37.9318323],[40.2489901,37.9229058],[40.2537292,37.8973018],[40.2288392,37.887591],[40.2331871,37.8587844],[40.2490345,37.8554371],[40.2382314,37.8416904]],[[39.8674971,39.5940747],[39.8400199,39.6078869]]]}},{"type":"Feature","properties":{"id":"seyhan","name":"Seyhan"},"geometry":{"type":"MultiLineString","coordinates":[[[35.4925757,37.322891],[35.4934332,37.3190893]],[[35.5849584,37.6059063],[35.538964,37.585083],[35.5193224,37.553697],[35.5277858,37.5332902],[35.5232336,37.5087943],[35.4969556,37.492213],[35.5121245,37.4689779],[35.496401,37.4588815],[35.5027307,37.4474165],[35.4818964,37.4492303],[35.4545116,37.4227304],[35.466262,37.3999839],[35.4428867,37.401027],[35.4943939,37.3501137],[35.4697662,37.3298978],[35.4815365,37.3157731],[35.489105,37.3296079],[35.489265,37.3105437],[35.4592665,37.3179466],[35.4358213,37.2998165],[35.4386987,37.2869181],[35.4163126,37.2779306],[35.4100954,37.2557996],[35.3602695,37.253731],[35.3560975,37.2643641],[35.324521,37.2490169],[35.3194778,37.2356727],[35.2859723,37.2220204],[35.2754472,37.1996518],[35.2727049,37.1853789],[35.2883306,37.1753842],[35.271924,37.174265],[35.2818194,37.1617638],[35.2706757,37.1510025],[35.3016016,37.1351552],[35.3001691,37.1200107],[35.3164718,37.1324288],[35.327332,37.1250404],[35.3187466,37.1180103],[35.3234343,37.1034181],[35.3008309,37.1009626],[35.2924253,37.0909076],[35.3326464,37.0448366],[35.334413,37.0294433],[35.3239027,37.0227793],[35.3382325,36.9941126],[35.3256143,36.9607733],[35.3339535,36.9496654],[35.3246628,36.940732],[35.3374735,36.9188294],[35.3259212,36.9089567],[35.330699,36.9001847],[35.3107307,36.903324],[35.323118,36.8820886],[35.290769,36.8933349],[35.2897419,36.8804305],[35.2713377,36.8678151],[35.2539167,36.8815603],[35.2612179,36.8527807],[35.233995,36.8535103],[35.2293053,36.8435528],[35.2372727,36.8363782],[35.2243453,36.8263868],[35.2046846,36.8280478],[35.2027172,36.8169286],[35.1813304,36.8111396],[35.1754704,36.795182],[35.1540084,36.7985771],[35.0965315,36.7831146],[35.0750511,36.7988785],[35.0449373,36.7654728],[35.0262108,36.7781862],[35.026957,36.757426],[35.0062153,36.7680401],[35.0075275,36.7510336],[34.9950366,36.7607342],[34.9697558,36.7597598],[34.9678073,36.7512377],[34.9571281,36.7536278],[34.9586153,36.7408441],[34.9281408,36.7456933],[34.9114609,36.728669]]]}},{"type":"Feature","properties":{"id":"ceyhan","name":"Ceyhan"},"geometry":{"type":"MultiLineString","coordinates":[[[35.5006403,36.732313],[35.4997796,36.7270533]],[[35.4880601,36.6668608],[35.4910939,36.6634263]],[[37.2196072,38.1809048],[37.2073958,38.1962855],[37.1337404,38.2222345],[37.1202106,38.2054282],[37.071653,38.1966436],[37.0665992,38.1880595],[37.0490428,38.1919204],[37.0048907,38.1490554],[37.0001024,38.1392801],[37.010986,38.1370888],[36.9963924,38.1328123],[37.0073649,38.110697],[36.9992815,38.1131721],[36.9993803,38.0768318],[37.0728142,38.0721818],[37.1238694,38.0248743],[36.974682,37.952295],[36.9636819,37.9175183],[36.9704316,37.9007067],[36.959453,37.8848907],[36.9722812,37.8593337],[36.9721524,37.8281104],[36.9394796,37.7970008],[36.9420969,37.7637008],[36.9254773,37.7462181],[36.9269585,37.724412],[36.8584432,37.7011651],[36.839582,37.6627348],[36.8068546,37.6517778],[36.7851282,37.5736875],[36.7621266,37.5699223],[36.7611295,37.5790465],[36.7483556,37.5763071],[36.7371956,37.5896133],[36.7091683,37.5766516],[36.6772186,37.5907187],[36.6666362,37.5363885],[36.6201997,37.5112833],[36.6028483,37.513843],[36.5956669,37.4950265],[36.5683106,37.476813],[36.5412006,37.4802391],[36.4877629,37.4620766],[36.4790082,37.4443099],[36.4665567,37.4402937],[36.4592272,37.4217225],[36.4749956,37.394846],[36.4683508,37.3754066],[36.3738424,37.3479709],[36.354388,37.3650435],[36.2961117,37.3540811],[36.2531782,37.2904246],[36.2550437,37.2798922],[36.2758666,37.2750833],[36.2773838,37.2567988],[36.2653193,37.2599455],[36.2636407,37.2429469],[36.2765926,37.2363933],[36.2498752,37.2220835],[36.2314886,37.1553166],[36.1982951,37.143362],[36.1236303,37.17241],[36.1180392,37.1842024],[36.0930866,37.1815269],[36.0738055,37.2011814],[35.9735328,37.2199404],[35.8957998,37.1836567],[35.8986948,37.174497],[35.8818002,37.1746983],[35.8742874,37.18502],[35.8612444,37.1716784],[35.8506927,37.177224],[35.8489159,37.1624077],[35.8238652,37.165065],[35.8241344,37.1392832],[35.7963858,37.1094071],[35.8402834,37.0808282],[35.8087581,37.068192],[35.8007419,37.049665],[35.7823323,37.048704],[35.8106305,37.0329611],[35.8088107,37.0265386],[35.7657092,37.0322684],[35.7582509,36.9988282],[35.726341,37.0044505],[35.6704723,36.9806523],[35.6570527,36.9584251],[35.6199503,36.9542452],[35.5983708,36.9396522],[35.5933269,36.9216639],[35.5952883,36.9124814],[35.6198618,36.9104087],[35.6163042,36.901987],[35.5981134,36.8949821],[35.5896226,36.9079702],[35.56907,36.908273],[35.5690408,36.8825639],[35.5945547,36.8709985],[35.5949191,36.8573221],[35.5548638,36.8356725],[35.5250924,36.8508606],[35.514342,36.8374806],[35.506017,36.8492075],[35.5059453,36.8248213],[35.4729027,36.824731],[35.502483,36.8019992],[35.4782948,36.784007],[35.4893509,36.7711899],[35.4832654,36.7583535],[35.5017606,36.7355665],[35.4985536,36.7236446],[35.4800605,36.7143004],[35.4666785,36.6723578],[35.467424,36.6813757]],[[35.4666785,36.6723578],[35.4907994,36.665579],[35.4885889,36.6493738],[35.5105698,36.64481],[35.5239877,36.6497325],[35.5268692,36.6726149],[35.5649757,36.6570844],[35.560019,36.648051],[35.5828717,36.6323843],[35.5929303,36.6110538],[35.5635401,36.5857137],[35.5593842,36.5675843]],[[36.094944,37.1813357],[36.0924509,37.1828561]],[[36.1682276,37.1532328],[36.1606354,37.1599211]],[[37.1084867,38.0377223],[37.1110184,38.0355033]],[[37.00119,38.0936993],[37.0011,38.0912687]]]}},{"type":"Feature","properties":{"id":"asi","name":"Asi"},"geometry":{"type":"MultiLineString","coordinates":[[[36.0933709,36.1371209],[36.1114141,36.1353143],[36.1112156,36.1215532],[36.1010849,36.1204981]],[[36.1010849,36.1204981],[36.0884142,36.100465]],[[36.0624933,36.0897085],[36.0337186,36.0686205],[36.0142189,36.0791609],[35.9995124,36.0748534],[35.9637657,36.0440779]],[[36.1514275,36.1897287],[36.1299748,36.1777655],[36.133765,36.1689312],[36.1043814,36.1625823],[36.1146167,36.154953]],[[36.2039503,36.2524832],[36.1840188,36.2312236],[36.1681402,36.2274892],[36.1514275,36.1897287]],[[36.9042142,37.4148694],[36.8928938,37.434194],[36.8955202,37.4903063],[36.9076634,37.5051385]],[[36.3892668,36.2193425],[36.3720448,36.221465],[36.3795621,36.2275913],[36.3678465,36.229199],[36.3753596,36.2385621],[36.3536058,36.2405833],[36.3584536,36.248964],[36.3354617,36.2550452]],[[36.3901278,36.0819724],[36.3766444,36.0989068],[36.3853052,36.0945007],[36.3856807,36.1025672],[36.3751692,36.1029464],[36.3814428,36.1088256],[36.3702393,36.116481],[36.3796753,36.1157639],[36.371465,36.122266],[36.3889101,36.1460104]],[[36.3354617,36.2550452],[36.3165387,36.2699311],[36.2904985,36.2641246],[36.2875317,36.2747282],[36.2653756,36.2801764]],[[36.3889101,36.1460104],[36.3672781,36.1596329],[36.3743323,36.1721488],[36.367659,36.1789559],[36.4001459,36.1935143]],[[36.2653756,36.2801764],[36.2698308,36.2682509],[36.2546065,36.268093],[36.2549069,36.2615099],[36.2472063,36.2673729],[36.242373,36.2520604]],[[36.3779613,36.0051704],[36.3695821,36.020068],[36.3898833,36.04056],[36.3797182,36.0447313],[36.3870916,36.052445],[36.3784763,36.0718118],[36.3901278,36.0819724]],[[36.0884142,36.100465],[36.0624933,36.0897085]],[[36.242373,36.2520604],[36.2324703,36.2459324],[36.2245014,36.2541195],[36.2039503,36.2524832]],[[36.4001459,36.1935143],[36.3906965,36.196852],[36.3969353,36.2022588],[36.3897765,36.2151033],[36.3814777,36.2148588],[36.3892668,36.2193425]],[[36.1146167,36.154953],[36.0989082,36.1545651],[36.1027568,36.1423464]],[[36.1027568,36.1423464],[36.0933709,36.1371209]]]}},{"type":"Feature","properties":{"id":"gediz","name":"Gediz"},"geometry":{"type":"MultiLineString","coordinates":[[[29.4164604,39.0447236],[29.413465,39.0110578],[29.3892689,38.9637116],[29.3805748,38.9544011],[29.3407032,38.9503825],[29.2963392,38.9220475],[29.2995851,38.9000523],[29.2781141,38.884],[29.284128,38.8734399],[29.2694759,38.8373866],[29.2505354,38.8247287],[29.2526397,38.8159814],[29.2308332,38.8116684],[29.226016,38.7903617],[29.1963253,38.766006],[29.1953396,38.7533177]],[[26.8180022,38.5903272],[26.825467,38.6048045],[26.850525,38.6168041],[26.9030427,38.6253434],[26.8981027,38.6379029],[26.9140849,38.632513],[26.9360837,38.6398076],[26.9413916,38.6268743],[26.9460109,38.6440037],[26.9662327,38.6535098],[26.9877119,38.6463227],[26.9979385,38.6601767],[27.0081872,38.6507647],[27.0325488,38.6592838],[27.1045241,38.6221923],[27.1411778,38.6413232],[27.1731628,38.6341775],[27.1861303,38.61995],[27.2428161,38.6507008],[27.3142644,38.6618372],[27.3237617,38.6854267],[27.3672721,38.6714644],[27.386254,38.6842613],[27.3886994,38.6684626],[27.4107175,38.6569919],[27.4266043,38.6603149],[27.4363168,38.6422617],[27.4808196,38.6645503],[27.4954765,38.6632582],[27.5072434,38.6475803],[27.519648,38.6604233],[27.532991,38.6565736],[27.5279313,38.6419685],[27.5552228,38.6338556],[27.5694333,38.6125021],[27.6217345,38.6133299],[27.6210746,38.5888569],[27.6880266,38.5699259],[27.7016732,38.5541171],[27.7269038,38.5592313],[27.7617556,38.5441609],[27.8306711,38.5605155],[27.866592,38.5482588],[27.911134,38.5597712],[27.9256806,38.5494654],[27.9548612,38.5557229],[27.9791207,38.5429314],[28.0034306,38.5471999],[28.0256651,38.5288086],[28.0464502,38.5220788],[28.0559357,38.5297642],[28.0629471,38.5182017],[28.0777641,38.5215136],[28.0950539,38.5117264],[28.1581494,38.5233074],[28.1865628,38.5495741],[28.2384108,38.5660195],[28.2678137,38.559838],[28.2741228,38.5990254],[28.3428597,38.6261832],[28.3898619,38.6714049],[28.3948225,38.6801962],[28.3826221,38.6928545],[28.3944641,38.7019078],[28.4179611,38.6953734],[28.418604,38.6865262],[28.4463187,38.6849329],[28.4816222,38.6988793],[28.4988403,38.6836578],[28.5400405,38.6713382],[28.5910152,38.6844903],[28.5995845,38.6682983],[28.674641,38.681159],[28.701404,38.6675786],[28.696416,38.6597088],[28.7161161,38.6420735],[28.7246534,38.6433264],[28.7141597,38.6281138],[28.7301616,38.6101306],[28.8040667,38.590841],[28.8109682,38.6029997],[28.8239454,38.600629],[28.8281384,38.6140905],[28.843693,38.6174328],[28.864776,38.6066039],[28.9356319,38.6121185],[28.9474536,38.6242432],[28.942404,38.6282669],[28.9950137,38.6647411],[29.0050337,38.6651403],[29.0032372,38.6583386],[29.0906288,38.662141],[29.1134403,38.6769088],[29.1617549,38.6823749],[29.1756535,38.7329394],[29.1689613,38.7371825],[29.1953696,38.7531393]]]}},{"type":"Feature","properties":{"id":"buyukmenderes","name":"Büyük Menderes"},"geometry":{"type":"MultiLineString","coordinates":[[[27.2746499,37.5596964],[27.2744215,37.5530939]],[[27.2443926,37.5493414],[27.2466822,37.5521728]],[[27.2604569,37.5489885],[27.2678022,37.5573671]],[[27.2776526,37.5677034],[27.2686686,37.5441052]],[[27.2630096,37.547585],[27.2631184,37.5404684]],[[27.2646914,37.5464303],[27.247573,37.5584408],[27.2772148,37.5674968]],[[27.2623944,37.5561015],[27.259828,37.5595401]],[[27.2582531,37.5569148],[27.2569758,37.5513937]],[[27.2566223,37.5502775],[27.2476105,37.5522967]],[[27.2372329,37.5503189],[27.2491082,37.551999],[27.2611758,37.5402749],[27.2893045,37.5467772],[27.2994684,37.572981]],[[27.2343845,37.5601291],[27.2375396,37.5477341]],[[27.2698528,37.5423443],[27.268734,37.5656253]],[[27.2782011,37.5727217],[27.2707636,37.5757856],[27.3116364,37.6141808],[27.3589999,37.6435749],[27.4551015,37.6373858],[27.4720034,37.6203824],[27.422027,37.6119836],[27.4210331,37.5927016],[27.3888414,37.5631313],[27.3594507,37.5727442],[27.381615,37.5420657],[27.3542031,37.5259923],[27.3550813,37.5122077],[27.3429824,37.5057628],[27.316023,37.5058864],[27.2826563,37.5204666],[27.2880335,37.5439958],[27.2598443,37.5350292],[27.2453229,37.5493881],[27.2151311,37.5400945],[27.1959152,37.5505542]],[[27.2896065,37.5780378],[27.277494,37.5774725],[27.2771465,37.5678493]],[[27.2707636,37.5757856],[27.1693753,37.5403725]],[[28.7809765,37.9403588],[28.7759182,37.9419057]],[[29.9678318,38.1875479],[29.9670084,38.1876749]],[[29.9717174,38.1873319],[29.9685934,38.1877832]],[[29.9731547,38.1861085],[29.9720272,38.1871553]],[[29.9875038,38.1859778],[29.9850531,38.187001]],[[29.9850972,38.1868204],[29.9833618,38.1861288]],[[29.98776,38.185612],[29.9809264,38.1856552]],[[30.0189024,38.197638],[30.0151479,38.1968078]],[[30.0491317,38.202464],[30.0459029,38.2036342]],[[27.4713379,37.622078],[27.5004741,37.6349759],[27.4643049,37.6822824],[27.4797339,37.6951153],[27.4734478,37.7025932],[27.4845387,37.7158705],[27.4793485,37.7348702],[27.4877098,37.7337865],[27.4775894,37.7490552],[27.5101851,37.7757925],[27.5245004,37.7668704],[27.5288843,37.775942],[27.5524758,37.7751388],[27.545013,37.8026167],[27.5708544,37.7954572],[27.5749653,37.8076739],[27.5922139,37.8081918],[27.5944435,37.8004608],[27.6154022,37.8085932],[27.6122408,37.7949203],[27.6208202,37.7855244],[27.621092,37.7960924],[27.6280585,37.7864796],[27.6306307,37.7939693],[27.6394625,37.7889817],[27.639262,37.7998994],[27.6613976,37.8089946],[27.6793201,37.8023216],[27.7209435,37.8109954],[27.7234802,37.7991469],[27.7553929,37.7950093],[27.7509083,37.7711833],[27.7699736,37.7722803],[27.7872738,37.7596652],[27.8318205,37.7843225],[27.8711238,37.7770428],[27.8655271,37.7825079],[27.8847173,37.7986714],[27.9040973,37.7958009],[27.9080686,37.8077901],[27.9265885,37.8104253],[27.9232764,37.8255154],[27.9370765,37.8259129],[27.9532407,37.8120386],[27.9870024,37.8207997],[27.9884081,37.811285],[28.022922,37.802653],[28.0381849,37.8167215],[28.0590083,37.8152457],[28.0590252,37.8260897],[28.0770749,37.8295647],[28.0699439,37.8384466],[28.0843216,37.8366924],[28.0939614,37.8516719],[28.119171,37.8488396],[28.1261493,37.8619743],[28.1511603,37.847492],[28.16298,37.8515239],[28.1593846,37.8396072],[28.1813787,37.8359436],[28.1861718,37.8543877],[28.2054825,37.854123],[28.209668,37.8653015],[28.2270778,37.8534692],[28.2397362,37.8580736],[28.2448599,37.8448056],[28.2520961,37.8529403],[28.2729812,37.8496154],[28.2767996,37.8612062],[28.2904328,37.8592965],[28.309068,37.874273],[28.4021094,37.8769356],[28.4121995,37.8894554],[28.4425427,37.8885987],[28.4544497,37.8997105],[28.5199749,37.8978541],[28.539467,37.8882023],[28.5433824,37.8978448],[28.6665963,37.920444],[28.7207307,37.9499422],[28.7635923,37.9478721],[28.8141306,37.9282486],[28.8344067,37.9438871],[28.8567601,37.9348519],[28.8571696,37.9418125],[28.8782222,37.9397876],[28.8886598,37.9500136],[28.9424582,37.9514047],[28.9776463,37.9713328],[28.977925,37.9840184],[28.9553386,38.0053858],[28.9682715,38.0166121],[28.9626096,38.0424966],[28.9896701,38.0769562],[29.0223572,38.0892953],[29.0285906,38.1126159],[29.0810931,38.1268253],[29.1927901,38.1316767],[29.2112591,38.1481075],[29.206117,38.1589851],[29.2209457,38.1912433],[29.2196546,38.2110041],[29.2902227,38.2199062],[29.3158784,38.2349334],[29.3679872,38.1974626],[29.3878766,38.1959563],[29.4112138,38.1636087],[29.4204378,38.1642757],[29.4169947,38.1548504],[29.4351873,38.1398661],[29.4250228,38.1083873],[29.433503,38.1032791],[29.4225052,38.0986634],[29.4431091,38.0686463],[29.4349627,38.0644716],[29.4364782,38.0508686],[29.4433004,38.0586958],[29.4497801,38.0468371],[29.4827193,38.0593753],[29.4778586,38.0656801],[29.5042368,38.099541],[29.519444,38.0842989],[29.5631723,38.1019227],[29.5637384,38.1178475],[29.5752932,38.1161648],[29.5757807,38.127466],[29.5879679,38.1280932],[29.575844,38.1376306],[29.5971505,38.1439263],[29.5976948,38.1517964],[29.628965,38.1473173],[29.6504601,38.1676983],[29.659477,38.1638801],[29.6621771,38.1756186],[29.714683,38.1926598],[29.747373,38.1726588],[29.7553785,38.1805149],[29.773878,38.1771902],[29.8122154,38.2116105],[29.8450433,38.2165369],[29.9393132,38.2134619],[29.9458833,38.2009543],[29.9765491,38.1853142],[30.0491317,38.202464],[30.0634682,38.181851],[30.0604579,38.1629121],[30.0707965,38.137412],[30.1608715,38.0799218],[30.160795,38.0676373]]]}},{"type":"Feature","properties":{"id":"kucukmenderes","name":"Küçük Menderes"},"geometry":{"type":"MultiLineString","coordinates":[[[27.7213943,38.1361122],[27.6601504,38.1566457],[27.6209493,38.1446616],[27.6173986,38.134064],[27.5980586,38.1417989],[27.5776286,38.1296327],[27.5453345,38.130263],[27.5421023,38.1213965],[27.4845967,38.1018391],[27.4670622,38.0562881],[27.448858,38.0430532]],[[27.448858,38.0430532],[27.4385503,38.0204738],[27.4071336,38.0025258],[27.3952379,37.9823757],[27.3012978,37.9722438],[27.2633749,37.958309]],[[28.1611379,38.2760078],[28.1794714,38.2467695]],[[28.2004064,38.1016055],[28.1582653,38.1236981],[28.0614981,38.1516098]],[[28.1794714,38.2467695],[28.2186005,38.2129628],[28.2258454,38.1886301]],[[28.2131092,38.105804],[28.2128797,38.1053533]],[[28.2200273,38.1745803],[28.2269337,38.1438129],[28.2131092,38.105804]],[[28.0614981,38.1516098],[28.0189558,38.1659211],[27.9784388,38.1615286],[27.9059546,38.1705112]],[[28.2258454,38.1886301],[28.2200273,38.1745803]],[[28.2128797,38.1053533],[28.2004064,38.1016055]],[[28.1749588,38.3215574],[28.1611379,38.2760078]],[[27.9059546,38.1705112],[27.8671088,38.1620068],[27.8238827,38.1657272],[27.7894261,38.1450391],[27.7213943,38.1361122]],[[27.9115079,38.1702215],[27.9059546,38.1705112]]]}},{"type":"Feature","properties":{"id":"bakircay","name":"Bakırçay"},"geometry":{"type":"MultiLineString","coordinates":[[[27.0057335,38.9470532],[26.9956371,38.9407835],[26.9982657,38.9260178],[26.982571,38.9208859]],[[27.6993495,39.1151369],[27.6850088,39.1626893],[27.6214863,39.1949772],[27.5843258,39.2005511],[27.4874751,39.1812158],[27.406891,39.1563816],[27.3418516,39.1172188],[27.271821,39.1121982],[27.179932,39.0709862],[27.1321201,39.078236],[27.1178966,39.0658147],[27.1266476,39.0575732],[27.0718905,39.0404226],[27.0704907,39.0239071],[27.048482,39.0155993],[27.0392708,38.9800315],[27.0153711,38.9686372],[27.0051069,38.9460676],[26.9668717,38.9333865]]]}},{"type":"Feature","properties":{"id":"meric","name":"Meriç"},"geometry":{"type":"MultiLineString","coordinates":[[[25.5074859,42.0648381],[25.5671543,42.0625263],[25.5969697,42.0733481],[25.6140768,42.0574223],[25.6416956,42.0648859],[25.7047194,42.0265431],[25.7808244,42.009059],[25.8100819,42.0122278],[25.862326,42.036871],[25.8852482,42.0117256],[25.900172,41.9563626],[25.9290057,41.9543998],[25.9303307,41.9308541],[25.95667,41.8982763],[25.9831595,41.8980287],[25.990423,41.8863444],[26.0053199,41.8909569],[26.0145789,41.8804974],[26.0357925,41.8881155],[26.0809368,41.8690895],[26.094954,41.8392099],[26.1337763,41.8104919],[26.1537749,41.8086646],[26.1625591,41.782537],[26.189695,41.7758085],[26.2000483,41.7475303],[26.2328247,41.739625],[26.2771097,41.7133052],[26.369065,41.7097013],[26.3857296,41.6913512],[26.4291519,41.6808852],[26.4413613,41.6872992],[26.4689666,41.669606],[26.4924735,41.6727876],[26.4943027,41.6612986],[26.525882,41.6687602],[26.5531656,41.6631595],[26.5691007,41.6515889],[26.5716074,41.6324297],[26.5923076,41.6204099],[26.5997071,41.5823627],[26.5871803,41.5705548],[26.5985086,41.5453573],[26.5911665,41.5258991],[26.6048194,41.492059],[26.5973898,41.4807968],[26.6130015,41.4629343],[26.6131557,41.4241543],[26.6290247,41.4188337],[26.6355754,41.3850899],[26.6260424,41.3449992],[26.5838115,41.3221488],[26.5440996,41.3421827],[26.5189471,41.3397352],[26.5137867,41.3282734],[26.4979464,41.3282615],[26.48713,41.3046298],[26.4650901,41.300657],[26.4623114,41.2828068],[26.4353786,41.278513],[26.4074099,41.2541536],[26.323744,41.2539305],[26.3172679,41.2373458],[26.3310246,41.2188258],[26.3192099,41.2007882],[26.3215628,41.1840838],[26.3066406,41.1746324],[26.3367846,41.1434189],[26.3029776,41.1134885],[26.3353707,41.1083962],[26.3126863,41.0846771],[26.3124342,41.0715079],[26.3298362,41.0508466],[26.3271914,41.0414135],[26.3665656,41.0204045],[26.3579108,40.9996375],[26.3254612,40.9845786],[26.3590086,40.9452656],[26.3273344,40.9440049],[26.303879,40.9274223],[26.2916306,40.933063],[26.2577785,40.9121131],[26.2466276,40.8730424],[26.2093383,40.8274215],[26.200766,40.83075],[26.2042743,40.8209022],[26.1781615,40.8201425],[26.1414377,40.7931152],[26.1268763,40.771221],[26.1250403,40.7427437],[26.0736331,40.7274653],[26.0364416,40.7302538]],[[26.4995095,41.662947],[26.5219813,41.668392]],[[26.3471976,41.7112579],[26.3692796,41.7096272],[26.3773638,41.6963723],[26.4108592,41.6831328],[26.4406022,41.6874014],[26.4689666,41.669606],[26.4913282,41.6732684],[26.4943027,41.6612986],[26.525882,41.6687602],[26.559499,41.6612533],[26.5724018,41.6313821],[26.5919132,41.6212409],[26.5936452,41.60724]],[[25.9303763,41.9446889],[25.9299552,41.9334261]],[[26.4356616,41.6830987],[26.4380836,41.6866883]],[[26.4663488,41.6710806],[26.471681,41.6697502]],[[26.595128,41.6096177],[26.5948039,41.6052688]],[[26.1073278,40.7621608],[26.1069134,40.7641771]],[[26.1267821,40.7703979],[26.029581,40.738181]]]}},{"type":"Feature","properties":{"id":"aras","name":"Aras"},"geometry":{"type":"MultiLineString","coordinates":[[[41.5178221,39.6195675],[41.5363609,39.6192204],[41.5307199,39.6338212],[41.5469097,39.629881],[41.5516968,39.6388347],[41.5623628,39.6249241],[41.5774719,39.6395039],[41.5709677,39.6224474],[41.5975952,39.6192127]],[[41.7089248,39.6157219],[41.7311724,39.6188691],[41.7376198,39.6390109],[41.7501934,39.6523407],[41.7673936,39.6523352],[41.7664093,39.659285]],[[41.8520361,39.8524944],[41.869095,39.8735328]],[[43.3605542,40.1444474],[43.3931462,40.1247477]],[[43.5832894,40.1163327],[43.6487368,40.1312363]],[[41.869095,39.8735328],[41.8795972,39.8732373],[41.8735005,39.8841826],[41.8933582,39.9134251],[41.8940468,39.9364923],[41.8830585,39.9447854]],[[41.8830585,39.9447854],[41.8779007,39.9516399],[41.8884525,39.9696463]],[[41.6479875,40.8176367],[41.6955208,40.8518636],[41.7010275,40.8748225],[41.7161565,40.8877406]],[[41.8932687,41.1402313],[41.8991473,41.155055],[41.8701352,41.1698953]],[[41.5474937,40.8135394],[41.641608,40.8118649]],[[42.9379276,40.0921817],[42.950194,40.0886231],[42.9524956,40.0968088],[42.9769883,40.0999158],[42.9816555,40.1122492],[43.0315845,40.1295934]],[[42.4260288,40.1065786],[42.4306015,40.1151186],[42.4724041,40.1177279],[42.4849085,40.1275689],[42.5819482,40.1360712],[42.5882274,40.1568685],[42.6098138,40.1631452]],[[42.6098138,40.1631452],[42.6360018,40.1505528],[42.6450184,40.1696319],[42.6865118,40.1719539],[42.6962053,40.1445444]],[[42.2200459,40.0576989],[42.2818199,40.0830153],[42.3275475,40.0748605],[42.3519114,40.104283],[42.4260288,40.1065786]],[[42.7649325,40.11799],[42.7986024,40.0611139],[42.8917214,40.064732],[42.9379276,40.0921817]],[[41.8884525,39.9696463],[41.9903402,40.004369],[42.0199539,40.0271419],[42.0297373,40.0202901],[42.1022687,40.0247788],[42.1653448,40.0152106],[42.1821142,40.0240505],[42.1902649,40.05095],[42.2200459,40.0576989]],[[41.5975952,39.6192127],[41.6500032,39.6313467],[41.6821993,39.6088932],[41.7089248,39.6157219]],[[41.7948246,39.7172206],[41.8132071,39.7550787],[41.7949279,39.7852711],[41.7805104,39.7855133],[41.7830929,39.7963274],[41.7719159,39.8011062],[41.7609899,39.8307914],[41.8385902,39.837855],[41.8520361,39.8524944]],[[41.7664093,39.659285],[41.7686454,39.673577],[41.7930624,39.6976151],[41.7948246,39.7172206]],[[40.454886,38.489491],[40.4218009,38.4954799],[40.394291,38.4881925]],[[40.6559122,40.3933675],[40.6742829,40.3947819],[40.6806954,40.4066357],[40.6970515,40.4022409],[40.6830852,40.4115539],[40.6877013,40.4180927],[40.7109452,40.416341],[40.7109072,40.4253151],[40.7256007,40.4164075]],[[40.7932492,40.4347483],[40.8020482,40.4434565],[40.8416141,40.4375193],[40.8593687,40.4447086]],[[40.7256007,40.4164075],[40.7573354,40.4385103],[40.7932492,40.4347483]],[[40.8593687,40.4447086],[40.8829085,40.4516537],[40.9055465,40.4446229]],[[40.9055465,40.4446229],[40.9330651,40.4602033],[40.9717847,40.4601348],[41.0038993,40.5057355]],[[41.1016809,40.5729033],[41.1516072,40.5892926],[41.1846406,40.6250531],[41.2061106,40.624123],[41.206392,40.6403593],[41.2442315,40.6641438],[41.288856,40.6767096]],[[41.4804623,39.6286461],[41.4982679,39.6257275],[41.4953922,39.6185401],[41.5178221,39.6195675]],[[43.0321142,40.1296169],[43.1298467,40.1793616],[43.1505364,40.1803324]],[[41.288856,40.6767096],[41.2920049,40.6774207]],[[41.2920049,40.6774207],[41.3522928,40.685147],[41.3983525,40.710649],[41.397139,40.7177825],[41.4353342,40.7252076],[41.4359193,40.7364572],[41.4903899,40.7431134],[41.4956402,40.768093],[41.5474937,40.8135394]],[[41.2877184,39.511271],[41.2847124,39.5426424]],[[41.2847124,39.5426424],[41.2986313,39.5786743],[41.3735556,39.5987679]],[[41.3735556,39.5987679],[41.3905258,39.5983011],[41.4156254,39.6193497],[41.4804623,39.6286461]],[[41.2826461,39.5036527],[41.2877184,39.511271]],[[40.4728427,40.3758135],[40.5042577,40.3936176],[40.5150233,40.3844998],[40.5512847,40.3963537],[40.566566,40.3897135],[40.5836155,40.4017687],[40.6054772,40.3912791],[40.607522,40.4091573],[40.6559122,40.3933675]],[[41.0038993,40.5057355],[41.0371187,40.5256699],[41.0346866,40.5358764],[41.0563568,40.5542447],[41.1016809,40.5729033]],[[41.8701352,41.1698953],[41.8696014,41.1706512]],[[43.0315845,40.1295934],[43.0317669,40.1295708]],[[41.7691666,40.934245],[41.7572189,40.9560821],[41.7697923,40.9945468],[41.7631504,40.9998934],[41.7885019,41.0225197],[41.7871079,41.0326642],[41.7983474,41.0309689],[41.8013978,41.0670743],[41.8234979,41.0817892],[41.8162754,41.097589],[41.8940948,41.128869],[41.8932687,41.1402313]],[[43.1506894,40.1802639],[43.2161332,40.1641465],[43.2320783,40.1487604],[43.2605042,40.1607096],[43.2889241,40.1535566]],[[43.1505364,40.1803324],[43.1506894,40.1802639]],[[43.359801,40.1446711],[43.3605542,40.1444474]],[[43.0317669,40.1295708],[43.0321142,40.1296169]],[[42.6991658,40.1424726],[42.7240142,40.1420959],[42.7381173,40.1249159],[42.7649325,40.11799]],[[42.6962053,40.1445444],[42.6991658,40.1424726]],[[41.2856951,39.509758],[41.2877184,39.511271]],[[43.3933201,40.1247252],[43.480086,40.1051364],[43.5225846,40.1183185],[43.5832894,40.1163327]],[[43.3931462,40.1247477],[43.3933201,40.1247252]],[[43.2889241,40.1535566],[43.359801,40.1446711]],[[41.7690358,40.9323076],[41.7691666,40.934245]],[[41.7161565,40.8877406],[41.7315657,40.8884791],[41.740927,40.9119435],[41.7690358,40.9323076]],[[41.641608,40.8118649],[41.6467206,40.8150832]],[[41.8696014,41.1706512],[41.8694958,41.1708112]]]}},{"type":"Feature","properties":{"id":"coruh","name":"Çoruh"},"geometry":{"type":"MultiLineString","coordinates":[[[41.5178221,39.6195675],[41.5363609,39.6192204],[41.5307199,39.6338212],[41.5469097,39.629881],[41.5516968,39.6388347],[41.5623628,39.6249241],[41.5774719,39.6395039],[41.5709677,39.6224474],[41.5975952,39.6192127]],[[41.7089248,39.6157219],[41.7311724,39.6188691],[41.7376198,39.6390109],[41.7501934,39.6523407],[41.7673936,39.6523352],[41.7664093,39.659285]],[[41.8520361,39.8524944],[41.869095,39.8735328]],[[43.3605542,40.1444474],[43.3931462,40.1247477]],[[43.5832894,40.1163327],[43.6487368,40.1312363]],[[41.869095,39.8735328],[41.8795972,39.8732373],[41.8735005,39.8841826],[41.8933582,39.9134251],[41.8940468,39.9364923],[41.8830585,39.9447854]],[[41.8830585,39.9447854],[41.8779007,39.9516399],[41.8884525,39.9696463]],[[40.2574319,39.7287584],[40.2225448,39.6798271],[40.1776196,39.6475238],[40.188459,39.6209466]],[[41.6479875,40.8176367],[41.6955208,40.8518636],[41.7010275,40.8748225],[41.7161565,40.8877406]],[[41.8932687,41.1402313],[41.8991473,41.155055],[41.8701352,41.1698953]],[[41.5474937,40.8135394],[41.641608,40.8118649]],[[40.2664888,40.3744266],[40.3036467,40.3867378],[40.364601,40.3747462],[40.4323644,40.3859205],[40.4728427,40.3758135]],[[42.9379276,40.0921817],[42.950194,40.0886231],[42.9524956,40.0968088],[42.9769883,40.0999158],[42.9816555,40.1122492],[43.0315845,40.1295934]],[[42.4260288,40.1065786],[42.4306015,40.1151186],[42.4724041,40.1177279],[42.4849085,40.1275689],[42.5819482,40.1360712],[42.5882274,40.1568685],[42.6098138,40.1631452]],[[42.6098138,40.1631452],[42.6360018,40.1505528],[42.6450184,40.1696319],[42.6865118,40.1719539],[42.6962053,40.1445444]],[[42.2200459,40.0576989],[42.2818199,40.0830153],[42.3275475,40.0748605],[42.3519114,40.104283],[42.4260288,40.1065786]],[[42.7649325,40.11799],[42.7986024,40.0611139],[42.8917214,40.064732],[42.9379276,40.0921817]],[[40.0370474,39.5578355],[39.8674971,39.5940747]],[[39.8400199,39.6078869],[39.7918019,39.6161129],[39.7554187,39.644917],[39.6736896,39.6424111],[39.6328676,39.661513]],[[40.2691838,40.2055712],[40.2260958,40.2551391],[40.2342255,40.2725619],[40.2303518,40.2984857]],[[41.8694958,41.1708112],[41.8653176,41.1812782],[41.83878,41.1775305],[41.7913061,41.2124478],[41.7715876,41.2710257],[41.7593014,41.2733153],[41.7512892,41.2943708],[41.7305131,41.3066488],[41.7296874,41.3192827],[41.6857992,41.3479792]],[[40.2303518,40.2984857],[40.2379256,40.3293173],[40.2529018,40.3397365],[40.2509265,40.3548568],[40.2664888,40.3744266]],[[41.8884525,39.9696463],[41.9903402,40.004369],[42.0199539,40.0271419],[42.0297373,40.0202901],[42.1022687,40.0247788],[42.1653448,40.0152106],[42.1821142,40.0240505],[42.1902649,40.05095],[42.2200459,40.0576989]],[[40.188459,39.6209466],[40.1701771,39.5784535],[40.101824,39.5559939],[40.0641346,39.5503922],[40.0370474,39.5578355]],[[41.6857992,41.3479792],[41.6837188,41.3491174]],[[41.6837188,41.3491174],[41.6740589,41.3520864],[41.6752283,41.3626046],[41.6952717,41.3938315],[41.705054,41.4411832],[41.69909,41.4476617],[41.7172444,41.4549619],[41.7162456,41.4667415]],[[41.5975952,39.6192127],[41.6500032,39.6313467],[41.6821993,39.6088932],[41.7089248,39.6157219]],[[41.7948246,39.7172206],[41.8132071,39.7550787],[41.7949279,39.7852711],[41.7805104,39.7855133],[41.7830929,39.7963274],[41.7719159,39.8011062],[41.7609899,39.8307914],[41.8385902,39.837855],[41.8520361,39.8524944]],[[41.7664093,39.659285],[41.7686454,39.673577],[41.7930624,39.6976151],[41.7948246,39.7172206]],[[40.6559122,40.3933675],[40.6742829,40.3947819],[40.6806954,40.4066357],[40.6970515,40.4022409],[40.6830852,40.4115539],[40.6877013,40.4180927],[40.7109452,40.416341],[40.7109072,40.4253151],[40.7256007,40.4164075]],[[40.7932492,40.4347483],[40.8020482,40.4434565],[40.8416141,40.4375193],[40.8593687,40.4447086]],[[40.7256007,40.4164075],[40.7573354,40.4385103],[40.7932492,40.4347483]],[[40.8593687,40.4447086],[40.8829085,40.4516537],[40.9055465,40.4446229]],[[40.9055465,40.4446229],[40.9330651,40.4602033],[40.9717847,40.4601348],[41.0038993,40.5057355]],[[41.1016809,40.5729033],[41.1516072,40.5892926],[41.1846406,40.6250531],[41.2061106,40.624123],[41.206392,40.6403593],[41.2442315,40.6641438],[41.288856,40.6767096]],[[41.4804623,39.6286461],[41.4982679,39.6257275],[41.4953922,39.6185401],[41.5178221,39.6195675]],[[43.0321142,40.1296169],[43.1298467,40.1793616],[43.1505364,40.1803324]],[[41.288856,40.6767096],[41.2920049,40.6774207]],[[41.2920049,40.6774207],[41.3522928,40.685147],[41.3983525,40.710649],[41.397139,40.7177825],[41.4353342,40.7252076],[41.4359193,40.7364572],[41.4903899,40.7431134],[41.4956402,40.768093],[41.5474937,40.8135394]],[[41.2877184,39.511271],[41.2847124,39.5426424]],[[41.2847124,39.5426424],[41.2986313,39.5786743],[41.3735556,39.5987679]],[[41.3735556,39.5987679],[41.3905258,39.5983011],[41.4156254,39.6193497],[41.4804623,39.6286461]],[[41.2826461,39.5036527],[41.2877184,39.511271]],[[40.4728427,40.3758135],[40.5042577,40.3936176],[40.5150233,40.3844998],[40.5512847,40.3963537],[40.566566,40.3897135],[40.5836155,40.4017687],[40.6054772,40.3912791],[40.607522,40.4091573],[40.6559122,40.3933675]],[[41.0038993,40.5057355],[41.0371187,40.5256699],[41.0346866,40.5358764],[41.0563568,40.5542447],[41.1016809,40.5729033]],[[41.8701352,41.1698953],[41.8696014,41.1706512]],[[43.0315845,40.1295934],[43.0317669,40.1295708]],[[41.7691666,40.934245],[41.7572189,40.9560821],[41.7697923,40.9945468],[41.7631504,40.9998934],[41.7885019,41.0225197],[41.7871079,41.0326642],[41.7983474,41.0309689],[41.8013978,41.0670743],[41.8234979,41.0817892],[41.8162754,41.097589],[41.8940948,41.128869],[41.8932687,41.1402313]],[[43.1506894,40.1802639],[43.2161332,40.1641465],[43.2320783,40.1487604],[43.2605042,40.1607096],[43.2889241,40.1535566]],[[43.1505364,40.1803324],[43.1506894,40.1802639]],[[43.359801,40.1446711],[43.3605542,40.1444474]],[[39.4875137,39.6978734],[39.4648552,39.6995007],[39.4614894,39.691936],[39.450519,39.7018225],[39.4001165,39.6927292],[39.3656902,39.6524593],[39.3395721,39.6431999]],[[39.6328676,39.661513],[39.5722765,39.697824],[39.541673,39.694621],[39.5301514,39.7039989],[39.4875137,39.6978734]],[[39.6328676,39.661513],[39.5907507,39.6595609],[39.4883258,39.6979697]],[[41.7162456,41.4667415],[41.715518,41.4683596]],[[41.715518,41.4683596],[41.707772,41.4746224]],[[43.0317669,40.1295708],[43.0321142,40.1296169]],[[42.6991658,40.1424726],[42.7240142,40.1420959],[42.7381173,40.1249159],[42.7649325,40.11799]],[[42.6962053,40.1445444],[42.6991658,40.1424726]],[[41.2856951,39.509758],[41.2877184,39.511271]],[[43.3933201,40.1247252],[43.480086,40.1051364],[43.5225846,40.1183185],[43.5832894,40.1163327]],[[43.3931462,40.1247477],[43.3933201,40.1247252]],[[43.2889241,40.1535566],[43.359801,40.1446711]],[[41.7690358,40.9323076],[41.7691666,40.934245]],[[41.7161565,40.8877406],[41.7315657,40.8884791],[41.740927,40.9119435],[41.7690358,40.9323076]],[[41.641608,40.8118649],[41.6467206,40.8150832]],[[41.8696014,41.1706512],[41.8694958,41.1708112]],[[39.8674971,39.5940747],[39.8400199,39.6078869]]]}},{"type":"Feature","properties":{"id":"goksu","name":"Göksu"},"geometry":{"type":"MultiLineString","coordinates":[[[32.3037818,37.0255777],[32.3339618,37.0321065],[32.3224334,37.0428336],[32.3227456,37.0683264],[32.3045521,37.1021884],[32.3169648,37.1276209],[32.3344,37.1375215],[32.3992455,37.1329518],[32.399002,37.1217065],[32.4332499,37.1030932],[32.4713781,37.1102981],[32.4835478,37.0990475],[32.5059096,37.1083328],[32.5057161,37.0912286],[32.5168379,37.0925248],[32.5277294,37.0712798],[32.5572012,37.075557],[32.6065617,37.0372956],[32.625457,37.0421764],[32.701629,37.0288171],[32.7504194,37.0508861],[32.7757771,37.0456539],[32.7858086,37.0618993],[32.8158731,37.0585361],[32.8379153,37.0468293],[32.8437458,37.0255391],[32.8954723,37.0115452],[32.9094882,36.985302],[32.9990391,36.951463],[33.036912,36.9494394],[33.0727221,36.931049],[33.0913011,36.9148956],[33.0934905,36.8844644],[33.1229238,36.8477271],[33.1285767,36.8241549],[33.1485719,36.8243228],[33.1693661,36.8043819],[33.1770346,36.8075549],[33.1727953,36.7970657],[33.1917712,36.7876773],[33.1829291,36.783495],[33.1966001,36.7681886],[33.2527116,36.7644508],[33.2892679,36.7533616],[33.3055043,36.7366953],[33.3213129,36.7369059],[33.375046,36.6771166],[33.3625736,36.6477268],[33.3683404,36.6284891],[33.380814,36.6254978],[33.3829351,36.6087599],[33.3739936,36.6040906],[33.3886541,36.5882274],[33.3748677,36.5832642],[33.3760123,36.5736981],[33.4198067,36.575775],[33.4585932,36.5430942],[33.4443486,36.5284955],[33.4737562,36.5315401],[33.4751202,36.5159877],[33.513618,36.5064568],[33.5248071,36.5184789],[33.5318653,36.5021324],[33.5493654,36.493774],[33.5463329,36.4858505],[33.5633561,36.4851377],[33.5594271,36.4776921],[33.5786265,36.4624083],[33.5910583,36.4699465],[33.6277881,36.4561605],[33.668999,36.4148118],[33.7112392,36.4169998],[33.7689444,36.4376148],[33.805798,36.4032823],[33.8392553,36.3960911],[33.8688514,36.403863],[33.8829436,36.4257748],[33.9073726,36.4238385],[33.9296039,36.3892372],[33.9185722,36.3809607],[33.9640954,36.3724754],[33.9801114,36.3817358],[34.0032496,36.3691555],[34.0296663,36.3230017],[34.0452629,36.3196075],[34.0339154,36.3137372],[34.0442563,36.3096405],[34.0450709,36.2945988]],[[33.3759043,36.601833],[33.3774253,36.6008144]],[[33.3659289,36.6673091],[33.3686945,36.6648518]],[[33.3745776,36.6739725],[33.3732638,36.6719754]],[[33.149235,36.8239989],[33.1546047,36.8210894]],[[34.0267442,36.337683],[34.0276377,36.3344202]],[[34.0345147,36.3208498],[34.0392699,36.3205901]],[[33.9197684,36.4064951],[33.9223614,36.4056677]],[[33.8238407,36.3998184],[33.8275452,36.3995853]],[[33.7869883,36.4248621],[33.7863697,36.4203763]],[[33.5692198,36.4746971],[33.5718986,36.4747964]],[[33.5606457,36.4771804],[33.5626104,36.4766103]],[[33.5530776,36.4857597],[33.5563259,36.4861518]],[[33.5337644,36.5058092],[33.5334841,36.5037519]],[[33.4710824,36.5308834],[33.474212,36.5311993]],[[33.4552306,36.5373359],[33.4529111,36.5369885]],[[33.4436788,36.5541828],[33.4463466,36.5517959]],[[33.4092678,36.573096],[33.4119017,36.5716066]]]}},{"type":"Feature","properties":{"id":"manavgat","name":"Manavgat"},"geometry":{"type":"MultiLineString","coordinates":[[[31.7195161,37.248195],[31.7035485,37.2312033],[31.7103356,37.218838],[31.6835025,37.1943613],[31.7231914,37.1554566],[31.6950553,37.1141908],[31.6579894,37.0834909],[31.6602146,37.0613388],[31.6436593,37.0525829],[31.6340716,37.0182631],[31.6060966,36.9857933],[31.6062747,36.9608519],[31.5524106,36.9386623],[31.5525015,36.9226353],[31.5284155,36.90273],[31.5273118,36.867121],[31.5410469,36.8730935],[31.54796,36.8611929],[31.5333472,36.8470015],[31.5173667,36.849689],[31.5139656,36.8265851],[31.4946846,36.8392107],[31.4734694,36.8364849],[31.4501902,36.8175485],[31.4688699,36.8018714],[31.4431754,36.7933793],[31.4517761,36.781878],[31.447905,36.7652047],[31.4939845,36.7368381]],[[31.4526706,36.8155164],[31.4544338,36.8137183]],[[31.455183,36.812557],[31.4576814,36.8111086]]]}},{"type":"Feature","properties":{"id":"aksu","name":"Aksu"},"geometry":{"type":"MultiLineString","coordinates":[[[30.8859699,36.9023507],[30.8929651,36.9099391]],[[30.7907671,37.2724643],[30.7897594,37.2462468],[30.8022134,37.2360751],[30.7908192,37.2326454],[30.8023663,37.222761],[30.7956898,37.2086075],[30.8130026,37.1954737],[30.8139786,37.1795756]],[[30.8090626,37.3069306],[30.8087225,37.3068314]],[[30.8341666,37.3686588],[30.8306288,37.3667141]],[[30.8306288,37.3667141],[30.8318437,37.3504138],[30.8090626,37.3069306]],[[30.8087225,37.3068314],[30.7885542,37.296632],[30.7907671,37.2724643]],[[30.8553679,37.3930268],[30.8341666,37.3686588]],[[30.8709899,37.648334],[30.8621339,37.6353031]],[[30.7826252,37.5350141],[30.7817197,37.5176471],[30.8013293,37.5034585]],[[30.828719,37.6003028],[30.8084066,37.5619725],[30.7838194,37.5494486],[30.7826252,37.5350141]],[[30.8013293,37.5034585],[30.8409394,37.4608459],[30.8453835,37.4105535],[30.8553679,37.3930268]],[[30.8590667,37.6274925],[30.8592354,37.6267776]],[[30.8604226,37.6312367],[30.8590309,37.6296882]],[[30.8598517,37.6257675],[30.828719,37.6003028]],[[30.8663565,37.8443633],[30.877222,37.8052055],[30.8662766,37.7159721],[30.8777517,37.694932],[30.8801066,37.6560662],[30.8709899,37.648334]],[[30.8925026,37.0738348],[30.8962433,37.0721653]],[[30.8957023,37.0764504],[30.8979535,37.070964]],[[30.8733428,36.9369684],[30.8825052,36.9329929]],[[30.8382234,37.1229467],[30.8807047,37.1068782],[30.9180584,37.0482891],[30.9090296,37.033089],[30.9195987,37.0107798],[30.912994,36.995338],[30.9245179,36.9801098],[30.8826514,36.9337041],[30.8935449,36.9102239]],[[30.8893973,36.9133451],[30.8873454,36.9126245]],[[30.8935449,36.9102239],[30.9120201,36.90467],[30.9321946,36.8760247],[30.9214121,36.8538873]],[[30.8929651,36.9099391],[30.8935449,36.9102239]],[[30.8139786,37.1795756],[30.8382234,37.1229467]]]}},{"type":"Feature","properties":{"id":"dalaman","name":"Dalaman"},"geometry":{"type":"MultiLineString","coordinates":[[[29.4517836,37.0308313],[29.4783624,37.0574528],[29.523017,37.0732487],[29.5363509,37.0890981],[29.5623427,37.18854],[29.535791,37.244864],[29.5024016,37.2530409],[29.4781836,37.3290179],[29.4076088,37.358676],[29.3913701,37.3404992],[29.3632283,37.3292896],[29.3588443,37.3201125],[29.3698143,37.3172023],[29.3186581,37.2829504],[29.3156144,37.2597611],[29.2607439,37.217079],[29.2552579,37.2019742],[29.2355217,37.2001033],[29.2283021,37.1759929],[29.2020316,37.1509512],[29.1537021,37.1380542],[29.1463,37.1276036],[29.1150781,37.1366596],[29.1008381,37.1295717],[29.1062164,37.1251462],[29.095785,37.1225386],[29.1012422,37.1198713],[29.0906374,37.1067539],[29.1020865,37.0914153],[29.0741613,37.0888912],[29.0465203,37.062526],[29.0700746,37.0419435],[29.0571166,37.009465],[29.0283845,36.9910998],[29.0231919,36.974667],[29.0004033,36.9647951],[28.9884165,36.9417438],[28.9657961,36.9379929],[28.8829617,36.8863114],[28.8298028,36.8756944],[28.7978392,36.8510447],[28.7940448,36.834874],[28.8069257,36.8182914],[28.7806758,36.8094333],[28.7617175,36.778236],[28.7674242,36.7223315],[28.7284283,36.711907],[28.7290968,36.7044505]]]}},{"type":"Feature","properties":{"id":"susurluk","name":"Susurluk (Simav)"},"geometry":{"type":"MultiLineString","coordinates":[[[28.4874523,40.2639437],[28.4530073,40.2700058],[28.4429612,40.2913407]],[[28.4229022,40.2779408],[28.4253216,40.2783613]],[[28.2704359,40.1117902],[28.270848,40.1143378]],[[28.2670436,40.1045375],[28.2705172,40.1065818]],[[28.2472068,40.0965523],[28.2489462,40.0983127]],[[28.2061945,40.0623241],[28.2074243,40.0645482]],[[28.1721237,39.9626775],[28.1722578,39.9647327]],[[28.178734,39.8140176],[28.1815575,39.8160254]],[[28.1887431,39.7907455],[28.1890071,39.7924668]],[[28.1982256,39.7179468],[28.2004596,39.7191636]],[[28.1278405,39.6818012],[28.1286779,39.6827066]],[[28.1235902,39.6812135],[28.1246113,39.6807904]],[[28.1209208,39.6810742],[28.1236841,39.6808185]],[[28.1161297,39.6798947],[28.1180499,39.6805569]],[[28.1128496,39.6758601],[28.1135195,39.6770691]],[[28.1087485,39.671022],[28.1102667,39.6718347]],[[28.0924927,39.6695955],[28.1010906,39.6694717]],[[28.0838412,39.6613577],[28.0846237,39.6642111]],[[28.1017505,39.5710792],[28.1021342,39.5732168]],[[28.1162778,39.5426898],[28.1158724,39.5417643]],[[28.1153048,39.5402252],[28.1147603,39.539672]],[[28.1115608,39.5231982],[28.1125921,39.5243053]],[[28.1105964,39.5216912],[28.1105107,39.5225109]],[[28.1106196,39.5225639],[28.1112872,39.5231192]],[[28.1202612,39.5056293],[28.1191776,39.5077192]],[[28.1154698,39.4401174],[28.1164954,39.4409067]],[[28.1101003,39.433096],[28.1119671,39.4354555]],[[28.105168,39.4264603],[28.1065984,39.4279877]],[[28.0787772,39.3950744],[28.079094,39.3968472]],[[28.075503,39.3903329],[28.0762469,39.3918339]],[[28.0704798,39.3691394],[28.0708194,39.3710484]],[[28.0697962,39.3642113],[28.0693341,39.3659188]],[[28.0716108,39.360391],[28.0699377,39.3611406]],[[28.0675786,39.3358378],[28.0682989,39.336445]],[[28.0689437,39.3367919],[28.0707337,39.3377346]],[[28.1136515,39.2817077],[28.1119806,39.282138]],[[28.1236837,39.282792],[28.1215252,39.2825371]],[[28.3626062,39.2231194],[28.361489,39.2243505]],[[28.5775761,39.1742854],[28.5761154,39.1751871]],[[28.6766789,39.1646705],[28.6747524,39.1646473]],[[28.5114107,40.3940723],[28.4791732,40.357324],[28.4658302,40.3100156],[28.4495258,40.3067599],[28.4565018,40.299491],[28.429654,40.2870885],[28.4292773,40.2793365],[28.406723,40.2748435],[28.395291,40.2481553],[28.4085257,40.2369861],[28.3929217,40.2254066],[28.4065967,40.2179503],[28.3987364,40.20518],[28.328471,40.188629],[28.2733417,40.125533],[28.2704307,40.1064884],[28.2559595,40.1048022],[28.2297956,40.0745028],[28.1871155,40.0478085],[28.2012324,40.0327135],[28.1748838,39.9892188],[28.1850775,39.9767532],[28.171843,39.9658918],[28.1824283,39.9591618],[28.1807954,39.9428155],[28.1601289,39.9247043],[28.1718287,39.9065945],[28.1569698,39.8912971],[28.1733817,39.8730902],[28.1554296,39.861835],[28.1820372,39.8521819],[28.1877855,39.8271121],[28.1678774,39.8026206],[28.1888701,39.7927306],[28.1841553,39.7780035],[28.202088,39.7883964],[28.2010498,39.7755981],[28.2347096,39.7828213],[28.2321489,39.7575707],[28.251151,39.7565593],[28.2134391,39.7243887],[28.0867589,39.6672183],[28.0685761,39.6299537],[28.0685656,39.6072857],[28.0861339,39.6028077],[28.1010076,39.5833787],[28.109852,39.5429874],[28.1201271,39.5423109],[28.1103558,39.5220196],[28.1315482,39.4876223],[28.1168136,39.4412764],[28.0707314,39.3808451],[28.0695745,39.3614908],[28.0882929,39.3411278],[28.0674396,39.3361114],[28.0947574,39.3250328],[28.0907877,39.2920299],[28.1471457,39.2695062],[28.1921955,39.28264],[28.2204866,39.2738885],[28.2301211,39.2535828],[28.314287,39.2634036],[28.3510426,39.2443534],[28.3627168,39.223078],[28.4132422,39.2210425],[28.4769715,39.1983103],[28.5077199,39.2053845],[28.5214984,39.1921075],[28.6043756,39.1669318],[28.7095982,39.1649115],[28.7147116,39.1583663],[28.7834675,39.1644172],[28.8005771,39.1798125],[28.9057266,39.1554503]]]}}]}