{"type":"FeatureCollection","features":[{"type":"Feature","properties":{"id":"yarisli","name":"Yarışlı Gölü","source":"OpenStreetMap","source_url":"https://www.openstreetmap.org/copyright","classification_source":"https://ogmmateryal.eba.gov.tr/kitap/mebi-konu-ozetleri/tyt-cografya/files/basic-html/page81.html","classification_note":"MEB karma oluşumlu göl · tektonik-karstik"},"geometry":{"type":"Polygon","coordinates":[[[29.9450477,37.5680495],[29.9450518,37.5679601],[29.9450633,37.5678667],[29.9450821,37.5677741],[29.9451081,37.5676827],[29.9451657,37.5675101],[29.9452335,37.5673398],[29.9452461,37.5673006],[29.9452683,37.5672642],[29.9452993,37.5672319],[29.9453321,37.5672085],[29.9453696,37.5671899],[29.9453907,37.5671846],[29.9454106,37.5671767],[29.9454398,37.5671579],[29.9454615,37.5671335],[29.9454743,37.5671054],[29.9454928,37.5670275],[29.9455183,37.5669508],[29.9455507,37.5668758],[29.9455839,37.5668131],[29.945622,37.566752],[29.945645,37.5667232],[29.9456647,37.566693],[29.9456906,37.5666382],[29.9457059,37.566581],[29.9457103,37.5665227],[29.9457036,37.5664644],[29.9457035,37.566389],[29.9457129,37.566314],[29.9457318,37.5662401],[29.9457566,37.5661743],[29.9457885,37.5661104],[29.9458273,37.5660489],[29.9458517,37.5660205],[29.9458726,37.5659903],[29.9458981,37.5659395],[29.9459138,37.5658863],[29.9459192,37.5658317],[29.9459141,37.5657772],[29.9459152,37.5657066],[29.9459246,37.5656364],[29.9459424,37.5655673],[29.9459685,37.5654997],[29.9459959,37.5654151],[29.9460181,37.5653294],[29.9460348,37.565243],[29.9460463,37.5651524],[29.9460517,37.5650614],[29.9460509,37.5649703],[29.9460576,37.5647429],[29.946014,37.5647284],[29.945976,37.5647062],[29.9459457,37.5646775],[29.9459266,37.5646476],[29.9459159,37.5646152],[29.9459141,37.5645818],[29.9459187,37.5645586],[29.945928,37.5645362],[29.9459416,37.5645154],[29.945922,37.5643584],[29.9459061,37.5642012],[29.9458941,37.5640448],[29.945886,37.5638882],[29.9458867,37.5637185],[29.9458974,37.563549],[29.9458581,37.5634356],[29.9458303,37.56332],[29.945817,37.5632312],[29.9458106,37.563142],[29.9458109,37.5630526],[29.9458046,37.562957],[29.9458034,37.5629089],[29.9457914,37.5628618],[29.945771,37.5628202],[29.9457422,37.5627819],[29.9457058,37.5627479],[29.9456628,37.5627192],[29.9456378,37.562709],[29.9456144,37.5626965],[29.9455773,37.5626685],[29.9455486,37.5626349],[29.9455296,37.5625972],[29.9455212,37.5625572],[29.945492,37.5624508],[29.9454722,37.5623431],[29.945462,37.5622346],[29.9454613,37.5621258],[29.9454702,37.5620172],[29.9454916,37.5618964],[29.9455248,37.5617774],[29.9455696,37.5616608],[29.9455959,37.5616034],[29.9456258,37.5615473],[29.9456832,37.5614571],[29.9457499,37.5613711],[29.9458255,37.5612899],[29.9458694,37.5612532],[29.9459095,37.561214],[29.9459628,37.5611496],[29.9460061,37.5610806],[29.9460386,37.561008],[29.9460599,37.5609329],[29.9460697,37.5608563],[29.9460903,37.5607654],[29.9461203,37.5606763],[29.9461596,37.5605894],[29.9462079,37.5605054],[29.9463822,37.5600759],[29.9464304,37.5599155],[29.9464865,37.5597566],[29.9465505,37.5595997],[29.9466125,37.5594648],[29.9466802,37.5593317],[29.9467154,37.5592655],[29.9467537,37.5592005],[29.9468344,37.5590801],[29.9468697,37.5590441],[29.9469002,37.5590054],[29.9469253,37.5589644],[29.9469471,37.558916],[29.9469615,37.558866],[29.9469683,37.5588149],[29.9469676,37.5587635],[29.9469428,37.5586773],[29.9469272,37.5585897],[29.9469206,37.5585014],[29.9469236,37.5584101],[29.9469364,37.5583194],[29.9469589,37.5582298],[29.9469936,37.5581139],[29.9470343,37.5579992],[29.9470809,37.5578859],[29.9472231,37.5575622],[29.9473357,37.557181],[29.947313,37.557154],[29.9472956,37.5571245],[29.9472841,37.5570933],[29.9472782,37.5570538],[29.9472817,37.5570142],[29.9472943,37.5569757],[29.9473156,37.5569397],[29.9473472,37.5569028],[29.947386,37.5568707],[29.9474309,37.556844],[29.9474969,37.5567968],[29.9475557,37.5567439],[29.9475835,37.5567163],[29.9476066,37.5566861],[29.9476278,37.5566474],[29.9476414,37.5566066],[29.9476471,37.5565646],[29.9476448,37.5565224],[29.9476178,37.5564879],[29.9475981,37.5564503],[29.9475865,37.5564108],[29.9475832,37.5563716],[29.9475877,37.5563324],[29.9475999,37.5562943],[29.9476334,37.5561785],[29.9476126,37.5561542],[29.9475984,37.5561271],[29.9475914,37.5560983],[29.9475919,37.556069],[29.9476012,37.5560371],[29.9476194,37.5560077],[29.9476455,37.5559823],[29.9476655,37.5559748],[29.947682,37.5559631],[29.9476938,37.5559483],[29.9477001,37.55593],[29.9476992,37.5559111],[29.947693,37.5558633],[29.9476813,37.5558163],[29.9476643,37.5557702],[29.9477115,37.5557403],[29.9477532,37.5557055],[29.9477883,37.5556665],[29.9478188,37.5556197],[29.94784,37.5555697],[29.9478514,37.5555177],[29.9478577,37.5554617],[29.9478581,37.5554055],[29.9478298,37.5554063],[29.9478026,37.5554002],[29.947779,37.555388],[29.9477608,37.5553704],[29.9477504,37.5553492],[29.9477485,37.5553266],[29.9477555,37.5553045],[29.947785,37.5552327],[29.9478239,37.5551637],[29.9478727,37.5550845],[29.9479022,37.5550471],[29.9479251,37.5550068],[29.9479416,37.5549626],[29.9479501,37.5549169],[29.9479504,37.5548708],[29.9479426,37.554825],[29.9479162,37.554772],[29.947899,37.5547166],[29.9478913,37.554661],[29.9478927,37.554605],[29.9479034,37.5545497],[29.9479231,37.554496],[29.9479389,37.5544239],[29.9479432,37.5543509],[29.9479359,37.554278],[29.9479309,37.5541417],[29.9479371,37.5540054],[29.9479546,37.5538698],[29.9479759,37.5536562],[29.9479851,37.5535494],[29.9479895,37.5534423],[29.9479888,37.5533233],[29.947982,37.5532043],[29.9479694,37.5530856],[29.9479364,37.552863],[29.9478916,37.5526417],[29.9478603,37.5525541],[29.9478377,37.5524648],[29.9478239,37.5523743],[29.947819,37.5522811],[29.9478236,37.5521879],[29.9478375,37.5520953],[29.9478608,37.5520038],[29.9478984,37.5518977],[29.9479468,37.5517943],[29.9480057,37.5516945],[29.9480378,37.5516455],[29.9480747,37.5515987],[29.9481367,37.5515346],[29.9482075,37.5514765],[29.9482862,37.5514252],[29.9483717,37.5513813],[29.94845,37.5513355],[29.9484899,37.5513133],[29.9485246,37.5512861],[29.9485506,37.5512578],[29.9485708,37.5512267],[29.9485849,37.5511936],[29.9485923,37.5511591],[29.9486198,37.5510541],[29.948654,37.5509503],[29.9486949,37.5508481],[29.9487835,37.5506404],[29.9488078,37.5505697],[29.9488396,37.5505009],[29.9488787,37.5504345],[29.9489224,37.550374],[29.9489722,37.5503166],[29.9490277,37.5502625],[29.9490885,37.5502122],[29.9491081,37.5501826],[29.9491163,37.5501499],[29.9491127,37.5501166],[29.9491005,37.55009],[29.9490807,37.5500665],[29.9490543,37.5500474],[29.9490128,37.5500222],[29.9489681,37.5500005],[29.9489436,37.5499931],[29.9489209,37.5499826],[29.948894,37.5499637],[29.9488732,37.5499405],[29.9488595,37.5499142],[29.9488536,37.5498861],[29.9488559,37.5498577],[29.9488677,37.549763],[29.9488686,37.5496679],[29.9488619,37.5495945],[29.9488487,37.5495218],[29.948829,37.5494499],[29.9488684,37.5494406],[29.9489048,37.5494254],[29.9489385,37.5494035],[29.9489657,37.5493765],[29.9489853,37.5493457],[29.9490155,37.5493084],[29.9490397,37.5492685],[29.9490577,37.5492266],[29.9490704,37.5491756],[29.9490738,37.5491237],[29.9490732,37.5490976],[29.9490678,37.5490719],[29.9490529,37.5490391],[29.9490301,37.5490093],[29.9490002,37.5489837],[29.9489809,37.5489752],[29.9489645,37.5489634],[29.9489495,37.5489449],[29.9489419,37.5489237],[29.9489423,37.5489016],[29.9489508,37.5488806],[29.9489665,37.5488624],[29.9490013,37.5488307],[29.9490417,37.5488034],[29.9490868,37.5487812],[29.9491355,37.5487646],[29.9492794,37.548713],[29.9494215,37.5486583],[29.9494664,37.5486475],[29.9495081,37.5486304],[29.9495452,37.5486075],[29.9495742,37.548582],[29.9495974,37.5485529],[29.949614,37.5485211],[29.9496236,37.5484876],[29.9496317,37.5481474],[29.9496617,37.5481142],[29.9496979,37.548085],[29.9497392,37.5480607],[29.9497848,37.5480416],[29.9498335,37.5480283],[29.9498888,37.5480208],[29.9499449,37.5480207],[29.9500002,37.548028],[29.9500532,37.5480425],[29.9500786,37.548052],[29.9501024,37.5480639],[29.9501383,37.5480893],[29.9501668,37.54812],[29.9501867,37.5481548],[29.950197,37.548192],[29.9502172,37.5482936],[29.9502261,37.5483447],[29.9502265,37.5483962],[29.9502182,37.5484475],[29.9502014,37.5484976],[29.9501764,37.5485454],[29.9501437,37.5485902],[29.9501038,37.5486312],[29.9500583,37.5486589],[29.950021,37.5486934],[29.9499935,37.5487332],[29.9499801,37.5487648],[29.9499729,37.5487975],[29.949972,37.5488308],[29.9499815,37.5488635],[29.9500009,37.5488934],[29.950029,37.5489185],[29.9500673,37.5489415],[29.9501109,37.5489576],[29.9501577,37.5489661],[29.9501985,37.5489672],[29.9502389,37.5489628],[29.9502778,37.5489528],[29.950369,37.5489196],[29.9505182,37.5491439],[29.9505354,37.5491731],[29.95056,37.5491986],[29.9505909,37.5492194],[29.950624,37.5492337],[29.95066,37.5492425],[29.9506975,37.5492455],[29.9507383,37.5492544],[29.9507764,37.5492688],[29.9508107,37.5492884],[29.95084,37.5493125],[29.950923,37.5493889],[29.9509973,37.5494709],[29.9509981,37.5494969],[29.9510052,37.5495223],[29.9510184,37.5495461],[29.9510424,37.5495723],[29.9510737,37.5495932],[29.9511103,37.5496075],[29.9511686,37.5496252],[29.9512291,37.5496373],[29.951291,37.5496439],[29.9514063,37.5497431],[29.9514408,37.5497575],[29.9514787,37.5497644],[29.9515167,37.5497634],[29.9515531,37.5497549],[29.9515857,37.5497394],[29.9516444,37.5497063],[29.9516985,37.5496687],[29.9517476,37.5496269],[29.9517912,37.5495991],[29.9518389,37.5495757],[29.9518898,37.5495573],[29.9519441,37.5495677],[29.9519991,37.5495756],[29.9520304,37.5495824],[29.9520626,37.5495849],[29.952095,37.5495831],[29.9521343,37.5495748],[29.9521706,37.5495602],[29.9522023,37.54954],[29.9522279,37.5495149],[29.9522464,37.5494862],[29.9522569,37.549455],[29.9522589,37.5494228],[29.9522769,37.5492115],[29.9523027,37.5490008],[29.9523363,37.5487907],[29.9523776,37.5485815],[29.9524266,37.5483733],[29.9523508,37.5481835],[29.952312,37.5481401],[29.952267,37.5481006],[29.9522188,37.5480671],[29.9521662,37.5480382],[29.9521098,37.5480142],[29.9520504,37.5479953],[29.952083,37.5479696],[29.9521104,37.5479403],[29.9521319,37.5479081],[29.9521469,37.5478736],[29.9521556,37.5478345],[29.9521561,37.5477948],[29.9521483,37.5477556],[29.9521352,37.5477162],[29.9521171,37.5476782],[29.9521399,37.5476706],[29.9521645,37.5476685],[29.9521888,37.5476721],[29.952209,37.5476801],[29.9522258,37.5476919],[29.9522381,37.5477069],[29.9523155,37.5477948],[29.9523368,37.5478266],[29.9523649,37.5478551],[29.9523987,37.5478792],[29.9524429,37.5479003],[29.9524915,37.5479142],[29.9525426,37.5479201],[29.9525991,37.5479189],[29.9526544,37.5479096],[29.9527068,37.5478927],[29.9527545,37.5478685],[29.952794,37.54784],[29.952827,37.5478066],[29.9528527,37.5477694],[29.9528702,37.5477293],[29.9528792,37.5476875],[29.9528896,37.5476008],[29.9528891,37.5475137],[29.9528778,37.547427],[29.9528346,37.5473737],[29.9527838,37.5473247],[29.9527263,37.5472806],[29.9526627,37.5472422],[29.952594,37.5472098],[29.9525209,37.5471839],[29.9524447,37.5471649],[29.9523705,37.5471535],[29.9522952,37.5471485],[29.9522197,37.5471501],[29.9521449,37.5471583],[29.9520716,37.5471728],[29.9520008,37.5471936],[29.9518521,37.5471941],[29.9517035,37.5471888],[29.9515555,37.5471777],[29.9513747,37.547156],[29.9511958,37.5471257],[29.9510196,37.5470868],[29.9508467,37.5470394],[29.9508661,37.5469806],[29.9508914,37.5469233],[29.9509225,37.5468677],[29.9509668,37.5468044],[29.9510185,37.5467448],[29.9510773,37.5466894],[29.9511425,37.5466388],[29.9511794,37.5466175],[29.9512135,37.5465934],[29.9512562,37.546555],[29.9512916,37.5465122],[29.9513191,37.5464658],[29.9513382,37.5464169],[29.9513483,37.5463664],[29.9515174,37.5462561],[29.9516903,37.5461494],[29.9519172,37.5460182],[29.9521496,37.5458932],[29.9522163,37.5458781],[29.952279,37.5458545],[29.952336,37.5458231],[29.9523856,37.5457847],[29.9524197,37.5457491],[29.9524475,37.5457101],[29.9524684,37.5456686],[29.9524724,37.5456463],[29.9524822,37.5456252],[29.9525001,37.5456035],[29.952524,37.5455858],[29.9525526,37.5455731],[29.9525842,37.5455663],[29.952617,37.5455657],[29.9526642,37.5455594],[29.9527094,37.545547],[29.9527513,37.5455288],[29.9527888,37.5455052],[29.9528207,37.545477],[29.9528463,37.545445],[29.9529287,37.5453504],[29.9530183,37.5452599],[29.9531145,37.5451738],[29.9532291,37.5450642],[29.9533385,37.5449513],[29.9533672,37.5449094],[29.953402,37.5448705],[29.9534424,37.5448352],[29.9534973,37.5447983],[29.9535582,37.544768],[29.9536239,37.5447449],[29.953693,37.5447295],[29.9537283,37.5447234],[29.9537643,37.5447219],[29.9538106,37.5447269],[29.9538546,37.5447395],[29.9538943,37.5447591],[29.9539279,37.5447848],[29.9539541,37.5448155],[29.9539615,37.5448502],[29.9539774,37.5448831],[29.9540011,37.5449128],[29.9540317,37.5449383],[29.9540681,37.5449585],[29.9541127,37.5449737],[29.9541604,37.5449809],[29.9542089,37.5449798],[29.9545529,37.5448309],[29.9547433,37.5449771],[29.9547848,37.5449928],[29.9548289,37.5450029],[29.9548745,37.5450073],[29.9549203,37.5450058],[29.9549637,37.5449989],[29.9550052,37.5449867],[29.9550438,37.5449696],[29.9550786,37.5449479],[29.9551141,37.5449162],[29.9551413,37.5448795],[29.9551589,37.5448395],[29.9551604,37.5448182],[29.9551664,37.5447974],[29.955182,37.5447703],[29.955205,37.5447468],[29.9552344,37.5447281],[29.9552684,37.5447154],[29.9553052,37.5447094],[29.9553428,37.5447102],[29.9554346,37.544798],[29.9554608,37.5448107],[29.9554904,37.5448173],[29.9555212,37.5448171],[29.9555507,37.5448102],[29.9555757,37.5447977],[29.9555957,37.5447803],[29.9556091,37.5447593],[29.955615,37.5447363],[29.955615,37.5447087],[29.9556076,37.5446818],[29.9555931,37.5446567],[29.9555721,37.5446347],[29.9555522,37.5446038],[29.9555402,37.5445704],[29.9555366,37.5445359],[29.9555391,37.5444935],[29.9555491,37.5444519],[29.9555665,37.5444119],[29.9555909,37.5443742],[29.9556201,37.5443628],[29.9556522,37.5443585],[29.9556845,37.5443617],[29.9557143,37.5443721],[29.9557373,37.5443873],[29.9557544,37.5444069],[29.9557643,37.5444293],[29.9557664,37.544453],[29.9557605,37.5444763],[29.9557639,37.5445011],[29.9557768,37.5445239],[29.9557979,37.5445425],[29.9558251,37.544555],[29.9558559,37.5445602],[29.9558873,37.5445576],[29.9560288,37.5445295],[29.9561723,37.5445082],[29.9563024,37.5444951],[29.9564333,37.5444876],[29.956499,37.5444882],[29.9565645,37.5444859],[29.9566656,37.5444767],[29.9567652,37.5444608],[29.9568629,37.5444383],[29.9569577,37.5444093],[29.9570492,37.544374],[29.9570919,37.5443522],[29.9571365,37.5443328],[29.957211,37.544307],[29.9572887,37.5442881],[29.9573686,37.5442762],[29.9574497,37.5442715],[29.9575309,37.5442741],[29.9576113,37.5442838],[29.9578319,37.5443049],[29.9580536,37.5443177],[29.9582758,37.5443221],[29.9585093,37.5443355],[29.9585854,37.544351],[29.9586633,37.5443585],[29.9587418,37.5443577],[29.9588247,37.544348],[29.958905,37.544329],[29.9589812,37.5443014],[29.9590028,37.5442893],[29.9590279,37.5442826],[29.9590544,37.544282],[29.95908,37.5442873],[29.9591026,37.5442982],[29.9591221,37.544316],[29.9591334,37.5443379],[29.9591352,37.5443615],[29.9591274,37.5443843],[29.9591076,37.544429],[29.9590825,37.5444721],[29.9590881,37.5445197],[29.9591018,37.5445662],[29.9591233,37.5446109],[29.9591522,37.5446528],[29.9591918,37.5446948],[29.9592388,37.5447316],[29.9592921,37.5447625],[29.9593507,37.5447868],[29.9596355,37.5448995],[29.9599247,37.5450048],[29.9602267,37.5451048],[29.9605331,37.5451963],[29.9608433,37.5452791],[29.961098,37.5453403],[29.9613546,37.545396],[29.9616131,37.5454461],[29.9621183,37.5455632],[29.9626203,37.5456885],[29.9630521,37.5458035],[29.9631977,37.5458381],[29.9633409,37.5458784],[29.9634813,37.5459246],[29.9636368,37.5459837],[29.9637877,37.5460499],[29.9639336,37.5461228],[29.9640739,37.5462024],[29.9642082,37.5462882],[29.9642718,37.5463495],[29.9643411,37.5464068],[29.9644159,37.5464596],[29.9644955,37.5465077],[29.9645796,37.5465508],[29.9646715,37.5465902],[29.9647671,37.5466235],[29.9648658,37.5466507],[29.9649669,37.5466714],[29.9650698,37.5466857],[29.9651737,37.5466933],[29.9652902,37.546696],[29.9654067,37.5466923],[29.9655225,37.5466825],[29.9656373,37.5466665],[29.9657504,37.5466444],[29.9660445,37.546591],[29.96634,37.5465432],[29.9664888,37.5465236],[29.9666369,37.5465009],[29.9668672,37.5464588],[29.967095,37.546409],[29.9673199,37.5463514],[29.9675415,37.5462863],[29.9677594,37.5462138],[29.967841,37.5461872],[29.9679255,37.5461674],[29.9680122,37.5461545],[29.9681,37.5461487],[29.9681882,37.54615],[29.9682757,37.5461585],[29.9683601,37.5461736],[29.9684421,37.5461954],[29.9685209,37.5462235],[29.9685958,37.5462578],[29.968666,37.5462978],[29.9687384,37.5463603],[29.9688172,37.5464177],[29.9689017,37.5464698],[29.9689914,37.546516],[29.9690858,37.5465562],[29.9691872,37.5465909],[29.969292,37.5466185],[29.9693995,37.5466389],[29.9695088,37.5466518],[29.969619,37.5466572],[29.9696742,37.5466545],[29.9697295,37.546655],[29.9697996,37.5466605],[29.9698688,37.5466713],[29.9699364,37.5466872],[29.9700017,37.5467082],[29.9700837,37.5467424],[29.9701603,37.5467837],[29.9702305,37.5468315],[29.9702935,37.5468853],[29.9703485,37.5469444],[29.9703947,37.5470081],[29.9704819,37.5471395],[29.9705605,37.5472742],[29.9706302,37.547412],[29.9706911,37.5475525],[29.9706728,37.547624],[29.9706657,37.5476968],[29.9706701,37.5477697],[29.9706857,37.5478417],[29.9707104,37.5479072],[29.9707444,37.54797],[29.9707873,37.5480293],[29.9708386,37.5480842],[29.9708976,37.5481341],[29.970965,37.5481779],[29.9710391,37.5482143],[29.9711185,37.5482427],[29.971202,37.5482626],[29.9712881,37.5482735],[29.9713752,37.5482755],[29.9714619,37.5482683],[29.9715467,37.5482521],[29.9716467,37.5482251],[29.9717427,37.5481902],[29.9718339,37.5481479],[29.9719191,37.5480984],[29.9719977,37.5480424],[29.9720687,37.5479803],[29.9721314,37.5479129],[29.9722918,37.5477299],[29.9724425,37.5475418],[29.9726024,37.5475548],[29.9727613,37.5475742],[29.9729187,37.5476001],[29.9730742,37.5476322],[29.973252,37.5476774],[29.9734261,37.5477309],[29.9735959,37.5477925],[29.9737608,37.5478619],[29.9740602,37.5479847],[29.9742096,37.5480466],[29.9743617,37.5481043],[29.9745556,37.5481705],[29.9747531,37.5482299],[29.9749536,37.5482823],[29.9751569,37.5483276],[29.9753675,37.5479512],[29.9754961,37.5479753],[29.9756227,37.5480056],[29.9757467,37.5480419],[29.9758677,37.5480841],[29.9759923,37.5481352],[29.9761125,37.5481926],[29.9762278,37.548256],[29.9763377,37.5483252],[29.9764417,37.5483999],[29.9767015,37.5485786],[29.976968,37.5487509],[29.977241,37.5489167],[29.9774601,37.5490581],[29.9776742,37.5492043],[29.9778833,37.5493549],[29.9780872,37.54951],[29.9784246,37.5497772],[29.9787533,37.5500513],[29.979073,37.5503319],[29.9793671,37.5505808],[29.9796667,37.5508258],[29.9799715,37.5510666],[29.9800251,37.5512756],[29.9800855,37.5514834],[29.9801541,37.5516937],[29.9802297,37.5519024],[29.9803124,37.5521095],[29.9803544,37.5522129],[29.980402,37.5523148],[29.9804763,37.552452],[29.9805607,37.5525855],[29.9806549,37.5527148],[29.9807586,37.5528395],[29.9808714,37.5529591],[29.9810302,37.5531351],[29.9811836,37.5533141],[29.981228,37.5533771],[29.9812774,37.5534379],[29.9813314,37.553496],[29.9814057,37.5535653],[29.9814867,37.5536297],[29.9815738,37.5536888],[29.9816666,37.5537423],[29.9817643,37.5537899],[29.9818665,37.5538312],[29.9819724,37.553866],[29.9821079,37.5539188],[29.9822382,37.5539791],[29.9823627,37.5540468],[29.9824749,37.5541012],[29.9825903,37.5541512],[29.9827087,37.5541967],[29.982853,37.5542471],[29.9829997,37.5542928],[29.9831486,37.5543338],[29.983203,37.5543131],[29.9832607,37.5542991],[29.9833204,37.5542921],[29.9833808,37.5542922],[29.9834404,37.5542996],[29.983498,37.5543139],[29.9835522,37.5543349],[29.9836053,37.5543643],[29.9836517,37.5544001],[29.9836903,37.5544414],[29.98372,37.554487],[29.9837273,37.5545121],[29.98374,37.5545358],[29.9837625,37.5545622],[29.9837915,37.5545841],[29.9838258,37.5546006],[29.9838637,37.5546109],[29.9839035,37.5546146],[29.9839434,37.5546115],[29.9839816,37.5546018],[29.9840163,37.5545858],[29.9840839,37.5545469],[29.9841443,37.5545012],[29.9841963,37.5544493],[29.9842149,37.5544196],[29.9842389,37.5543923],[29.9842769,37.5543618],[29.9843215,37.5543375],[29.9843711,37.5543204],[29.984424,37.5543111],[29.9844781,37.5543099],[29.9845315,37.5543168],[29.9845822,37.5543317],[29.9847727,37.5543579],[29.9849617,37.5543906],[29.9851486,37.5544297],[29.9853332,37.5544752],[29.985549,37.5545375],[29.9857604,37.5546085],[29.985967,37.554688],[29.9861681,37.5547759],[29.9863632,37.5548718],[29.9865505,37.5549713],[29.9867424,37.5550653],[29.9869385,37.5551536],[29.9871474,37.5552394],[29.9873603,37.5553189],[29.9875769,37.5553917],[29.9878866,37.5554878],[29.9882,37.5555757],[29.9883602,37.5556113],[29.988517,37.5556554],[29.988659,37.5557038],[29.9887968,37.5557591],[29.98893,37.5558212],[29.989058,37.5558898],[29.9891804,37.5559646],[29.9892966,37.5560453],[29.9894062,37.5561317],[29.9895268,37.5562382],[29.989639,37.5563504],[29.9897424,37.5564678],[29.9898366,37.5565899],[29.9899212,37.5567164],[29.9900997,37.5569879],[29.9901632,37.5570768],[29.9902218,37.5571678],[29.9902752,37.5572608],[29.9903406,37.5573922],[29.9903958,37.5575265],[29.9904407,37.5576633],[29.9904459,37.5577104],[29.9904574,37.5577567],[29.990475,37.5578019],[29.9905046,37.5578548],[29.9905425,37.5579042],[29.9905882,37.5579493],[29.9906408,37.5579894],[29.9906996,37.5580237],[29.9907634,37.5580517],[29.9908697,37.5581066],[29.9909694,37.5581688],[29.9910616,37.5582379],[29.9911456,37.5583133],[29.9912214,37.5583915],[29.9912903,37.5584736],[29.9913521,37.5585592],[29.9914064,37.5586479],[29.9914529,37.5587394],[29.9914916,37.5588331],[29.9915622,37.5590252],[29.9916222,37.5592196],[29.9916716,37.5594158],[29.9916934,37.5595143],[29.9917102,37.5596135],[29.9917241,37.5597383],[29.9917302,37.5598636],[29.9917283,37.5599889],[29.9917185,37.560114],[29.991712,37.5601765],[29.9917008,37.5602386],[29.9916792,37.5603192],[29.9916498,37.5603982],[29.9916128,37.5604752],[29.9915685,37.5605497],[29.9915397,37.5605841],[29.9915171,37.5606213],[29.9914997,37.5606648],[29.9914908,37.5607099],[29.9914906,37.5607556],[29.991499,37.5608008],[29.9915159,37.5608444],[29.9915409,37.5608855],[29.9915586,37.5609036],[29.9915734,37.5609232],[29.9915904,37.5609575],[29.9915983,37.5609938],[29.9915969,37.5610307],[29.9915863,37.5610665],[29.9915668,37.5611],[29.9915393,37.5611296],[29.9915048,37.5611543],[29.9914648,37.5611731],[29.9913746,37.5611995],[29.9912878,37.5612322],[29.991205,37.561271],[29.991127,37.5613155],[29.9910544,37.5613655],[29.9909799,37.5614275],[29.9909138,37.5614951],[29.9908566,37.5615677],[29.990809,37.5616446],[29.9907714,37.5617248],[29.9907301,37.5618306],[29.9906973,37.5619383],[29.990673,37.5620474],[29.9906625,37.5621022],[29.9906574,37.5621575],[29.9906597,37.5622384],[29.9906736,37.5623185],[29.9906989,37.5623969],[29.9907352,37.5624726],[29.9907821,37.5625444],[29.9908424,37.5626489],[29.9908951,37.5627559],[29.9909401,37.5628651],[29.9909771,37.5629762],[29.9909943,37.563032],[29.9910061,37.5630887],[29.9910136,37.5631721],[29.9910097,37.5632556],[29.9909942,37.5633382],[29.9909674,37.5634191],[29.9909297,37.5634971],[29.9908814,37.5635714],[29.990785,37.5637037],[29.9906785,37.5638311],[29.9906236,37.563894],[29.9905622,37.563953],[29.990493,37.564009],[29.9904179,37.5640599],[29.9903375,37.5641055],[29.9902524,37.5641454],[29.9904107,37.5642597],[29.9903519,37.5643651],[29.9902839,37.564467],[29.9902206,37.5645488],[29.9901514,37.5646275],[29.9900765,37.5647029],[29.9899963,37.5647747],[29.9898977,37.5648718],[29.9898503,37.5649216],[29.9898058,37.564973],[29.9897326,37.5650702],[29.9896697,37.5651717],[29.9896174,37.565277],[29.9895551,37.5653798],[29.9894834,37.5654787],[29.9894028,37.5655731],[29.9893159,37.5656871],[29.9892372,37.5658048],[29.98913,37.5659576],[29.9890266,37.566112],[29.9889369,37.5662525],[29.9888962,37.5663244],[29.9888503,37.5663943],[29.9887864,37.5664776],[29.9887149,37.5665571],[29.9886364,37.5666322],[29.9885512,37.5667026],[29.9884457,37.5668002],[29.9883329,37.5668927],[29.9882133,37.5669795],[29.9880718,37.5670695],[29.9879954,37.5671084],[29.9879229,37.5671517],[29.9878357,37.5672135],[29.9877563,37.5672817],[29.9876855,37.5673556],[29.9876238,37.5674344],[29.9875484,37.5675203],[29.9874668,37.5676026],[29.9873794,37.5676811],[29.987344,37.5677022],[29.9873128,37.5677271],[29.9872866,37.5677555],[29.987263,37.567792],[29.9872476,37.5678312],[29.987241,37.5678719],[29.9872349,37.567955],[29.9872389,37.5680382],[29.9872329,37.568121],[29.987217,37.5682029],[29.9871913,37.5682832],[29.9871591,37.5684031],[29.9871488,37.5684639],[29.9871337,37.568524],[29.9871019,37.5686122],[29.9870595,37.5686975],[29.9870305,37.5687372],[29.9870069,37.5687791],[29.9869862,37.5688324],[29.9869743,37.5688874],[29.9869716,37.5689431],[29.9869781,37.5689986],[29.9869743,37.5690595],[29.9869592,37.5691193],[29.9869332,37.5691767],[29.9868625,37.5692004],[29.9867962,37.5692312],[29.9867354,37.5692683],[29.9866811,37.5693114],[29.9866341,37.5693595],[29.9865941,37.5694139],[29.9865635,37.569472],[29.9865429,37.5695328],[29.986516,37.5695986],[29.9864797,37.5696615],[29.9864344,37.5697206],[29.9863806,37.5697751],[29.9863196,37.5698241],[29.9862519,37.5698671],[29.9861783,37.5699036],[29.9860998,37.5699331],[29.9860176,37.5699553],[29.9859327,37.5699697],[29.9857168,37.5700187],[29.985498,37.5700592],[29.985277,37.5700911],[29.9850543,37.5701142],[29.9848339,37.5701284],[29.9846129,37.5701341],[29.9843917,37.5701311],[29.9841711,37.5701196],[29.9839514,37.5700996],[29.9837332,37.5700711],[29.983517,37.5700342],[29.9833034,37.569989],[29.9830928,37.5699355],[29.9828857,37.569874],[29.9826873,37.5698063],[29.9824931,37.5697314],[29.9823036,37.5696493],[29.9821191,37.5695602],[29.9819402,37.5694644],[29.9817671,37.569362],[29.9816002,37.5692532],[29.98144,37.5691384],[29.9812186,37.568969],[29.9810055,37.5687929],[29.9808012,37.5686105],[29.9807452,37.5685419],[29.9806798,37.5684788],[29.9806058,37.568422],[29.9805304,37.5683755],[29.9804491,37.5683355],[29.980363,37.5683025],[29.9802731,37.5682769],[29.9801802,37.5682589],[29.9800855,37.5682487],[29.9799775,37.5682454],[29.9798696,37.5682509],[29.979763,37.5682651],[29.9796588,37.5682879],[29.9795581,37.5683191],[29.9794619,37.5683582],[29.9787712,37.568794],[29.9786729,37.5688796],[29.9785682,37.5689601],[29.9784573,37.5690354],[29.9783408,37.5691051],[29.9782191,37.5691689],[29.9780926,37.5692266],[29.9779502,37.5692823],[29.9778033,37.5693302],[29.9776527,37.5693702],[29.9774076,37.5694428],[29.9771667,37.5695238],[29.9769304,37.5696131],[29.9768135,37.5696598],[29.9766992,37.5697103],[29.9765478,37.569785],[29.976402,37.5698662],[29.9763302,37.5699081],[29.976262,37.5699537],[29.9761784,37.5700189],[29.9761022,37.5700896],[29.9760664,37.5701265],[29.976034,37.5701653],[29.9759952,37.5702219],[29.9759637,37.5702813],[29.9759398,37.570343],[29.9759239,37.5704062],[29.9759221,37.5704384],[29.975916,37.5704703],[29.9758979,37.5705186],[29.9758699,37.5705638],[29.9758328,37.5706047],[29.9757875,37.57064],[29.9757355,37.5706689],[29.9756781,37.5706905],[29.9756169,37.5707042],[29.9752975,37.570774],[29.9749772,37.5708413],[29.9748477,37.5707905],[29.9747143,37.5707466],[29.9745776,37.5707096],[29.9744381,37.5706797],[29.9742949,37.5706569],[29.9741501,37.5706417],[29.9740044,37.570634],[29.9738583,37.5706339],[29.9737126,37.5706415],[29.9734346,37.5706605],[29.9731573,37.5706857],[29.9728811,37.5707169],[29.9726999,37.5707285],[29.9725194,37.5707463],[29.9723401,37.57077],[29.9721622,37.5707998],[29.9719633,37.5708407],[29.971767,37.5708892],[29.9715739,37.570945],[29.9713844,37.5710082],[29.971223,37.5710573],[29.9710599,37.5711028],[29.9709783,37.5710972],[29.9708965,37.5710997],[29.9708158,37.5711102],[29.9707484,37.5711255],[29.9706834,37.5711463],[29.9706216,37.5711725],[29.9705636,37.5712038],[29.9705026,37.5712455],[29.9704484,37.5712929],[29.9704019,37.5713451],[29.9703638,37.5714015],[29.9703075,37.5714949],[29.970258,37.5715908],[29.9702155,37.5716887],[29.9701801,37.5717884],[29.9701492,37.5719056],[29.9701367,37.5719647],[29.9701291,37.5720244],[29.9701265,37.5720994],[29.9701314,37.5721743],[29.9701439,37.5722487],[29.970164,37.572322],[29.9701983,37.5724137],[29.9702423,37.5725028],[29.9702955,37.5725886],[29.9703576,37.5726706],[29.9704282,37.5727482],[29.9704897,37.5728273],[29.9705439,37.5729097],[29.9705906,37.572995],[29.9706294,37.5730827],[29.9706602,37.5731723],[29.9707506,37.5734263],[29.9707953,37.5735535],[29.9708453,37.5736794],[29.9709032,37.5738097],[29.9709667,37.5739383],[29.9709991,37.5740025],[29.9710357,37.5740652],[29.9710975,37.5741552],[29.9711679,37.5742412],[29.9712465,37.5743226],[29.9712873,37.5743624],[29.9713328,37.5743989],[29.9714,37.5744419],[29.9714736,37.5744777],[29.9715525,37.5745057],[29.9716352,37.5745254],[29.9717319,37.5745573],[29.9718234,37.5745975],[29.9719088,37.5746455],[29.9720761,37.5747341],[29.9721607,37.5747773],[29.9722474,37.5748177],[29.972363,37.5748662],[29.9724816,37.57491],[29.9725432,37.5749275],[29.9726028,37.574949],[29.9726789,37.5749839],[29.9727496,37.5750254],[29.972814,37.5750728],[29.9728862,37.575116],[29.9729637,37.5751531],[29.9730456,37.5751836],[29.973131,37.5752073],[29.973219,37.5752238],[29.97333,37.5752499],[29.9734385,37.5752817],[29.9735443,37.5753189],[29.9735964,37.5753389],[29.9736468,37.5753614],[29.9737173,37.5753987],[29.9737833,37.5754408],[29.9738443,37.5754875],[29.9738996,37.5755384],[29.9739336,37.5755838],[29.9739739,37.5756259],[29.97402,37.5756641],[29.9740713,37.5756978],[29.9741413,37.5757329],[29.9742169,37.5757598],[29.9742966,37.5757779],[29.9743787,37.5757869],[29.9744616,37.5757866],[29.9746132,37.5757785],[29.9747635,37.5757609],[29.9749115,37.5757339],[29.9749815,37.5757147],[29.975054,37.5757027],[29.9751279,37.5756981],[29.9752019,37.575701],[29.9752734,37.5757111],[29.9753429,37.5757282],[29.9754091,37.575752],[29.9754634,37.5758025],[29.9755228,37.5758494],[29.9755869,37.5758921],[29.9756552,37.5759306],[29.9757363,37.5759682],[29.9758214,37.5759998],[29.9759099,37.576025],[29.9760009,37.5760436],[29.9760937,37.5760555],[29.9762064,37.5760632],[29.9763196,37.5760637],[29.9764325,37.5760569],[29.9765443,37.576043],[29.9766543,37.576022],[29.9769569,37.575958],[29.9770583,37.5759379],[29.9771582,37.5759137],[29.9772564,37.5758854],[29.9773645,37.5758487],[29.9774697,37.575807],[29.9775716,37.5757605],[29.9777379,37.5756911],[29.9779081,37.5756278],[29.9780819,37.5755708],[29.9782746,37.5754983],[29.9784621,37.5754176],[29.9785541,37.5753748],[29.9786438,37.575329],[29.9787559,37.5752656],[29.9788635,37.5751975],[29.9789663,37.5751249],[29.9791003,37.5750402],[29.9792404,37.574962],[29.9793861,37.5748905],[29.9793563,37.5748549],[29.979334,37.574816],[29.9793199,37.5747747],[29.9793144,37.5747322],[29.9793176,37.5746886],[29.9793298,37.5746461],[29.9793506,37.5746056],[29.9793794,37.5745685],[29.9794232,37.5745221],[29.9794728,37.5744796],[29.9795277,37.5744414],[29.9795873,37.574408],[29.9796511,37.5743802],[29.9797184,37.5743584],[29.9797885,37.5743427],[29.9798604,37.5743335],[29.9799331,37.5743308],[29.9800057,37.5743346],[29.9802395,37.5743515],[29.9803183,37.5743501],[29.9803965,37.574358],[29.9804724,37.574375],[29.9805361,37.5743974],[29.9805956,37.5744261],[29.9806498,37.5744609],[29.9806977,37.5745009],[29.9807386,37.5745456],[29.980807,37.5746112],[29.9808817,37.5746723],[29.9809621,37.5747287],[29.9810477,37.57478],[29.9812004,37.5748657],[29.9813572,37.5749467],[29.9814386,37.5749833],[29.9815178,37.5750229],[29.9816214,37.575081],[29.9817202,37.5751441],[29.9818139,37.575212],[29.9818562,37.5752495],[29.981902,37.5752843],[29.9819774,37.5753316],[29.9820591,37.5753716],[29.9821037,37.5753859],[29.9821461,37.5754039],[29.9821986,37.5754335],[29.9822453,37.5754688],[29.982285,37.575509],[29.9823171,37.5755533],[29.982393,37.57565],[29.9824749,37.5757436],[29.9825175,37.5757895],[29.9825625,37.5758339],[29.9826332,37.5758963],[29.9827089,37.575955],[29.9827891,37.5760097],[29.9828324,37.5760339],[29.9828736,37.5760603],[29.9829361,37.5761079],[29.9829917,37.5761606],[29.9830398,37.5762178],[29.9830798,37.5762787],[29.9831113,37.5763427],[29.9831338,37.576409],[29.9831472,37.5764769],[29.9831744,37.5765739],[29.9832106,37.5766691],[29.9832556,37.5767619],[29.9833093,37.5768517],[29.9833712,37.5769382],[29.9834923,37.5770924],[29.9836234,37.5772413],[29.9836755,37.5772857],[29.9837226,37.5773336],[29.9837641,37.5773846],[29.9838069,37.5774502],[29.9838407,37.577519],[29.983865,37.5775902],[29.9838796,37.5776632],[29.9838844,37.5777369],[29.9838793,37.5778106],[29.9838644,37.5778835],[29.9838397,37.5779547],[29.9838057,37.5780234],[29.9836796,37.578266],[29.9835455,37.5785059],[29.98342,37.5786941],[29.9833047,37.5788864],[29.9831998,37.5790824],[29.9831057,37.5792818],[29.9830232,37.5794819],[29.9829514,37.5796846],[29.982976,37.5797437],[29.9829938,37.5798043],[29.9830049,37.5798659],[29.9830091,37.579928],[29.983005,37.5800023],[29.9829911,37.580076],[29.9829675,37.580148],[29.9829466,37.5802384],[29.9829349,37.5803299],[29.9829325,37.5804218],[29.982934,37.5804678],[29.9829394,37.5805136],[29.9829575,37.5805924],[29.9829867,37.5806692],[29.9830267,37.5807428],[29.9830768,37.5808124],[29.9831365,37.5808771],[29.9832521,37.5810064],[29.9832952,37.5810469],[29.9833328,37.5810908],[29.9833645,37.5811375],[29.9833954,37.5811994],[29.9834159,37.581264],[29.9834256,37.5813302],[29.9834244,37.5813968],[29.9834123,37.5814627],[29.9833895,37.5815269],[29.9833564,37.5815881],[29.98333,37.5816571],[29.9833137,37.581728],[29.9833078,37.5817999],[29.9833122,37.581872],[29.9833269,37.5819431],[29.9833461,37.5820763],[29.9833542,37.5822103],[29.9833515,37.5823444],[29.9833378,37.582478],[29.9833132,37.5826107],[29.9832778,37.5827419],[29.9832317,37.5828709],[29.9830673,37.5833157],[29.9828948,37.5837586],[29.9828085,37.58398],[29.9827141,37.5841994],[29.9826054,37.5844286],[29.9824877,37.584655],[29.9823612,37.5848784],[29.9822967,37.5849896],[29.9822259,37.5850985],[29.9821288,37.5852307],[29.9820223,37.5853584],[29.9819069,37.585481],[29.9817828,37.5855983],[29.9816506,37.5857098],[29.9815105,37.5858151],[29.9813632,37.585914],[29.981209,37.5860061],[29.9810484,37.5860911],[29.9805943,37.5863236],[29.9804368,37.5863932],[29.9802832,37.586468],[29.9801338,37.5865481],[29.9799687,37.5866455],[29.97981,37.5867493],[29.9796578,37.5868592],[29.9795126,37.5869748],[29.9793748,37.587096],[29.9792447,37.5872223],[29.9791226,37.5873536],[29.9789992,37.5874795],[29.9788678,37.5876002],[29.9787287,37.5877155],[29.9785825,37.5878249],[29.9784293,37.5879282],[29.9782696,37.5880252],[29.9781074,37.5881139],[29.9779397,37.5881959],[29.977767,37.5882712],[29.9775898,37.5883395],[29.9774085,37.5884007],[29.9772236,37.5884546],[29.9769226,37.5885349],[29.9766183,37.588607],[29.9763111,37.5886708],[29.9760013,37.5887263],[29.9758447,37.5887472],[29.9756893,37.5887734],[29.9754897,37.5888153],[29.9752932,37.5888658],[29.9751007,37.588925],[29.9749125,37.5889925],[29.9747294,37.5890682],[29.9745518,37.5891518],[29.9743804,37.5892431],[29.9737078,37.5894856],[29.9730318,37.5897222],[29.9723527,37.589953],[29.9715515,37.5902164],[29.971286,37.5903073],[29.9710175,37.5903924],[29.970746,37.5904716],[29.9704092,37.5905606],[29.9700687,37.5906404],[29.969725,37.5907111],[29.9693784,37.5907724],[29.9692045,37.590801],[29.9690294,37.5908244],[29.9687997,37.5908468],[29.9685688,37.5908602],[29.9683373,37.5908644],[29.9681059,37.5908596],[29.967875,37.5908456],[29.9676454,37.5908225],[29.9674174,37.5907904],[29.9671839,37.5907506],[29.9669524,37.5907041],[29.9667231,37.590651],[29.9664965,37.5905913],[29.9662727,37.5905251],[29.9660522,37.5904524],[29.9658418,37.5903927],[29.965628,37.5903411],[29.9654114,37.5902977],[29.9651923,37.5902626],[29.9649714,37.590236],[29.9647491,37.5902177],[29.964526,37.590208],[29.9642761,37.5901889],[29.9640276,37.590161],[29.9637809,37.5901244],[29.9635364,37.5900793],[29.9632947,37.5900256],[29.9631749,37.5899959],[29.9630561,37.5899636],[29.9628555,37.5899027],[29.9626585,37.5898347],[29.9624655,37.5897598],[29.962277,37.5896781],[29.9620933,37.5895898],[29.9619148,37.589495],[29.9617419,37.589394],[29.9613677,37.5891842],[29.9609867,37.5889822],[29.9605991,37.5887882],[29.9602052,37.5886024],[29.9598053,37.5884248],[29.9581557,37.5876873],[29.9570399,37.587309],[29.9568804,37.5872466],[29.9567251,37.5871779],[29.9565744,37.587103],[29.9564288,37.587022],[29.9562886,37.5869353],[29.9561542,37.586843],[29.9560322,37.5867504],[29.9559701,37.5867049],[29.9559161,37.5866533],[29.9558732,37.5865995],[29.9558392,37.5865419],[29.9558144,37.5864814],[29.9557994,37.5864189],[29.9557931,37.5863537],[29.9557961,37.5862882],[29.9557919,37.5862626],[29.9557813,37.5862383],[29.9557648,37.5862163],[29.955743,37.5861974],[29.9557169,37.5861824],[29.9556874,37.5861719],[29.9553401,37.586072],[29.9553085,37.5860639],[29.9552813,37.5860487],[29.955261,37.5860278],[29.9552493,37.5860029],[29.9552476,37.5859763],[29.9552391,37.5859499],[29.9552241,37.5859253],[29.9552033,37.5859035],[29.9549948,37.5857616],[29.9550042,37.5857402],[29.9550072,37.5857177],[29.9550035,37.5856952],[29.9549926,37.5856729],[29.9549753,37.5856534],[29.9549525,37.5856378],[29.9549218,37.5856155],[29.9548953,37.58559],[29.9548734,37.5855618],[29.954852,37.5855205],[29.9548405,37.5854768],[29.9548215,37.5854347],[29.9547951,37.5853951],[29.9547621,37.5853589],[29.9546032,37.5851814],[29.954606,37.5851499],[29.9546024,37.5851184],[29.9545924,37.5850878],[29.954575,37.5850571],[29.9545512,37.5850292],[29.9545216,37.5850051],[29.9544872,37.5849853],[29.9544279,37.5849595],[29.954373,37.5849283],[29.9543232,37.5848921],[29.9542793,37.5848514],[29.9542379,37.5848012],[29.9542054,37.5847471],[29.9541824,37.5846899],[29.9541693,37.5846309],[29.9541426,37.5845346],[29.9541095,37.5844395],[29.9540951,37.5843914],[29.9540701,37.584346],[29.9540363,37.5843059],[29.9539942,37.5842711],[29.9539451,37.5842426],[29.9538905,37.5842213],[29.953832,37.5842079],[29.9537324,37.5842063],[29.9536337,37.584196],[29.953537,37.5841771],[29.9534605,37.5841554],[29.9533867,37.5841284],[29.9533164,37.5840962],[29.95325,37.5840591],[29.9530781,37.5839411],[29.952913,37.5838171],[29.9527552,37.5836874],[29.9526049,37.5835522],[29.9524554,37.5834044],[29.9523149,37.5832512],[29.9521838,37.5830929],[29.9520622,37.5829299],[29.9519505,37.5827625],[29.9512229,37.5819218],[29.9512043,37.5818781],[29.9511789,37.5818367],[29.9511471,37.581798],[29.9511109,37.5817639],[29.9510696,37.5817336],[29.951024,37.5817075],[29.9509748,37.5816859],[29.9507877,37.5816017],[29.9506026,37.5815148],[29.9504358,37.5814292],[29.9502733,37.5813386],[29.9501152,37.5812432],[29.9498724,37.5810881],[29.9497529,37.5810087],[29.9496364,37.5809265],[29.9495102,37.5808319],[29.9493879,37.5807341],[29.9493269,37.580685],[29.9492696,37.5806332],[29.9491985,37.5805593],[29.9491349,37.5804813],[29.9490792,37.5803996],[29.9490317,37.5803147],[29.9489927,37.5802272],[29.9485119,37.5795709],[29.9484018,37.5794066],[29.9482953,37.5792409],[29.9481706,37.5790378],[29.9480512,37.5788327],[29.9479332,37.5786182],[29.9478788,37.5785095],[29.9478212,37.5784017],[29.9477398,37.5782605],[29.9476528,37.5781214],[29.9476039,37.5780541],[29.9475604,37.5779846],[29.9475114,37.5778904],[29.9474722,37.5777933],[29.9474429,37.5776941],[29.9474237,37.5775934],[29.9474148,37.5774918],[29.9474162,37.5773899],[29.9474091,37.5772383],[29.9473912,37.5770872],[29.9473624,37.5769371],[29.9473229,37.5767886],[29.9472729,37.5766421],[29.9472123,37.5764982],[29.9471617,37.5763516],[29.9471212,37.576203],[29.9470909,37.5760529],[29.9470709,37.5759017],[29.9470613,37.5757499],[29.9470621,37.5755979],[29.9469487,37.5754569],[29.9468414,37.575313],[29.9467403,37.5751664],[29.9466272,37.5749869],[29.9465235,37.574804],[29.9464291,37.5746179],[29.9463556,37.574453],[29.9462903,37.5742858],[29.9462335,37.5741168],[29.9461851,37.5739461],[29.9461255,37.5737184],[29.9460714,37.5734899],[29.9460426,37.5733758],[29.9460228,37.5732606],[29.9460122,37.5731461],[29.9460106,37.5730314],[29.9460178,37.5729168],[29.946034,37.5728028],[29.946059,37.5726898],[29.9461145,37.5724694],[29.9461786,37.5722506],[29.9462514,37.5720334],[29.9462936,37.5719262],[29.9463326,37.5718182],[29.9463869,37.5716487],[29.9464335,37.5714778],[29.9464721,37.5713057],[29.9465029,37.5711326],[29.9465434,37.5711299],[29.9465825,37.5711212],[29.9466188,37.5711069],[29.9466511,37.5710874],[29.9466761,37.5710656],[29.9466959,37.5710407],[29.9467101,37.5710135],[29.9467181,37.5709848],[29.9467498,37.5708889],[29.9467713,37.5708422],[29.9467885,37.5707945],[29.9468057,37.5707262],[29.9468145,37.5706569],[29.9468164,37.5706221],[29.9468147,37.5705873],[29.9468045,37.570532],[29.9467852,37.5704783],[29.9467573,37.570427],[29.9467211,37.5703791],[29.9466772,37.5703353],[29.9465794,37.5702965],[29.9464874,37.5702495],[29.9464023,37.570195],[29.9463371,37.570144],[29.9462779,37.5700886],[29.9462253,37.5700292],[29.9461088,37.5699067],[29.9459853,37.5697887],[29.9458551,37.5696752],[29.9458125,37.5696866],[29.9457679,37.5696914],[29.945723,37.5696893],[29.9456795,37.5696805],[29.9456395,37.5696657],[29.9456038,37.5696453],[29.9455735,37.56962],[29.9455419,37.5695132],[29.9454989,37.5694089],[29.9454448,37.569308],[29.9453989,37.5692375],[29.9453477,37.5691693],[29.9452912,37.5691039],[29.9452304,37.5690213],[29.945178,37.5689352],[29.9451528,37.5688917],[29.9451343,37.5688461],[29.9451229,37.5687994],[29.9451186,37.5687519],[29.9451216,37.5687043],[29.9451316,37.5686574],[29.9451385,37.5686023],[29.94514,37.5685469],[29.9451363,37.5684916],[29.9451268,37.5684319],[29.9451115,37.568373],[29.9450907,37.5683151],[29.9450672,37.5682276],[29.9450529,37.5681389],[29.9450477,37.5680495]],[[29.9801832,37.5647774],[29.9801882,37.5648459],[29.9802036,37.5649135],[29.9802292,37.5649791],[29.9805294,37.5652446],[29.980652,37.5653346],[29.9807795,37.5654202],[29.9809116,37.5655013],[29.9810165,37.5655607],[29.981124,37.5656172],[29.9813334,37.5657363],[29.9816016,37.5658963],[29.9816919,37.5659084],[29.9817806,37.5659263],[29.9818672,37.56595],[29.981951,37.5659792],[29.9820223,37.5660094],[29.9820907,37.5660437],[29.982236,37.5661],[29.9823862,37.5661477],[29.9824787,37.5661721],[29.9825729,37.5661922],[29.9826685,37.5662077],[29.9827071,37.5662127],[29.9827462,37.566211],[29.9827839,37.5662026],[29.9828184,37.566188],[29.9828482,37.5661679],[29.9828733,37.5661411],[29.9828899,37.5661104],[29.9828971,37.5660775],[29.9828997,37.5660194],[29.9828968,37.5659614],[29.9828868,37.5658951],[29.9828834,37.5658285],[29.9828867,37.5657605],[29.9828968,37.5656929],[29.9828993,37.5656143],[29.9829105,37.5655361],[29.9829215,37.5654892],[29.9829356,37.5654428],[29.9829487,37.565348],[29.9829509,37.5652983],[29.9829498,37.5652486],[29.9829478,37.5652222],[29.9829533,37.5651961],[29.9829658,37.5651715],[29.9829835,37.5651511],[29.982996,37.5651284],[29.9830031,37.5651043],[29.9830043,37.565079],[29.9829994,37.565054],[29.9829886,37.5650301],[29.9827489,37.5647094],[29.9827203,37.5646923],[29.9826876,37.564681],[29.9826524,37.5646759],[29.9826166,37.5646773],[29.9825823,37.5646853],[29.9825511,37.5646993],[29.9824878,37.5646281],[29.9824179,37.5645608],[29.9823419,37.5644978],[29.9822551,37.5644361],[29.9821634,37.564379],[29.9820673,37.5643267],[29.9819671,37.5642794],[29.9818867,37.5642462],[29.9818022,37.5642202],[29.9817147,37.5642016],[29.9816251,37.5641906],[29.9815363,37.5641874],[29.9814476,37.5641917],[29.9812704,37.5641853],[29.9810958,37.5641715],[29.9809224,37.5641504],[29.9807507,37.564122],[29.9807053,37.5641603],[29.9806655,37.5642023],[29.980629,37.5642516],[29.980584,37.5642962],[29.9805314,37.5643353],[29.9804724,37.5643681],[29.9804137,37.5643921],[29.9803603,37.5644229],[29.9803136,37.5644598],[29.9802746,37.5645021],[29.9802525,37.5645341],[29.9802348,37.5645679],[29.9802061,37.5646372],[29.9801888,37.5647088],[29.9801832,37.5647774]]]}},{"type":"Feature","properties":{"id":"kilimli-glacial","name":"Kilimli Gölü","source":"OpenStreetMap","source_url":"https://www.openstreetmap.org/copyright","classification_source":"https://ogmmateryal.eba.gov.tr/kitap/mebi-konu-ozetleri/tyt-cografya/files/basic-html/page81.html","classification_note":"MEB sirk gölü · Uludağ"},"geometry":{"type":"Polygon","coordinates":[[[29.2218742,40.0778722],[29.2216854,40.0778591],[29.2215652,40.0778853],[29.2214279,40.0779379],[29.221076,40.0779707],[29.2209644,40.0779313],[29.2207412,40.0778656],[29.2206296,40.0778853],[29.2205438,40.0779379],[29.2205438,40.0780364],[29.2205009,40.0780889],[29.2202949,40.0780889],[29.2202091,40.0781349],[29.2202091,40.0782137],[29.2203464,40.0785289],[29.2203807,40.0787654],[29.2205181,40.0787916],[29.2206725,40.0790018],[29.2207412,40.0790806],[29.2210502,40.0791331],[29.2211618,40.0791988],[29.2218313,40.0792382],[29.2222862,40.0792185],[29.2223205,40.0791988],[29.2223033,40.0791397],[29.222063,40.0789427],[29.22196,40.0787457],[29.2218913,40.0785486],[29.221857,40.0783188],[29.2219085,40.078148],[29.2219686,40.0780035],[29.2219772,40.0779576],[29.2219686,40.077905],[29.2218742,40.0778722]]]}},{"type":"Feature","properties":{"id":"aynali-glacial","name":"Aynalı Göl","source":"OpenStreetMap","source_url":"https://www.openstreetmap.org/copyright","classification_source":"https://ogmmateryal.eba.gov.tr/kitap/mebi-konu-ozetleri/tyt-cografya/files/basic-html/page81.html","classification_note":"MEB sirk gölü · Uludağ"},"geometry":{"type":"Polygon","coordinates":[[[29.2356929,40.0701418],[29.2361049,40.0704439],[29.2362937,40.0704702],[29.2364053,40.0706673],[29.2364053,40.0707986],[29.2364482,40.0710876],[29.2363796,40.0712453],[29.2362766,40.0713635],[29.236062,40.0713766],[29.2360019,40.0713241],[29.2359504,40.0712124],[29.2357959,40.0711664],[29.2357444,40.0712518],[29.2357787,40.0714226],[29.2358989,40.071554],[29.2357616,40.0714883],[29.2355213,40.0713438],[29.2346458,40.0710614],[29.2341308,40.070838],[29.2339591,40.0706541],[29.2339162,40.0705096],[29.2339162,40.0703126],[29.2340278,40.0701812],[29.2341995,40.0700761],[29.2344055,40.0700104],[29.2347144,40.0699842],[29.2353324,40.0701287],[29.2356929,40.0701418]]]}},{"type":"Feature","properties":{"id":"deligol-glacial","name":"Deligöl","source":"OpenStreetMap","source_url":"https://www.openstreetmap.org/copyright","classification_source":"https://ogmmateryal.eba.gov.tr/kitap/mebi-konu-ozetleri/tyt-cografya/files/basic-html/page81.html","classification_note":"MEB sirk gölü · Kaçkar Dağları"},"geometry":{"type":"Polygon","coordinates":[[[40.9241653,40.6963197],[40.9239935,40.6961236],[40.9235773,40.6961472],[40.923335,40.6961646],[40.9231546,40.6961099],[40.9229652,40.6960487],[40.9226251,40.6960917],[40.9222882,40.6961008],[40.9217347,40.6962102],[40.9214098,40.6963745],[40.9212053,40.6966025],[40.9211571,40.6967941],[40.9213212,40.6971172],[40.9213857,40.6972685],[40.9217588,40.6973962],[40.9220716,40.697451],[40.9225048,40.6974053],[40.9229861,40.6973232],[40.9231666,40.6973689],[40.9234915,40.6972594],[40.9237682,40.6970313],[40.9240089,40.6968762],[40.924045,40.6965752],[40.9241653,40.6963197]]]}}]}
