{"type":"FeatureCollection","features":[{"type":"Feature","properties":{"id":"arpacay","name":"Arpaçay","source":"OpenStreetMap"},"geometry":{"type":"MultiLineString","coordinates":[[[43.65341,41.06777],[43.67681,41.05805],[43.74842,41.05638],[43.77479,41.05285],[43.80338,41.04741],[43.8174,41.03759],[43.81098,41.02297],[43.79166,41.01626],[43.77659,41.01058],[43.77548,40.99855],[43.78796,40.98548],[43.79501,40.97703],[43.79804,40.96301],[43.79022,40.95138],[43.78242,40.94055],[43.77515,40.93519],[43.7724,40.92785],[43.77317,40.92031],[43.76664,40.91756],[43.76246,40.91444],[43.76195,40.90801],[43.75446,40.90476],[43.75282,40.89877],[43.74975,40.89591]],[[43.74392,40.89322],[43.7388,40.88024],[43.7423,40.87119],[43.74847,40.85912],[43.75749,40.84073],[43.76005,40.82701],[43.77243,40.81936],[43.78964,40.81005],[43.80576,40.79793],[43.81218,40.78055],[43.80367,40.76431],[43.79076,40.74699],[43.77628,40.72413],[43.76601,40.70382],[43.75966,40.69209],[43.75262,40.68805],[43.75249,40.68361],[43.747,40.67543],[43.74238,40.67542],[43.74353,40.67101],[43.73914,40.66729],[43.73538,40.66268],[43.72921,40.66453],[43.72272,40.65851],[43.71971,40.65468],[43.71929,40.64914],[43.72102,40.64138],[43.71755,40.63601],[43.71062,40.62863],[43.70706,40.61929],[43.68723,40.5922],[43.66935,40.571],[43.66017,40.56448],[43.6434,40.56174],[43.6325,40.52904],[43.5978,40.51054],[43.5586,40.48319],[43.56602,40.4597],[43.61182,40.43032],[43.59919,40.37168],[43.63348,40.29543],[43.68383,40.24087],[43.68543,40.20016],[43.6879,40.16023],[43.64874,40.13124]]]}}]}
