{"type":"FeatureCollection","features":[{"type":"Feature","properties":{"id":"ilgin","name":"Ilgın (Çavuşçu) Gölü","source":"OpenStreetMap"},"geometry":{"type":"Polygon","coordinates":[[[31.85272,38.35934],[31.85522,38.3548],[31.85326,38.34666],[31.856,38.3395],[31.85652,38.33406],[31.85928,38.33076],[31.86212,38.32449],[31.86712,38.32282],[31.87331,38.31695],[31.87977,38.3186],[31.88871,38.31908],[31.89304,38.32025],[31.89273,38.32351],[31.896,38.32994],[31.8964,38.33458],[31.89314,38.34005],[31.89161,38.3449],[31.89336,38.35078],[31.89414,38.35905],[31.89217,38.36758],[31.89408,38.37507],[31.89214,38.38178],[31.88658,38.38124],[31.87841,38.37596],[31.87116,38.37132],[31.85612,38.36242],[31.85272,38.35934]]]}},{"type":"Feature","properties":{"id":"aktas-lake","name":"Aktaş Gölü","source":"OpenStreetMap"},"geometry":{"type":"Polygon","coordinates":[[[43.16664,41.19305],[43.17762,41.18762],[43.18498,41.18819],[43.19437,41.18821],[43.20581,41.18795],[43.21187,41.19028],[43.21896,41.19343],[43.2362,41.19344],[43.24409,41.19672],[43.25183,41.20365],[43.24986,41.20637],[43.25292,41.21045],[43.25183,41.21722],[43.25478,41.22766],[43.2526,41.23366],[43.24844,41.23504],[43.24256,41.23543],[43.23631,41.23591],[43.22598,41.23536],[43.21502,41.23411],[43.202,41.23246],[43.19503,41.2304],[43.19171,41.22204],[43.19458,41.21545],[43.19337,41.20688],[43.18018,41.20005],[43.16664,41.19305]]]}},{"type":"Feature","properties":{"id":"nar-lake","name":"Nar Gölü","source":"OpenStreetMap"},"geometry":{"type":"Polygon","coordinates":[[[34.45176,38.34],[34.45185,38.3388],[34.45183,38.33814],[34.4522,38.33748],[34.45259,38.33722],[34.45419,38.33726],[34.45481,38.33753],[34.45563,38.33793],[34.45627,38.33792],[34.45815,38.3375],[34.45933,38.33759],[34.45994,38.33756],[34.46039,38.3377],[34.4606,38.33788],[34.46061,38.33858],[34.46093,38.33898],[34.4615,38.33931],[34.46207,38.33958],[34.46156,38.34156],[34.46042,38.34221],[34.4586,38.34325],[34.45738,38.3435],[34.45515,38.34347],[34.45309,38.34263],[34.45259,38.34236],[34.45218,38.34163],[34.45176,38.34]]]}},{"type":"Feature","properties":{"id":"meyil-lake","name":"Meyil Obruğu","source":"OpenStreetMap"},"geometry":{"type":"Polygon","coordinates":[[[33.34979,37.98801],[33.35029,37.98709],[33.35253,37.98601],[33.35408,37.98598],[33.35613,37.98649],[33.35671,37.98663],[33.35718,37.987],[33.35723,37.98803],[33.35708,37.98826],[33.35711,37.98879],[33.35694,37.98892],[33.35674,37.98915],[33.35599,37.98971],[33.35564,37.99016],[33.35551,37.99022],[33.35527,37.99035],[33.35465,37.99047],[33.35405,37.99059],[33.35326,37.99053],[33.35265,37.99056],[33.35236,37.99044],[33.35123,37.98984],[33.35026,37.98929],[33.35014,37.98889],[33.34998,37.98834],[33.34979,37.98801]]]}},{"type":"Feature","properties":{"id":"cirali-lake","name":"Çıralı Obruğu","source":"OpenStreetMap"},"geometry":{"type":"Polygon","coordinates":[[[33.41103,37.93211],[33.41114,37.93156],[33.41148,37.931],[33.41205,37.93073],[33.41276,37.93056],[33.41339,37.93061],[33.4136,37.9308],[33.41389,37.93089],[33.41407,37.93113],[33.41436,37.93115],[33.41466,37.93133],[33.41478,37.93163],[33.41464,37.93188],[33.41483,37.93208],[33.41481,37.93232],[33.41451,37.9327],[33.41437,37.93314],[33.41397,37.93346],[33.41339,37.93362],[33.41249,37.93352],[33.41157,37.93318],[33.41132,37.93282],[33.41103,37.93211]]]}},{"type":"Feature","properties":{"id":"hafik-lake","name":"Hafik Gölü","source":"OpenStreetMap"},"geometry":{"type":"Polygon","coordinates":[[[37.37094,39.87058],[37.37245,39.8691],[37.3737,39.86794],[37.37727,39.86783],[37.37951,39.86836],[37.38234,39.86853],[37.38349,39.8687],[37.38367,39.86901],[37.38374,39.86959],[37.38415,39.86998],[37.3848,39.87032],[37.38558,39.87094],[37.38449,39.8707],[37.38312,39.87157],[37.38172,39.8731],[37.38139,39.87366],[37.38197,39.87579],[37.38083,39.87665],[37.37941,39.87664],[37.37757,39.87555],[37.37688,39.87464],[37.37815,39.87354],[37.37759,39.87245],[37.37599,39.87288],[37.37473,39.87304],[37.37231,39.87152],[37.37094,39.87058]]]}},{"type":"Feature","properties":{"id":"todurge-lake","name":"Tödürge Gölü","source":"OpenStreetMap"},"geometry":{"type":"Polygon","coordinates":[[[37.58388,39.8868],[37.58602,39.88329],[37.58934,39.88217],[37.59275,39.87975],[37.59739,39.87481],[37.5965,39.871],[37.60544,39.86985],[37.6055,39.87231],[37.6083,39.87346],[37.60731,39.87607],[37.60593,39.87889],[37.60837,39.88094],[37.60875,39.882],[37.60597,39.88237],[37.60402,39.88218],[37.60498,39.88263],[37.60668,39.88412],[37.60871,39.88452],[37.61195,39.88211],[37.6145,39.88463],[37.61204,39.88741],[37.60725,39.889],[37.603,39.88875],[37.6,39.89],[37.59475,39.89175],[37.58748,39.88797],[37.58388,39.8868]]]}},{"type":"Feature","properties":{"id":"golcuk","name":"Gölcük Krater Gölü","source":"OpenStreetMap"},"geometry":{"type":"Polygon","coordinates":[[[30.48653,37.72961],[30.48674,37.72904],[30.48734,37.7288],[30.48755,37.72854],[30.48846,37.72832],[30.48919,37.72733],[30.49331,37.72795],[30.49468,37.72805],[30.49644,37.72724],[30.49782,37.72751],[30.49846,37.72727],[30.49979,37.72717],[30.50035,37.72764],[30.50116,37.72812],[30.50219,37.72863],[30.50142,37.73039],[30.49932,37.73212],[30.49876,37.73318],[30.49803,37.73386],[30.49617,37.73418],[30.49516,37.73415],[30.49179,37.73391],[30.48959,37.73306],[30.48872,37.73198],[30.48752,37.73152],[30.48721,37.73126],[30.48653,37.72961]]]}},{"type":"Feature","properties":{"id":"meke","name":"Meke Maarı","source":"OpenStreetMap"},"geometry":{"type":"Polygon","coordinates":[[[33.63888,37.68504],[33.63937,37.68442],[33.63969,37.68413],[33.64019,37.68414],[33.64066,37.68432],[33.64084,37.68499],[33.64117,37.68544],[33.64134,37.68576],[33.64125,37.68635],[33.64116,37.68662],[33.6409,37.68681],[33.64033,37.687],[33.6397,37.68685],[33.63918,37.68648],[33.63892,37.68586],[33.63888,37.68504]]]}},{"type":"Feature","properties":{"id":"nemrut","name":"Nemrut Kaldera Gölü","source":"OpenStreetMap"},"geometry":{"type":"MultiPolygon","coordinates":[[[[42.2021,38.62022],[42.20947,38.61354],[42.21319,38.61258],[42.21263,38.61135],[42.21178,38.60954],[42.2083,38.60646],[42.21147,38.60415],[42.22079,38.60053],[42.22747,38.59989],[42.23518,38.59804],[42.24191,38.59731],[42.23964,38.60154],[42.23948,38.60659],[42.23865,38.60881],[42.23326,38.61954],[42.23568,38.63086],[42.23373,38.63389],[42.23887,38.63926],[42.23657,38.64441],[42.23164,38.64567],[42.22344,38.6446],[42.21697,38.64316],[42.21043,38.63845],[42.20602,38.63289],[42.20378,38.62799],[42.20219,38.62465],[42.2021,38.62022]]],[[[42.24286,38.64313],[42.24324,38.64288],[42.24383,38.64259],[42.24424,38.64212],[42.24456,38.6413],[42.24472,38.6409],[42.24481,38.64037],[42.2452,38.64025],[42.24551,38.64028],[42.24576,38.64045],[42.24574,38.64065],[42.24573,38.64088],[42.24634,38.64163],[42.24707,38.64236],[42.24768,38.64262],[42.24826,38.6428],[42.24821,38.64343],[42.24812,38.64375],[42.24782,38.64434],[42.2473,38.64467],[42.24635,38.64482],[42.2454,38.64506],[42.2451,38.64508],[42.24487,38.64489],[42.24455,38.64454],[42.24302,38.64329],[42.24286,38.64313]]]]}},{"type":"Feature","properties":{"id":"acigol-karapinar","name":"Acıgöl (Karapınar)","source":"OpenStreetMap"},"geometry":{"type":"Polygon","coordinates":[[[33.6583,37.71449],[33.6585,37.71258],[33.65989,37.71114],[33.66167,37.71125],[33.66151,37.71034],[33.66223,37.70927],[33.66364,37.70885],[33.66539,37.7093],[33.66605,37.70898],[33.66663,37.70858],[33.66977,37.70949],[33.67158,37.70974],[33.67286,37.71001],[33.67374,37.71119],[33.67345,37.71162],[33.67338,37.71255],[33.67367,37.71312],[33.6718,37.71462],[33.67006,37.71603],[33.66937,37.71654],[33.6684,37.71673],[33.66832,37.71707],[33.66727,37.71802],[33.66498,37.71804],[33.66228,37.71774],[33.6603,37.71679],[33.6583,37.71449]]]}},{"type":"Feature","properties":{"id":"aygir","name":"Aygır (Süphan) Gölü","source":"OpenStreetMap"},"geometry":{"type":"Polygon","coordinates":[[[42.81394,38.83694],[42.81403,38.83627],[42.81519,38.83435],[42.81896,38.83162],[42.81907,38.83136],[42.81971,38.83128],[42.82233,38.83147],[42.82447,38.83152],[42.82629,38.83233],[42.82847,38.83443],[42.83034,38.83622],[42.83119,38.83763],[42.83123,38.83875],[42.8301,38.8405],[42.82876,38.8416],[42.82669,38.84144],[42.82555,38.84228],[42.82318,38.84206],[42.82016,38.84296],[42.81896,38.84253],[42.81744,38.84181],[42.81635,38.84115],[42.81628,38.84057],[42.81558,38.83985],[42.81467,38.83909],[42.81462,38.83829],[42.81394,38.83694]]]}}]}
