{"type":"FeatureCollection","name":"turkey-neighbor-countries","source":"Natural Earth 1:50m Admin 0 Countries, version 5.1.1","features":[{"type":"Feature","properties":{"id":"syria","name":"Suriye","iso3":"SYR","source":"Natural Earth 1:50m Admin 0 Countries"},"geometry":{"type":"Polygon","coordinates":[[[35.892676,35.916553],[35.967578,35.910059],[36.127344,35.831445],[36.153613,35.833887],[36.201953,35.937549],[36.248828,35.972705],[36.347559,36.003516],[36.375391,36.17124],[36.421484,36.203467],[36.477051,36.220703],[36.562402,36.223926],[36.636719,36.233984],[36.641406,36.263525],[36.5375,36.457422],[36.54668,36.506348],[36.596875,36.701367],[36.628418,36.777686],[36.658594,36.802539],[36.776563,36.792676],[36.941797,36.758398],[36.985352,36.702393],[37.066211,36.652637],[37.187402,36.655908],[37.327051,36.646582],[37.436328,36.643311],[37.523535,36.67832],[37.720313,36.743701],[37.817969,36.765576],[37.906641,36.794629],[38.191699,36.901562],[38.305859,36.893359],[38.383984,36.879248],[38.44375,36.862256],[38.578027,36.789111],[38.688867,36.715088],[38.766602,36.693115],[38.906445,36.694678],[39.108398,36.680566],[39.356641,36.681592],[39.501465,36.702246],[39.686523,36.738623],[40.016406,36.826074],[40.450391,37.008887],[40.705664,37.097705],[40.815625,37.108154],[40.958887,37.10918],[41.102148,37.085889],[41.264648,37.069336],[41.339551,37.070801],[41.515527,37.08916],[41.743555,37.126123],[41.886816,37.156396],[42.059863,37.206055],[42.167871,37.288623],[42.202734,37.297266],[42.247559,37.282227],[42.268555,37.276562],[42.312891,37.22959],[42.358984,37.108594],[42.359082,37.09502],[42.350098,37.060596],[42.237305,36.961133],[42.083984,36.826025],[41.974023,36.74082],[41.788574,36.597168],[41.650195,36.566406],[41.416797,36.514648],[41.354199,36.464404],[41.295996,36.38335],[41.261816,36.272461],[41.251758,36.203027],[41.245605,36.073389],[41.300195,35.938965],[41.352637,35.809961],[41.359375,35.724609],[41.354102,35.64043],[41.30332,35.550635],[41.24834,35.42749],[41.216406,35.288184],[41.199609,35.027393],[41.199219,34.805322],[41.194727,34.768994],[41.099023,34.612305],[40.987012,34.429053],[40.935059,34.386572],[40.689453,34.332031],[40.421484,34.197754],[40.121973,34.047656],[39.85,33.911377],[39.564453,33.768359],[39.268359,33.62002],[39.056738,33.514014],[38.773535,33.372217],[38.515625,33.236621],[38.254297,33.099219],[38.055762,32.994873],[37.754102,32.829834],[37.577441,32.733057],[37.317578,32.590771],[37.088965,32.465527],[36.818359,32.317285],[36.479199,32.361328],[36.37207,32.386914],[36.284277,32.457471],[36.219727,32.495117],[36.059473,32.533789],[35.956445,32.666699],[35.894727,32.71377],[35.787305,32.734912],[35.833283,32.820094],[35.841863,32.875954],[35.887977,32.944379],[35.859022,32.989367],[35.84508,33.084665],[35.824704,33.108024],[35.817197,33.133173],[35.833283,33.163702],[35.826849,33.195117],[35.808618,33.208577],[35.800038,33.256121],[35.785024,33.291089],[35.792531,33.334107],[35.816125,33.361879],[35.840738,33.415661],[35.869141,33.431738],[35.914746,33.465381],[35.926563,33.500293],[35.967578,33.53457],[36.022266,33.5625],[36.034473,33.585059],[36.02666,33.597949],[35.97168,33.623096],[35.942383,33.667578],[35.968457,33.732422],[35.986133,33.752637],[36.018848,33.783936],[36.092188,33.831592],[36.149805,33.839502],[36.199414,33.839551],[36.283398,33.835596],[36.348535,33.827051],[36.365039,33.839355],[36.362793,33.855127],[36.282227,33.894189],[36.277832,33.925293],[36.297852,33.958643],[36.354883,34.011328],[36.422852,34.049854],[36.45752,34.056836],[36.535156,34.134326],[36.584961,34.22124],[36.504395,34.432373],[36.455566,34.466162],[36.376465,34.495166],[36.329883,34.499609],[36.32627,34.51333],[36.388672,34.566895],[36.433008,34.613477],[36.383887,34.65791],[36.296289,34.678711],[36.263574,34.632861],[36.151074,34.628613],[35.97627,34.629199],[35.899316,34.8521],[35.887891,34.948633],[35.889941,35.060303],[35.943066,35.223828],[35.918066,35.299512],[35.916016,35.350537],[35.902441,35.420703],[35.764453,35.571582],[35.839648,35.849219],[35.892676,35.916553]]]}},{"type":"Feature","properties":{"id":"iraq","name":"Irak","iso3":"IRQ","source":"Natural Earth 1:50m Admin 0 Countries"},"geometry":{"type":"Polygon","coordinates":[[[42.358984,37.108594],[42.455859,37.128711],[42.635449,37.249268],[42.741113,37.361914],[42.774609,37.371875],[42.869141,37.334912],[42.936621,37.324756],[43.09248,37.367383],[43.185156,37.344873],[43.263086,37.316504],[43.306738,37.314648],[43.51582,37.244531],[43.567969,37.23584],[43.675781,37.227246],[43.836426,37.223535],[43.940039,37.269287],[44.013184,37.313525],[44.064648,37.312451],[44.114453,37.301855],[44.15625,37.282959],[44.191797,37.249854],[44.208398,37.202637],[44.20166,37.051807],[44.21748,37.011865],[44.245703,36.983301],[44.281836,36.978027],[44.325586,37.010742],[44.401953,37.058496],[44.495996,37.110547],[44.566016,37.158252],[44.605957,37.176025],[44.669336,37.173584],[44.730957,37.165283],[44.765137,37.142432],[44.76543,37.13501],[44.798438,37.063867],[44.880859,36.799316],[44.927832,36.765918],[44.981445,36.737695],[45.019238,36.698389],[45.033984,36.658887],[45.029395,36.597559],[45.031055,36.526074],[45.053125,36.471631],[45.083789,36.430029],[45.112402,36.409277],[45.155273,36.407373],[45.206543,36.397168],[45.241113,36.355957],[45.350879,36.054639],[45.361621,36.015332],[45.407715,36.002783],[45.483789,36.008545],[45.561621,35.977197],[45.64502,35.928369],[45.723438,35.83667],[45.776367,35.821826],[45.941406,35.8354],[46.16748,35.820557],[46.273438,35.773242],[46.2625,35.744141],[46.180957,35.711377],[46.037402,35.673145],[45.99502,35.608105],[45.971094,35.52417],[45.975391,35.476807],[46.010645,35.424805],[46.112109,35.32168],[46.117773,35.284277],[46.135742,35.232275],[46.154688,35.196729],[46.133789,35.127637],[46.041797,35.080176],[45.920898,35.028516],[45.678125,34.798437],[45.660059,34.748779],[45.661523,34.612695],[45.6375,34.573828],[45.56084,34.574512],[45.500781,34.581592],[45.497754,34.533887],[45.459375,34.470361],[45.437598,34.415137],[45.526855,34.284668],[45.542773,34.215527],[45.528613,34.152539],[45.446094,34.044043],[45.39707,33.97085],[45.408984,33.954492],[45.473242,33.925488],[45.67373,33.68667],[45.738281,33.602832],[45.822852,33.624805],[45.854492,33.62334],[45.879395,33.609766],[45.894727,33.581543],[45.894727,33.545654],[45.873242,33.491992],[45.981055,33.470117],[46.019922,33.415723],[46.145898,33.229639],[46.141113,33.174414],[46.080762,33.086523],[46.080469,33.028223],[46.093066,32.975879],[46.112793,32.957666],[46.298242,32.950244],[46.377051,32.929248],[46.569922,32.833936],[46.789062,32.687988],[46.968555,32.568408],[47.121387,32.466602],[47.285156,32.474023],[47.329785,32.455518],[47.371289,32.42373],[47.418164,32.340088],[47.511914,32.15083],[47.591504,32.087988],[47.714551,31.936426],[47.82998,31.794434],[47.753906,31.601367],[47.679492,31.400586],[47.679492,31.141504],[47.679492,31.002393],[47.836328,30.996436],[48.010645,30.989795],[48.012012,30.823633],[48.013477,30.656445],[48.014941,30.465625],[48.066113,30.457666],[48.147559,30.416846],[48.182422,30.355029],[48.226172,30.321338],[48.278906,30.31582],[48.331055,30.285449],[48.382617,30.230176],[48.401367,30.18833],[48.387598,30.159863],[48.398633,30.109619],[48.43457,30.037598],[48.478516,30.003809],[48.546484,29.962354],[48.454199,29.938477],[48.35459,29.956738],[48.141699,30.040918],[48.072754,30.043213],[47.98252,30.011328],[47.978711,29.982812],[47.753906,30.076611],[47.672754,30.095605],[47.64375,30.097314],[47.514844,30.096484],[47.331348,30.079687],[47.223242,30.041504],[47.148242,30.000977],[47.114355,29.961328],[47.102051,29.93999],[47.043652,29.822998],[46.975977,29.672852],[46.905859,29.5375],[46.769336,29.347461],[46.69375,29.259668],[46.531445,29.09624],[46.356445,29.063672],[45.949707,29.09585],[45.498926,29.131543],[45.050293,29.16709],[44.716504,29.193604],[44.69082,29.202344],[44.360742,29.435254],[44.099609,29.619336],[43.77373,29.849219],[43.44082,30.083984],[43.103125,30.322217],[42.857715,30.495215],[42.559766,30.717773],[42.288574,30.92041],[42.074414,31.080371],[41.799707,31.220361],[41.585059,31.329736],[41.272461,31.489014],[41.022461,31.616357],[40.808398,31.725439],[40.478906,31.893359],[40.369336,31.938965],[40.027832,31.99502],[39.704102,32.042529],[39.368652,32.091748],[39.14541,32.124512],[39.292773,32.243848],[39.247461,32.350977],[39.140039,32.331201],[39.041406,32.305664],[38.981641,32.472559],[39.057813,32.493164],[38.987402,32.710693],[38.914844,32.934668],[38.84502,33.150879],[38.773535,33.372217],[39.056738,33.514014],[39.268359,33.62002],[39.564453,33.768359],[39.85,33.911377],[40.121973,34.047656],[40.421484,34.197754],[40.689453,34.332031],[40.935059,34.386572],[40.987012,34.429053],[41.099023,34.612305],[41.194727,34.768994],[41.199219,34.805322],[41.199609,35.027393],[41.216406,35.288184],[41.24834,35.42749],[41.30332,35.550635],[41.354102,35.64043],[41.359375,35.724609],[41.352637,35.809961],[41.300195,35.938965],[41.245605,36.073389],[41.251758,36.203027],[41.261816,36.272461],[41.295996,36.38335],[41.354199,36.464404],[41.416797,36.514648],[41.650195,36.566406],[41.788574,36.597168],[41.974023,36.74082],[42.083984,36.826025],[42.237305,36.961133],[42.350098,37.060596],[42.359082,37.09502],[42.358984,37.108594]]]}},{"type":"Feature","properties":{"id":"iran","name":"İran","iso3":"IRN","source":"Natural Earth 1:50m Admin 0 Countries"},"geometry":{"type":"MultiPolygon","coordinates":[[[[56.187988,26.921143],[56.094922,26.801172],[55.954297,26.701123],[55.894141,26.732275],[55.847656,26.730811],[55.747266,26.69248],[55.674609,26.68584],[55.543164,26.617529],[55.42373,26.583105],[55.34043,26.585742],[55.311523,26.592627],[55.29502,26.639209],[55.296484,26.657568],[55.346973,26.647949],[55.531738,26.71001],[55.762598,26.811963],[55.78457,26.857178],[55.747461,26.930957],[55.757617,26.947656],[55.907129,26.909814],[56.074121,26.98335],[56.213965,27.003271],[56.279395,26.9521],[56.187988,26.921143]]],[[[53.91416,37.343555],[54.191602,37.332471],[54.299805,37.353613],[54.458691,37.407568],[54.578906,37.440234],[54.639648,37.444727],[54.699414,37.470166],[54.745215,37.501904],[54.848633,37.722656],[54.900098,37.77793],[55.075586,37.90249],[55.224707,37.981348],[55.380859,38.051123],[55.578418,38.099756],[55.841309,38.094629],[56.050293,38.077539],[56.171191,38.078369],[56.228809,38.073389],[56.27207,38.08042],[56.296973,38.094824],[56.324121,38.191113],[56.366895,38.22251],[56.440625,38.249414],[56.544043,38.249609],[56.669922,38.256641],[56.774609,38.250049],[56.906641,38.213037],[57.079004,38.209961],[57.193555,38.216406],[57.260156,38.17959],[57.308105,38.130371],[57.331445,38.089307],[57.336719,38.03291],[57.335742,37.989941],[57.353711,37.97334],[57.423828,37.947705],[57.520996,37.928467],[57.710547,37.905273],[57.888184,37.86084],[57.980566,37.830469],[58.108789,37.783057],[58.261621,37.66582],[58.318164,37.647217],[58.386719,37.635352],[58.435742,37.638525],[58.550488,37.688184],[58.650195,37.651562],[58.700781,37.65625],[58.81543,37.683496],[58.937207,37.649658],[59.24082,37.520752],[59.274121,37.52373],[59.301758,37.510645],[59.326953,37.481152],[59.344727,37.444727],[59.367383,37.33374],[59.45498,37.252832],[59.562207,37.178906],[59.687207,37.138477],[59.948633,37.041602],[60.062793,36.962891],[60.17832,36.829443],[60.320703,36.653564],[60.341309,36.637646],[60.70791,36.642969],[61.119629,36.642578],[61.169922,36.572266],[61.160352,36.432715],[61.175098,36.289697],[61.212012,36.190527],[61.212402,36.099121],[61.182617,36.052832],[61.159473,35.999902],[61.15293,35.976758],[61.205859,35.943701],[61.252148,35.867627],[61.258691,35.761816],[61.235547,35.705566],[61.238867,35.659277],[61.262012,35.61958],[61.281836,35.553418],[61.278516,35.51377],[61.245508,35.474072],[61.225684,35.424463],[61.199219,35.361621],[61.189258,35.312012],[61.139648,35.288867],[61.1,35.272314],[61.106641,35.209473],[61.126465,35.156543],[61.149609,35.09375],[61.123145,35.050732],[61.106641,35.001123],[61.070215,34.921729],[61.080078,34.855615],[61.04043,34.799365],[60.99082,34.749756],[60.957813,34.710059],[60.951172,34.653857],[60.914746,34.633984],[60.845313,34.587695],[60.802344,34.554639],[60.739453,34.544727],[60.72627,34.518262],[60.736133,34.491797],[60.762598,34.475244],[60.803906,34.418018],[60.889453,34.319434],[60.642676,34.307178],[60.570215,34.219629],[60.485742,34.094775],[60.527051,33.841992],[60.485938,33.711914],[60.51084,33.638916],[60.573828,33.58833],[60.65459,33.5604],[60.806445,33.558691],[60.906934,33.538965],[60.916992,33.505225],[60.859277,33.45625],[60.766895,33.363818],[60.718066,33.323535],[60.560547,33.137842],[60.561914,33.058789],[60.576563,32.994873],[60.644531,32.794385],[60.710449,32.6],[60.829297,32.249414],[60.827246,32.167969],[60.789941,31.987109],[60.7875,31.877197],[60.804297,31.734473],[60.791602,31.660596],[60.820703,31.495166],[60.854102,31.483252],[61.110742,31.451123],[61.346484,31.421631],[61.660156,31.382422],[61.755078,31.285303],[61.814258,31.072559],[61.81084,30.913281],[61.78418,30.831934],[61.559473,30.599365],[61.331641,30.363721],[61.104102,30.128418],[60.843359,29.858691],[61.03418,29.663428],[61.152148,29.542725],[61.318359,29.372607],[61.339453,29.331787],[61.337891,29.26499],[61.508594,29.006055],[61.56875,28.870898],[61.623047,28.791602],[61.758008,28.667676],[61.889844,28.546533],[62.033008,28.491016],[62.130566,28.478809],[62.353027,28.414746],[62.433887,28.363867],[62.564551,28.235156],[62.717578,28.252783],[62.749414,28.252881],[62.758008,28.243555],[62.7625,28.202051],[62.739746,28.002051],[62.782324,27.800537],[62.812012,27.497021],[62.800879,27.444531],[62.764258,27.356738],[62.7625,27.300195],[62.752734,27.265625],[62.762988,27.250195],[62.811621,27.229443],[62.91543,27.218408],[63.166797,27.25249],[63.196094,27.243945],[63.25625,27.20791],[63.301563,27.151465],[63.305176,27.124561],[63.24209,27.077686],[63.231445,26.998145],[63.250391,26.879248],[63.241602,26.864746],[63.186133,26.837598],[63.168066,26.665576],[63.157813,26.649756],[63.092969,26.632324],[62.786621,26.643896],[62.751563,26.63916],[62.636426,26.593652],[62.439258,26.561035],[62.385059,26.542627],[62.312305,26.490869],[62.259668,26.42749],[62.249609,26.369238],[62.239355,26.357031],[62.125977,26.368994],[62.089063,26.318262],[61.869824,26.242432],[61.842383,26.225928],[61.809961,26.165283],[61.780762,25.99585],[61.754395,25.843359],[61.737695,25.821094],[61.668652,25.768994],[61.661816,25.75127],[61.671387,25.692383],[61.640137,25.584619],[61.61543,25.286133],[61.587891,25.202344],[61.533105,25.195508],[61.490332,25.153662],[61.412207,25.1021],[61.242969,25.141992],[61.108594,25.183887],[60.663867,25.282227],[60.615137,25.329834],[60.5875,25.413525],[60.510547,25.437061],[60.400195,25.311572],[60.024707,25.384131],[59.89707,25.361816],[59.818359,25.400879],[59.616016,25.403271],[59.456055,25.481494],[59.227246,25.427734],[59.046094,25.417285],[58.797852,25.55459],[58.530859,25.592432],[58.314258,25.580859],[58.20293,25.591602],[58.022363,25.64082],[57.936621,25.69165],[57.796094,25.653027],[57.73252,25.724902],[57.33457,25.791553],[57.260938,25.918848],[57.205566,26.037207],[57.201367,26.158838],[57.104297,26.371436],[57.071973,26.680078],[57.036035,26.800684],[56.982227,26.905469],[56.910449,26.99458],[56.812891,27.08999],[56.728125,27.127686],[56.356152,27.200244],[56.284375,27.190625],[56.118066,27.143115],[55.941113,27.037598],[55.650293,26.977539],[55.591602,26.932129],[55.518555,26.829932],[55.424023,26.770557],[55.294141,26.785937],[55.15459,26.725391],[54.895801,26.556689],[54.759277,26.505078],[54.644922,26.508936],[54.52207,26.58916],[54.24707,26.696631],[54.069336,26.732373],[53.822559,26.707715],[53.705762,26.725586],[53.507129,26.851758],[53.45498,26.943262],[53.341699,27.004492],[52.98252,27.141943],[52.691602,27.323389],[52.638184,27.391992],[52.602637,27.493359],[52.475879,27.616504],[52.191895,27.717285],[52.030762,27.824414],[51.841992,27.848242],[51.666309,27.844971],[51.589063,27.864209],[51.518555,27.91001],[51.278906,28.131348],[51.276074,28.218848],[51.128418,28.435156],[51.093848,28.512109],[51.062012,28.726123],[51.021191,28.78208],[50.866992,28.870166],[50.842969,28.927832],[50.875781,29.004395],[50.875781,29.062695],[50.795508,29.117432],[50.675195,29.146582],[50.646094,29.212207],[50.667969,29.339844],[50.649609,29.420068],[50.543555,29.547998],[50.386914,29.679053],[50.230176,29.8729],[50.168945,29.92124],[50.128906,30.048096],[50.071582,30.198535],[49.983105,30.209375],[49.554883,30.028955],[49.42998,30.130469],[49.054297,30.306934],[49.028125,30.333447],[49.001953,30.373926],[49.049023,30.397266],[49.096191,30.406787],[49.190332,30.375391],[49.247266,30.4125],[49.224512,30.472314],[49.130371,30.509424],[49.001953,30.506543],[49.037109,30.450488],[48.916797,30.397266],[48.891211,30.327637],[48.908691,30.241455],[48.919141,30.120898],[48.870117,30.062402],[48.832422,30.035498],[48.670898,30.02832],[48.595508,29.975049],[48.546484,29.962354],[48.478516,30.003809],[48.43457,30.037598],[48.398633,30.109619],[48.387598,30.159863],[48.401367,30.18833],[48.382617,30.230176],[48.331055,30.285449],[48.278906,30.31582],[48.226172,30.321338],[48.182422,30.355029],[48.147559,30.416846],[48.066113,30.457666],[48.014941,30.465625],[48.013477,30.656445],[48.012012,30.823633],[48.010645,30.989795],[47.836328,30.996436],[47.679492,31.002393],[47.679492,31.141504],[47.679492,31.400586],[47.753906,31.601367],[47.82998,31.794434],[47.714551,31.936426],[47.591504,32.087988],[47.511914,32.15083],[47.418164,32.340088],[47.371289,32.42373],[47.329785,32.455518],[47.285156,32.474023],[47.121387,32.466602],[46.968555,32.568408],[46.789062,32.687988],[46.569922,32.833936],[46.377051,32.929248],[46.298242,32.950244],[46.112793,32.957666],[46.093066,32.975879],[46.080469,33.028223],[46.080762,33.086523],[46.141113,33.174414],[46.145898,33.229639],[46.019922,33.415723],[45.981055,33.470117],[45.873242,33.491992],[45.894727,33.545654],[45.894727,33.581543],[45.879395,33.609766],[45.854492,33.62334],[45.822852,33.624805],[45.738281,33.602832],[45.67373,33.68667],[45.473242,33.925488],[45.408984,33.954492],[45.39707,33.97085],[45.446094,34.044043],[45.528613,34.152539],[45.542773,34.215527],[45.526855,34.284668],[45.437598,34.415137],[45.459375,34.470361],[45.497754,34.533887],[45.500781,34.581592],[45.56084,34.574512],[45.6375,34.573828],[45.661523,34.612695],[45.660059,34.748779],[45.678125,34.798437],[45.920898,35.028516],[46.041797,35.080176],[46.133789,35.127637],[46.154688,35.196729],[46.135742,35.232275],[46.117773,35.284277],[46.112109,35.32168],[46.010645,35.424805],[45.975391,35.476807],[45.971094,35.52417],[45.99502,35.608105],[46.037402,35.673145],[46.180957,35.711377],[46.2625,35.744141],[46.273438,35.773242],[46.16748,35.820557],[45.941406,35.8354],[45.776367,35.821826],[45.723438,35.83667],[45.64502,35.928369],[45.561621,35.977197],[45.483789,36.008545],[45.407715,36.002783],[45.361621,36.015332],[45.350879,36.054639],[45.241113,36.355957],[45.206543,36.397168],[45.155273,36.407373],[45.112402,36.409277],[45.083789,36.430029],[45.053125,36.471631],[45.031055,36.526074],[45.029395,36.597559],[45.033984,36.658887],[45.019238,36.698389],[44.981445,36.737695],[44.927832,36.765918],[44.880859,36.799316],[44.798438,37.063867],[44.76543,37.13501],[44.765137,37.142432],[44.766699,37.156348],[44.758301,37.21709],[44.796777,37.269775],[44.794141,37.290381],[44.715137,37.357129],[44.604102,37.42373],[44.574023,37.4354],[44.573145,37.506396],[44.577148,37.560205],[44.567188,37.608643],[44.546094,37.636328],[44.545313,37.658154],[44.589941,37.710352],[44.56123,37.744629],[44.397754,37.829248],[44.33623,37.871777],[44.222949,37.880176],[44.211328,37.908057],[44.228906,37.967187],[44.267969,38.038818],[44.329395,38.109277],[44.348926,38.146484],[44.372754,38.209717],[44.380859,38.25459],[44.449609,38.317773],[44.449902,38.334229],[44.430859,38.356787],[44.375781,38.36958],[44.319629,38.374707],[44.298535,38.386279],[44.29082,38.420117],[44.297852,38.557812],[44.280176,38.640674],[44.257031,38.700635],[44.27168,38.836035],[44.232422,38.863232],[44.170801,38.934375],[44.144531,38.994385],[44.158789,39.016748],[44.171875,39.05625],[44.180566,39.108057],[44.178027,39.144824],[44.121289,39.180615],[44.079102,39.218311],[44.074316,39.259961],[44.05752,39.31084],[44.033789,39.351025],[44.023242,39.377441],[44.043945,39.392969],[44.124023,39.405225],[44.24043,39.396777],[44.335449,39.396045],[44.389355,39.422119],[44.455957,39.666748],[44.516699,39.73125],[44.587109,39.768555],[44.725,39.681738],[44.782129,39.651074],[44.817188,39.650439],[44.838184,39.629102],[45.000195,39.423535],[45.07168,39.362891],[45.113086,39.311572],[45.141211,39.254297],[45.190625,39.215625],[45.255957,39.194678],[45.335547,39.13916],[45.389258,39.095898],[45.479688,39.00625],[45.575,38.972803],[45.921875,38.90791],[46.114453,38.877783],[46.170117,38.869043],[46.317773,38.912646],[46.490625,38.906689],[46.554785,38.904395],[46.783203,39.087402],[46.852539,39.148438],[46.988867,39.180176],[47.06543,39.252881],[47.188379,39.340967],[47.338477,39.423877],[47.476172,39.49834],[47.581836,39.543359],[47.772852,39.648584],[47.892285,39.685059],[47.995898,39.683936],[48.151074,39.560547],[48.281738,39.44834],[48.322168,39.399072],[48.257227,39.35498],[48.136035,39.312354],[48.112891,39.281104],[48.104395,39.241113],[48.10918,39.202832],[48.125488,39.171631],[48.274121,39.099121],[48.291016,39.059277],[48.29209,39.018848],[48.275098,38.993604],[48.241992,38.978955],[48.138574,38.958643],[48.050098,38.93501],[48.019336,38.911816],[47.992676,38.884277],[47.996484,38.85376],[48.023242,38.819043],[48.204688,38.724121],[48.225195,38.689209],[48.261328,38.642285],[48.305566,38.613477],[48.38125,38.605615],[48.417383,38.58623],[48.592676,38.411084],[48.635547,38.39873],[48.840332,38.437256],[48.86875,38.435498],[48.870703,38.392529],[48.901367,38.143652],[48.925098,38.015137],[48.959961,37.890137],[49.015332,37.776074],[49.080957,37.667578],[49.171191,37.600586],[49.372461,37.519971],[49.470117,37.49668],[49.726953,37.480518],[49.980664,37.444873],[50.130469,37.407129],[50.17627,37.380518],[50.214063,37.3396],[50.337891,37.14917],[50.533203,37.013672],[50.927441,36.810205],[51.118555,36.742578],[51.762012,36.614502],[52.190137,36.621729],[53.374121,36.86875],[53.767676,36.930322],[53.91543,36.930322],[53.827441,36.881201],[53.679492,36.853125],[53.76875,36.818457],[53.90625,36.812695],[53.970117,36.818311],[54.016211,36.849658],[54.023828,36.901318],[54.017188,36.95249],[53.951953,37.181738],[53.91416,37.343555]]]]}},{"type":"Feature","properties":{"id":"greece","name":"Yunanistan","iso3":"GRC","source":"Natural Earth 1:50m Admin 0 Countries"},"geometry":{"type":"MultiPolygon","coordinates":[[[[27.860156,36.553906],[27.838281,36.537988],[27.788086,36.583691],[27.785742,36.60752],[27.836816,36.634863],[27.8625,36.641162],[27.869824,36.62251],[27.869043,36.582666],[27.860156,36.553906]]],[[[20.612305,38.38335],[20.624707,38.267871],[20.695215,38.246191],[20.788867,38.14209],[20.780762,38.088818],[20.761328,38.070557],[20.606152,38.119727],[20.568945,38.097656],[20.523535,38.106641],[20.495508,38.16416],[20.49873,38.184375],[20.47334,38.218799],[20.452148,38.23418],[20.391016,38.188428],[20.352539,38.179883],[20.352246,38.221729],[20.408691,38.336768],[20.435059,38.356201],[20.481445,38.318213],[20.519629,38.332324],[20.54834,38.394531],[20.550293,38.456543],[20.563184,38.474951],[20.612305,38.38335]]],[[[20.888477,37.805371],[20.993945,37.708008],[20.909082,37.732129],[20.818555,37.664746],[20.703809,37.743457],[20.635059,37.823145],[20.619531,37.855029],[20.691504,37.929541],[20.758691,37.852979],[20.839844,37.840723],[20.888477,37.805371]]],[[[20.686719,38.608691],[20.647852,38.600977],[20.614355,38.60625],[20.583984,38.601709],[20.554688,38.582568],[20.55791,38.661865],[20.59248,38.760156],[20.634668,38.817578],[20.694141,38.844238],[20.719629,38.79917],[20.714844,38.63833],[20.686719,38.608691]]],[[[20.758691,38.329443],[20.709277,38.318604],[20.646387,38.414307],[20.623633,38.480322],[20.649707,38.483984],[20.674805,38.476318],[20.70127,38.451416],[20.701074,38.425928],[20.711621,38.398633],[20.73916,38.365771],[20.758691,38.329443]]],[[[20.07793,39.432715],[20.099609,39.376611],[19.975,39.411426],[19.883984,39.461523],[19.808887,39.585303],[19.648926,39.726172],[19.646484,39.76709],[19.707324,39.798096],[19.838574,39.820117],[19.891699,39.797266],[19.926074,39.77373],[19.936816,39.746729],[19.862207,39.692627],[19.84668,39.668115],[19.904102,39.619482],[19.903125,39.6],[19.927344,39.505908],[19.955273,39.47041],[20.027734,39.44209],[20.07793,39.432715]]],[[[23.41543,38.958643],[23.471973,38.850098],[23.525,38.813477],[23.63623,38.770215],[23.688477,38.764697],[23.878223,38.686572],[24.099023,38.670996],[24.127539,38.648486],[24.154688,38.588281],[24.199707,38.541016],[24.211035,38.504248],[24.1875,38.463428],[24.220117,38.338623],[24.275781,38.22002],[24.359668,38.1625],[24.463965,38.145117],[24.563281,38.14751],[24.588379,38.123975],[24.578516,38.020166],[24.536523,37.979736],[24.502344,37.969922],[24.472656,37.980518],[24.445801,38.00498],[24.416504,38.016553],[24.359473,38.018555],[24.317773,38.060352],[24.212012,38.117529],[24.192578,38.15166],[24.189063,38.204297],[24.144141,38.243066],[24.102832,38.316846],[24.063574,38.337207],[24.041895,38.374121],[24.040137,38.38999],[23.88623,38.400732],[23.758789,38.401221],[23.650781,38.443066],[23.617383,38.552539],[23.55332,38.581982],[23.505273,38.612939],[23.465234,38.655859],[23.364063,38.73501],[23.252148,38.801221],[23.143945,38.844824],[23.029102,38.873389],[22.935742,38.839648],[22.881348,38.847656],[22.870313,38.870508],[22.986328,38.915918],[23.145801,39.002686],[23.258203,39.031348],[23.312695,39.034912],[23.41543,38.958643]]],[[[23.779785,39.114404],[23.735156,39.080566],[23.666113,39.095361],[23.593945,39.208594],[23.779785,39.114404]]],[[[23.887988,39.158301],[23.841211,39.146582],[23.888086,39.226367],[23.970898,39.267725],[23.939746,39.200537],[23.887988,39.158301]]],[[[24.674707,38.809229],[24.569043,38.784814],[24.541016,38.788672],[24.564551,38.819434],[24.566406,38.832373],[24.461035,38.888623],[24.473438,38.96167],[24.485645,38.980273],[24.564063,38.942236],[24.58125,38.878857],[24.674707,38.809229]]],[[[24.774219,40.615186],[24.645898,40.579443],[24.515527,40.647021],[24.516699,40.687207],[24.585547,40.76875],[24.62334,40.79292],[24.719141,40.786279],[24.773633,40.730273],[24.786328,40.703857],[24.768652,40.658887],[24.774219,40.615186]]],[[[23.550977,37.925879],[23.511426,37.901172],[23.466797,37.902393],[23.435254,37.911475],[23.419336,37.93125],[23.439063,37.940674],[23.462207,37.980371],[23.483691,37.991113],[23.515527,37.986035],[23.534863,37.970215],[23.550977,37.925879]]],[[[23.053809,36.189795],[23.042188,36.146387],[22.939453,36.176221],[22.91084,36.220996],[22.905664,36.320312],[22.932617,36.36875],[22.950488,36.383936],[22.997852,36.328125],[23.09707,36.246582],[23.053809,36.189795]]],[[[27.176074,35.465283],[27.137891,35.409082],[27.099121,35.456445],[27.11582,35.511133],[27.070703,35.597754],[27.156055,35.72627],[27.158008,35.788672],[27.223145,35.820459],[27.207031,35.714453],[27.157227,35.629492],[27.208887,35.558936],[27.233594,35.478564],[27.176074,35.465283]]],[[[27.019727,36.959033],[26.919922,36.945215],[26.937695,37.024609],[26.888672,37.087256],[26.966602,37.0521],[27.016016,37.009668],[27.040137,37.001562],[27.03457,36.975977],[27.019727,36.959033]]],[[[26.949609,36.7271],[26.918359,36.725928],[26.955566,36.774219],[27.061133,36.840381],[27.214941,36.898633],[27.265625,36.905127],[27.352148,36.868896],[27.193164,36.809131],[27.150977,36.777588],[27.033594,36.770752],[26.949609,36.7271]]],[[[25.545898,36.967578],[25.456738,36.929688],[25.395898,36.984375],[25.361914,37.07041],[25.525293,37.196387],[25.564355,37.185107],[25.587891,37.152539],[25.584277,37.039307],[25.545898,36.967578]]],[[[25.278906,37.068408],[25.199414,36.991309],[25.133301,36.999658],[25.105469,37.034961],[25.146484,37.107422],[25.235059,37.148535],[25.275293,37.137842],[25.271484,37.08418],[25.278906,37.068408]]],[[[25.482422,36.392627],[25.435938,36.340088],[25.370508,36.358936],[25.397168,36.378955],[25.412891,36.404883],[25.414648,36.442285],[25.396875,36.465332],[25.408984,36.47373],[25.467383,36.435059],[25.482422,36.392627]]],[[[25.381738,36.674023],[25.364355,36.65835],[25.288672,36.721533],[25.259961,36.758447],[25.295898,36.78916],[25.406934,36.717334],[25.381738,36.674023]]],[[[26.824414,37.811426],[26.947363,37.778467],[26.981543,37.781982],[27.039648,37.77002],[27.055078,37.709277],[26.978125,37.700488],[26.844922,37.644727],[26.788281,37.656982],[26.720508,37.705469],[26.612891,37.710498],[26.581055,37.72373],[26.638672,37.780859],[26.743359,37.809766],[26.824414,37.811426]]],[[[26.029297,37.529395],[25.982422,37.525586],[25.996777,37.565576],[26.086328,37.634912],[26.211523,37.638281],[26.325586,37.673047],[26.351367,37.674316],[26.296875,37.61958],[26.204883,37.568506],[26.029297,37.529395]]],[[[25.859375,36.79043],[25.771094,36.782227],[25.743164,36.789746],[25.796777,36.807031],[25.834375,36.825391],[25.852441,36.847559],[25.941992,36.886572],[26.000684,36.937402],[26.064453,36.902734],[25.984668,36.879687],[25.859375,36.79043]]],[[[26.460645,36.5854],[26.381641,36.561523],[26.331445,36.511377],[26.27002,36.546924],[26.269824,36.59541],[26.337012,36.580566],[26.38418,36.607861],[26.37002,36.638574],[26.421289,36.624219],[26.460645,36.5854]]],[[[24.355957,37.576855],[24.288965,37.528271],[24.277441,37.601123],[24.32041,37.677734],[24.379102,37.682715],[24.400781,37.649023],[24.355957,37.576855]]],[[[24.435742,37.344434],[24.378906,37.314111],[24.397754,37.383447],[24.369727,37.419629],[24.394824,37.450391],[24.43125,37.475195],[24.448535,37.449561],[24.481445,37.408008],[24.435742,37.344434]]],[[[24.535742,36.76377],[24.5375,36.705029],[24.530664,36.683984],[24.325977,36.655615],[24.344922,36.722998],[24.357422,36.744287],[24.425195,36.712939],[24.450195,36.728955],[24.460352,36.747461],[24.535742,36.76377]]],[[[24.942871,37.493506],[24.937891,37.389697],[24.911523,37.390576],[24.896191,37.406592],[24.895313,37.446338],[24.906543,37.508887],[24.942871,37.493506]]],[[[24.991699,37.759619],[24.962207,37.692383],[24.884082,37.770508],[24.798535,37.824023],[24.766504,37.870703],[24.714355,37.898877],[24.700195,37.96167],[24.763379,37.9875],[24.79043,37.990137],[24.855078,37.913672],[24.956348,37.904785],[24.948438,37.857666],[24.980469,37.796924],[24.991699,37.759619]]],[[[25.255859,37.599609],[25.21875,37.535107],[25.156348,37.545068],[25.051953,37.614453],[25.016309,37.645947],[24.996484,37.676904],[25.039355,37.680664],[25.091797,37.647998],[25.225391,37.630664],[25.255859,37.599609]]],[[[24.720898,36.921436],[24.702637,36.91709],[24.676465,36.959277],[24.670996,36.998584],[24.681445,37.021631],[24.716113,37.023828],[24.763184,36.949219],[24.720898,36.921436]]],[[[26.094043,38.218066],[25.998535,38.161523],[25.891895,38.243311],[25.874316,38.269629],[25.952637,38.302637],[25.991406,38.353516],[25.959961,38.416016],[25.85127,38.508398],[25.846094,38.574023],[26.0125,38.601709],[26.110449,38.544629],[26.160352,38.540723],[26.141211,38.486182],[26.149609,38.468457],[26.157031,38.30293],[26.110742,38.279639],[26.103125,38.23418],[26.094043,38.218066]]],[[[26.410156,39.329443],[26.392773,39.270117],[26.531055,39.171777],[26.578223,39.109521],[26.595605,39.048828],[26.583984,39.031445],[26.531543,39.064355],[26.488672,39.074805],[26.503125,39.031445],[26.547168,38.994141],[26.46875,38.972803],[26.390137,38.973926],[26.16084,39.025879],[26.10791,39.081055],[26.245117,39.164111],[26.273145,39.197559],[26.175977,39.194287],[26.072363,39.095605],[25.90625,39.138965],[25.855469,39.178662],[25.844141,39.200049],[25.90957,39.287549],[26.026465,39.284619],[26.088379,39.304297],[26.164844,39.331982],[26.16543,39.373535],[26.347754,39.383008],[26.410156,39.329443]]],[[[25.685742,40.426562],[25.572656,40.400439],[25.448047,40.482812],[25.568555,40.515869],[25.624316,40.491992],[25.664258,40.463867],[25.685742,40.426562]]],[[[25.437695,39.983301],[25.399902,39.949561],[25.37207,39.891309],[25.357031,39.808105],[25.29873,39.806104],[25.263379,39.822949],[25.251758,39.854395],[25.249414,39.894141],[25.223828,39.892578],[25.203223,39.849414],[25.185156,39.829932],[25.126465,39.82583],[25.062207,39.852393],[25.065234,39.909863],[25.052344,39.976367],[25.058008,39.999658],[25.23418,40.00542],[25.285742,39.956299],[25.348047,39.984766],[25.373633,40.015527],[25.449121,40.034814],[25.437695,39.983301]]],[[[25.402734,37.419141],[25.307129,37.412988],[25.312695,37.489307],[25.348145,37.50918],[25.462988,37.471094],[25.457422,37.44707],[25.402734,37.419141]]],[[[24.523535,37.125098],[24.486523,37.110059],[24.424805,37.131982],[24.441211,37.186865],[24.483789,37.210205],[24.529102,37.192334],[24.535938,37.167676],[24.523535,37.125098]]],[[[27.842773,35.929297],[27.770605,35.908301],[27.745703,35.911035],[27.715527,35.957324],[27.757324,36.069189],[27.718652,36.141113],[27.716309,36.171582],[27.774414,36.21377],[27.815234,36.276953],[27.914453,36.345312],[28.171484,36.426221],[28.231836,36.433643],[28.230078,36.370264],[28.144043,36.209863],[28.067676,36.129687],[28.087793,36.065332],[27.965527,36.04751],[27.842773,35.929297]]],[[[23.852246,35.535449],[23.920605,35.528174],[24.013281,35.529443],[24.034375,35.5354],[24.093359,35.593848],[24.166016,35.595215],[24.197754,35.537451],[24.124023,35.51084],[24.108984,35.495801],[24.123145,35.483643],[24.178516,35.459521],[24.255371,35.468604],[24.257715,35.423145],[24.274902,35.385986],[24.312891,35.363818],[24.354004,35.359473],[24.444922,35.366016],[24.53457,35.380762],[24.626953,35.409912],[24.721289,35.424805],[25.003125,35.409863],[25.104297,35.346924],[25.296777,35.339355],[25.475684,35.306201],[25.569629,35.328076],[25.730176,35.348584],[25.755859,35.326367],[25.735156,35.184033],[25.74502,35.142725],[25.791309,35.122852],[25.837109,35.132568],[25.893359,35.179199],[26.028027,35.215283],[26.167871,35.215088],[26.285547,35.309766],[26.320215,35.315137],[26.298633,35.268604],[26.280859,35.159229],[26.255566,35.095166],[26.244336,35.044678],[26.165625,35.018604],[26.04668,35.01416],[25.829688,35.025195],[25.610938,35.007324],[25.205762,34.959277],[24.799805,34.934473],[24.745215,34.950635],[24.743945,35.014355],[24.735156,35.058301],[24.708887,35.089062],[24.583398,35.115332],[24.463672,35.160352],[23.994336,35.221924],[23.883594,35.246094],[23.703906,35.233496],[23.638086,35.235156],[23.592773,35.257227],[23.561621,35.295166],[23.547559,35.415576],[23.569824,35.534766],[23.608691,35.56626],[23.626563,35.530371],[23.672656,35.513916],[23.71543,35.550146],[23.715039,35.604736],[23.736914,35.655518],[23.770801,35.634229],[23.793359,35.556201],[23.852246,35.535449]]],[[[26.320898,41.716553],[26.410547,41.696338],[26.4625,41.663379],[26.49502,41.633252],[26.544531,41.607227],[26.581348,41.60127],[26.609766,41.512158],[26.624902,41.401758],[26.602344,41.35415],[26.536426,41.343115],[26.330664,41.23877],[26.325684,41.143262],[26.328418,41.097021],[26.332617,41.064307],[26.354102,41.036768],[26.354102,40.99707],[26.331055,40.954492],[26.241211,40.883203],[26.178906,40.826514],[26.10918,40.749658],[26.069727,40.740283],[26.038965,40.726758],[26.010742,40.769141],[25.855664,40.844092],[25.496777,40.887793],[25.325293,40.943115],[25.250098,40.932812],[25.104492,40.994727],[25.004688,40.967529],[24.792969,40.85752],[24.678711,40.869482],[24.556543,40.935596],[24.477051,40.947754],[24.383789,40.912744],[24.234375,40.786133],[24.082324,40.724072],[23.946094,40.74834],[23.762793,40.747803],[23.743262,40.677002],[23.778711,40.627979],[23.878906,40.544385],[23.831934,40.481543],[23.866797,40.418555],[23.932031,40.405762],[24.030566,40.409326],[24.212793,40.327783],[24.29248,40.241797],[24.343359,40.147705],[24.232422,40.215186],[24.158789,40.280029],[24.056055,40.303564],[23.913184,40.358789],[23.823438,40.368018],[23.72793,40.329736],[23.720508,40.286279],[23.823438,40.205127],[23.917578,40.155225],[23.96748,40.114551],[24.000781,40.024609],[23.981836,39.994043],[23.94707,39.965576],[23.835352,40.022266],[23.664551,40.223828],[23.42627,40.263965],[23.386426,40.221973],[23.433203,40.11543],[23.46709,40.073926],[23.674121,39.958887],[23.65752,39.934473],[23.627344,39.924072],[23.395605,39.989844],[23.328223,40.089941],[23.312012,40.216455],[23.098145,40.304297],[22.896484,40.399902],[22.851367,40.490625],[22.892871,40.524268],[22.922266,40.590869],[22.811426,40.578613],[22.741895,40.536475],[22.629492,40.495557],[22.624902,40.428613],[22.642676,40.366602],[22.605469,40.276416],[22.569336,40.119336],[22.592188,40.036914],[22.835742,39.800586],[22.919043,39.628906],[22.978809,39.563818],[23.103418,39.492041],[23.233398,39.358447],[23.288477,39.288818],[23.327734,39.174902],[23.218359,39.104395],[23.154688,39.101465],[23.119434,39.132764],[23.16875,39.210449],[23.161719,39.257764],[22.992871,39.331055],[22.921387,39.306348],[22.838965,39.258594],[22.886035,39.169971],[22.938965,39.111523],[22.965527,39.030908],[23.066699,39.037939],[22.930469,38.947705],[22.802637,38.901611],[22.676855,38.898926],[22.596777,38.890576],[22.569141,38.86748],[22.634277,38.850684],[22.6875,38.84917],[22.774023,38.800391],[23.020313,38.741895],[23.137695,38.667969],[23.25293,38.66123],[23.368945,38.525537],[23.569629,38.489404],[23.683984,38.352441],[23.836035,38.325488],[23.966992,38.275],[24.005371,38.226807],[24.024512,38.139795],[24.033008,37.955322],[24.061328,37.81792],[24.062305,37.774512],[24.055371,37.709619],[24.019727,37.677734],[23.971582,37.676758],[23.877344,37.777783],[23.732813,37.884082],[23.580469,38.010547],[23.537207,38.032764],[23.501758,38.034863],[23.420215,37.99209],[23.193652,37.959033],[23.087402,37.912842],[23.047461,37.902637],[23.036328,37.878369],[23.086133,37.853125],[23.147168,37.795312],[23.147168,37.71626],[23.197559,37.620215],[23.262695,37.59541],[23.347559,37.597559],[23.396191,37.579785],[23.408789,37.541553],[23.458105,37.496924],[23.490625,37.463867],[23.489258,37.440186],[23.252539,37.377295],[23.203027,37.348535],[23.161523,37.333838],[23.1,37.36377],[23.096484,37.440576],[23.015137,37.481787],[22.940527,37.51709],[22.851074,37.532227],[22.775,37.585107],[22.725391,37.542139],[22.765039,37.393311],[22.851074,37.29082],[22.99502,37.015869],[23.060352,36.853516],[23.073535,36.774951],[23.041016,36.644531],[23.111719,36.547607],[23.160156,36.448096],[23.106836,36.451855],[23.060547,36.486963],[22.98291,36.528369],[22.832324,36.687109],[22.779883,36.786182],[22.717188,36.793945],[22.608398,36.779736],[22.489063,36.568164],[22.489453,36.446924],[22.427734,36.475781],[22.374805,36.513574],[22.38125,36.646191],[22.375977,36.701904],[22.231152,36.882568],[22.164746,36.902832],[22.133789,36.963916],[22.080469,37.028955],[22.011719,37.016504],[21.955566,36.990088],[21.940039,36.891797],[21.934277,36.803662],[21.892383,36.737305],[21.738086,36.863232],[21.58291,37.080957],[21.578809,37.200391],[21.69248,37.309277],[21.678906,37.387207],[21.571289,37.541016],[21.416211,37.639941],[21.329297,37.669336],[21.288477,37.774512],[21.205273,37.828857],[21.137988,37.85415],[21.124707,37.891602],[21.14502,37.919287],[21.308105,38.027441],[21.403711,38.19668],[21.451172,38.204736],[21.54873,38.1646],[21.658398,38.175098],[21.748438,38.274219],[21.824707,38.328125],[21.95332,38.321191],[22.24375,38.188721],[22.555859,38.113232],[22.711523,38.046924],[22.799609,37.981201],[22.846387,37.967578],[22.920313,37.958301],[22.916992,38.007471],[22.893164,38.050928],[22.954785,38.074609],[23.12207,38.07334],[23.152539,38.096387],[23.183496,38.133691],[23.148926,38.176074],[23.093555,38.196436],[23.034375,38.2021],[22.99541,38.215527],[22.93252,38.201953],[22.834375,38.234717],[22.783691,38.261719],[22.753906,38.289502],[22.583398,38.344922],[22.42168,38.438525],[22.385254,38.385547],[22.319922,38.356836],[22.226855,38.352832],[21.965332,38.412451],[21.804688,38.366943],[21.71709,38.355029],[21.650098,38.354004],[21.567676,38.333594],[21.472559,38.321387],[21.390137,38.407812],[21.355469,38.474805],[21.331055,38.487305],[21.329785,38.424365],[21.30332,38.373926],[21.182617,38.345557],[21.113184,38.384668],[21.059766,38.503271],[20.992188,38.654004],[20.873242,38.775732],[20.776855,38.80752],[20.768555,38.874414],[20.777344,38.927881],[20.893164,38.941113],[21.074219,38.885156],[21.111621,38.896289],[21.152344,38.92207],[21.144531,38.979199],[21.118359,39.02998],[21.068555,39.032275],[21.034082,39.02627],[20.922754,39.036768],[20.779688,39.008545],[20.713379,39.035156],[20.691309,39.06748],[20.57168,39.147705],[20.468262,39.255273],[20.300781,39.3271],[20.191406,39.545801],[20.099414,39.64126],[20.00127,39.709424],[20.022559,39.710693],[20.059766,39.699121],[20.131055,39.661621],[20.206836,39.653516],[20.248242,39.678369],[20.27207,39.701172],[20.287598,39.738574],[20.293848,39.782227],[20.306152,39.79668],[20.364063,39.791748],[20.382422,39.802637],[20.381641,39.841797],[20.344238,39.890625],[20.311328,39.950781],[20.311133,39.979443],[20.338477,39.991064],[20.383691,40.017187],[20.408008,40.049463],[20.456055,40.065576],[20.527051,40.068506],[20.60625,40.082666],[20.657422,40.117383],[20.664941,40.151758],[20.696973,40.246387],[20.717871,40.292676],[20.75166,40.334912],[20.77002,40.391895],[20.806055,40.445459],[20.881641,40.46792],[20.950195,40.494385],[21.001953,40.563379],[21.030859,40.622461],[21.031055,40.658643],[20.987891,40.717773],[20.955762,40.775293],[20.964258,40.849902],[21.1,40.856152],[21.147559,40.863135],[21.32373,40.867139],[21.404102,40.907178],[21.459668,40.903613],[21.575781,40.868945],[21.627539,40.896338],[21.779492,40.950439],[21.929492,41.107422],[21.993359,41.130957],[22.138867,41.140527],[22.184473,41.158643],[22.237695,41.155176],[22.400781,41.123389],[22.493555,41.118506],[22.603613,41.140186],[22.724805,41.178516],[22.755078,41.312744],[22.783887,41.331982],[22.859277,41.337354],[22.916016,41.336279],[23.025586,41.325635],[23.155957,41.32207],[23.239844,41.384961],[23.37207,41.389648],[23.433398,41.39873],[23.53584,41.386035],[23.635156,41.386768],[23.762305,41.412988],[23.880859,41.455957],[23.973535,41.452295],[24.011328,41.460059],[24.03291,41.469092],[24.056055,41.527246],[24.230371,41.530811],[24.289453,41.525049],[24.386719,41.523535],[24.487891,41.555225],[24.518262,41.552539],[24.569336,41.467383],[24.595996,41.442725],[24.651074,41.419971],[24.77373,41.356104],[24.795801,41.3729],[24.846875,41.394238],[24.993555,41.36499],[25.133398,41.315771],[25.251172,41.243555],[25.381934,41.264355],[25.527051,41.299805],[25.621484,41.310107],[25.723926,41.315039],[25.784961,41.33042],[25.92334,41.311914],[26.066406,41.350684],[26.135352,41.385742],[26.155176,41.434863],[26.143555,41.521533],[26.11123,41.608203],[26.076953,41.640186],[26.066016,41.673242],[26.085547,41.70415],[26.107422,41.725684],[26.200586,41.743799],[26.320898,41.716553]]]]}},{"type":"Feature","properties":{"id":"georgia","name":"Gürcistan","iso3":"GEO","source":"Natural Earth 1:50m Admin 0 Countries"},"geometry":{"type":"Polygon","coordinates":[[[43.439453,41.107129],[43.441602,41.125977],[43.433398,41.155518],[43.402344,41.176562],[43.358984,41.190137],[43.279297,41.185205],[43.205469,41.19917],[43.152832,41.236426],[43.141016,41.264844],[43.171289,41.287939],[43.149023,41.307129],[43.057129,41.352832],[42.906738,41.466846],[42.82168,41.492383],[42.787891,41.563721],[42.754102,41.578906],[42.682422,41.585742],[42.606836,41.578809],[42.59043,41.570703],[42.567383,41.559277],[42.50791,41.470068],[42.466406,41.439844],[42.364355,41.454004],[42.27998,41.475],[42.211133,41.486719],[42.077734,41.494092],[41.925781,41.495654],[41.823535,41.432373],[41.779395,41.440527],[41.701758,41.471582],[41.576563,41.497314],[41.510059,41.51748],[41.701758,41.70542],[41.758789,41.817139],[41.760742,41.884863],[41.762988,41.97002],[41.663281,42.146875],[41.577734,42.397852],[41.48877,42.659326],[41.419434,42.737646],[41.128711,42.828125],[41.061621,42.930859],[40.836621,43.063477],[40.524023,43.121045],[40.462109,43.145703],[40.190625,43.312402],[39.97832,43.419824],[40.02373,43.484863],[40.08457,43.553125],[40.150195,43.569775],[40.342285,43.542725],[40.518945,43.512012],[40.648047,43.533887],[40.80166,43.479932],[40.941992,43.418066],[41.083105,43.374463],[41.358203,43.333398],[41.460742,43.276318],[41.580566,43.219238],[42.05,43.190137],[42.087793,43.199121],[42.122266,43.207324],[42.279688,43.228076],[42.419043,43.224219],[42.566016,43.155127],[42.660254,43.159082],[42.760645,43.16958],[42.890039,43.132617],[42.991602,43.091504],[43.000195,43.049658],[43.08916,42.989062],[43.347949,42.89668],[43.557813,42.844482],[43.623047,42.807715],[43.782617,42.747021],[43.79873,42.727783],[43.79541,42.702979],[43.749902,42.65752],[43.738379,42.616992],[43.759863,42.593848],[43.825977,42.571533],[43.957422,42.566553],[44.004688,42.595605],[44.102734,42.616357],[44.199707,42.653613],[44.329492,42.703516],[44.505859,42.748633],[44.576465,42.748486],[44.644336,42.734717],[44.691797,42.709619],[44.771094,42.616797],[44.850488,42.746826],[44.870996,42.756396],[44.943359,42.730273],[45.071582,42.694141],[45.160254,42.675],[45.208203,42.648242],[45.34375,42.529785],[45.562891,42.535742],[45.655566,42.517676],[45.705273,42.498096],[45.727539,42.475049],[45.688379,42.357373],[45.634277,42.234717],[45.638574,42.205078],[45.726562,42.158887],[45.845996,42.109961],[45.910352,42.070703],[45.954004,42.0354],[46.048438,42.00874],[46.159766,41.992041],[46.212695,41.989893],[46.267773,41.960352],[46.411523,41.904639],[46.429883,41.890967],[46.405469,41.855078],[46.348242,41.790186],[46.302539,41.75708],[46.251855,41.751758],[46.201855,41.736865],[46.184277,41.702148],[46.182129,41.65708],[46.190527,41.624854],[46.203516,41.612598],[46.254688,41.602148],[46.305469,41.507715],[46.384961,41.459863],[46.508789,41.405566],[46.618945,41.34375],[46.672559,41.286816],[46.662402,41.245508],[46.626367,41.159668],[46.534375,41.088574],[46.45791,41.070215],[46.430957,41.077051],[46.380762,41.099316],[46.27998,41.154443],[46.170703,41.197852],[46.086523,41.183838],[46.03125,41.167285],[45.921973,41.186719],[45.792773,41.224414],[45.725488,41.261621],[45.695703,41.289014],[45.715625,41.337646],[45.422266,41.425293],[45.280957,41.449561],[45.217188,41.423193],[45.001367,41.290967],[44.975879,41.27749],[44.811328,41.259375],[44.810938,41.248584],[44.848535,41.220166],[44.841406,41.211377],[44.564844,41.208203],[44.473047,41.191016],[44.227344,41.21333],[44.146484,41.203369],[44.077246,41.18252],[43.90918,41.158984],[43.793164,41.131104],[43.64502,41.11665],[43.491992,41.115527],[43.439453,41.107129]]]}},{"type":"Feature","properties":{"id":"bulgaria","name":"Bulgaristan","iso3":"BGR","source":"Natural Earth 1:50m Admin 0 Countries"},"geometry":{"type":"Polygon","coordinates":[[[28.014453,41.969043],[27.879199,41.986621],[27.831934,41.981299],[27.80166,41.956543],[27.738867,41.961523],[27.661133,41.961328],[27.579883,41.93291],[27.534863,41.920801],[27.474805,41.946875],[27.362891,42.025049],[27.294922,42.079541],[27.244336,42.093262],[27.193359,42.0771],[27.011719,42.058643],[26.96875,42.026855],[26.884863,41.991846],[26.800391,41.975146],[26.679199,41.96333],[26.615332,41.964893],[26.579688,41.947949],[26.549707,41.896729],[26.529297,41.84668],[26.511426,41.826367],[26.360352,41.801562],[26.327246,41.772803],[26.317969,41.744678],[26.320898,41.716553],[26.200586,41.743799],[26.107422,41.725684],[26.085547,41.70415],[26.066016,41.673242],[26.076953,41.640186],[26.11123,41.608203],[26.143555,41.521533],[26.155176,41.434863],[26.135352,41.385742],[26.066406,41.350684],[25.92334,41.311914],[25.784961,41.33042],[25.723926,41.315039],[25.621484,41.310107],[25.527051,41.299805],[25.381934,41.264355],[25.251172,41.243555],[25.133398,41.315771],[24.993555,41.36499],[24.846875,41.394238],[24.795801,41.3729],[24.77373,41.356104],[24.651074,41.419971],[24.595996,41.442725],[24.569336,41.467383],[24.518262,41.552539],[24.487891,41.555225],[24.386719,41.523535],[24.289453,41.525049],[24.230371,41.530811],[24.056055,41.527246],[24.03291,41.469092],[24.011328,41.460059],[23.973535,41.452295],[23.880859,41.455957],[23.762305,41.412988],[23.635156,41.386768],[23.53584,41.386035],[23.433398,41.39873],[23.37207,41.389648],[23.239844,41.384961],[23.155957,41.32207],[23.025586,41.325635],[22.916016,41.336279],[22.929688,41.356104],[22.951465,41.605615],[23.005664,41.716943],[23.003613,41.739844],[22.991992,41.757178],[22.943945,41.775098],[22.90918,41.835205],[22.836816,41.993604],[22.796094,42.025684],[22.682324,42.059131],[22.582715,42.104834],[22.498242,42.165088],[22.344043,42.313965],[22.42207,42.328857],[22.445703,42.359131],[22.523535,42.440967],[22.532422,42.481201],[22.524219,42.503906],[22.47207,42.543311],[22.43623,42.629102],[22.463281,42.709473],[22.465625,42.750781],[22.439258,42.79165],[22.466797,42.84248],[22.522754,42.870312],[22.558105,42.878467],[22.706152,42.883936],[22.799902,42.985742],[22.856836,43.018262],[22.915234,43.075977],[22.942285,43.09707],[22.967969,43.142041],[22.976855,43.187988],[22.85957,43.252344],[22.819727,43.300732],[22.767578,43.35415],[22.696973,43.391064],[22.55459,43.454492],[22.499121,43.518848],[22.474121,43.602246],[22.436328,43.665479],[22.394824,43.706641],[22.386914,43.740137],[22.369629,43.781299],[22.36543,43.862109],[22.399023,43.969531],[22.420801,44.007422],[22.469043,44.018018],[22.597461,44.075293],[22.603418,44.148584],[22.626563,44.194092],[22.66748,44.220215],[22.705078,44.237793],[22.775195,44.195215],[22.94541,44.127295],[23.028516,44.077979],[23.024414,44.047217],[22.985352,44.016992],[22.911328,43.987207],[22.868262,43.9479],[22.856445,43.899023],[22.867676,43.864551],[22.919043,43.834473],[23.224609,43.873877],[23.53457,43.853564],[23.950781,43.78667],[24.226758,43.763477],[24.430566,43.794385],[24.808203,43.738428],[25.159668,43.686328],[25.49707,43.670801],[25.686133,43.711768],[25.818848,43.766846],[25.933398,43.870557],[26.21582,44.007275],[26.489258,44.083984],[26.847754,44.146191],[27.086914,44.167383],[27.120703,44.146143],[27.425391,44.020508],[27.561035,44.020068],[27.670898,43.997803],[27.710742,43.9646],[27.738574,43.956299],[27.884277,43.987354],[27.948926,43.918604],[28.05,43.822412],[28.221973,43.772852],[28.375195,43.744775],[28.423438,43.740479],[28.585352,43.742236],[28.561816,43.501318],[28.46543,43.389307],[28.319629,43.426855],[28.133691,43.395605],[28.035156,43.268262],[27.979297,43.230518],[27.928906,43.186133],[27.896484,43.020703],[27.888867,42.749707],[27.818359,42.71665],[27.753711,42.706543],[27.484766,42.468066],[27.639551,42.400977],[27.708203,42.349951],[27.821387,42.208008],[27.982715,42.047412],[28.014453,41.969043]]]}},{"type":"Feature","properties":{"id":"azerbaijan","name":"Azerbaycan · Nahçıvan","iso3":"AZE","source":"Natural Earth 1:50m Admin 0 Countries"},"geometry":{"type":"MultiPolygon","coordinates":[[[[44.817188,39.650439],[44.783398,39.684668],[44.768262,39.703516],[44.867188,39.719141],[45.031641,39.765137],[45.076465,39.742822],[45.124609,39.696338],[45.148633,39.656592],[45.152832,39.582666],[45.172559,39.570605],[45.252539,39.595459],[45.288281,39.565576],[45.349902,39.529883],[45.456836,39.494482],[45.610742,39.549805],[45.687402,39.564062],[45.750488,39.562939],[45.784473,39.545605],[45.796484,39.488135],[45.78418,39.417236],[45.766309,39.378467],[45.798633,39.350195],[45.925,39.281934],[45.977441,39.243896],[45.951855,39.178125],[46.045898,39.017529],[46.077441,38.954883],[46.114453,38.877783],[45.921875,38.90791],[45.575,38.972803],[45.479688,39.00625],[45.389258,39.095898],[45.335547,39.13916],[45.255957,39.194678],[45.190625,39.215625],[45.141211,39.254297],[45.113086,39.311572],[45.07168,39.362891],[45.000195,39.423535],[44.838184,39.629102],[44.817188,39.650439]]],[[[48.86875,38.435498],[48.840332,38.437256],[48.635547,38.39873],[48.592676,38.411084],[48.417383,38.58623],[48.38125,38.605615],[48.305566,38.613477],[48.261328,38.642285],[48.225195,38.689209],[48.204688,38.724121],[48.023242,38.819043],[47.996484,38.85376],[47.992676,38.884277],[48.019336,38.911816],[48.050098,38.93501],[48.138574,38.958643],[48.241992,38.978955],[48.275098,38.993604],[48.29209,39.018848],[48.291016,39.059277],[48.274121,39.099121],[48.125488,39.171631],[48.10918,39.202832],[48.104395,39.241113],[48.112891,39.281104],[48.136035,39.312354],[48.257227,39.35498],[48.322168,39.399072],[48.281738,39.44834],[48.151074,39.560547],[47.995898,39.683936],[47.892285,39.685059],[47.772852,39.648584],[47.581836,39.543359],[47.476172,39.49834],[47.338477,39.423877],[47.188379,39.340967],[47.06543,39.252881],[46.988867,39.180176],[46.852539,39.148438],[46.783203,39.087402],[46.554785,38.904395],[46.490625,38.906689],[46.486719,38.997461],[46.489844,39.069434],[46.475391,39.110889],[46.401465,39.167676],[46.400293,39.192187],[46.420313,39.207373],[46.477148,39.198193],[46.55,39.201416],[46.584766,39.223682],[46.506641,39.298535],[46.437305,39.348535],[46.378418,39.382275],[46.365234,39.40249],[46.365137,39.416797],[46.377637,39.433887],[46.478125,39.475098],[46.488086,39.512842],[46.481445,39.555176],[46.32168,39.617432],[46.202051,39.594482],[46.094824,39.664453],[46.025879,39.718555],[45.939941,39.776562],[45.863184,39.80835],[45.789648,39.881104],[45.661816,39.956201],[45.579785,39.977539],[45.580957,39.989014],[45.595996,40.002832],[45.630176,40.014209],[45.858105,40.011279],[45.885938,40.024854],[45.900098,40.05708],[45.93125,40.104687],[45.967578,40.174805],[45.964648,40.233789],[45.735742,40.329102],[45.569531,40.416846],[45.454395,40.532373],[45.376172,40.638086],[45.378906,40.673584],[45.401367,40.707129],[45.579395,40.804492],[45.591406,40.829736],[45.5875,40.846924],[45.524023,40.896729],[45.444238,40.947998],[45.419141,40.985693],[45.368945,41.004883],[45.273438,41.00625],[45.106055,41.069336],[45.070508,41.075586],[45.062598,41.088135],[45.070703,41.10083],[45.190234,41.126367],[45.188574,41.147412],[45.152344,41.175146],[45.084766,41.195459],[45.022949,41.245703],[45.001367,41.290967],[45.217188,41.423193],[45.280957,41.449561],[45.422266,41.425293],[45.715625,41.337646],[45.695703,41.289014],[45.725488,41.261621],[45.792773,41.224414],[45.921973,41.186719],[46.03125,41.167285],[46.086523,41.183838],[46.170703,41.197852],[46.27998,41.154443],[46.380762,41.099316],[46.430957,41.077051],[46.45791,41.070215],[46.534375,41.088574],[46.626367,41.159668],[46.662402,41.245508],[46.672559,41.286816],[46.618945,41.34375],[46.508789,41.405566],[46.384961,41.459863],[46.305469,41.507715],[46.254688,41.602148],[46.203516,41.612598],[46.190527,41.624854],[46.182129,41.65708],[46.184277,41.702148],[46.201855,41.736865],[46.251855,41.751758],[46.302539,41.75708],[46.348242,41.790186],[46.405469,41.855078],[46.429883,41.890967],[46.537695,41.87041],[46.552148,41.812305],[46.571289,41.800098],[46.616016,41.806934],[46.690332,41.831348],[46.749316,41.812598],[46.825586,41.743408],[46.930859,41.67041],[46.987793,41.621387],[47.010156,41.5875],[47.063965,41.554688],[47.142578,41.516064],[47.205273,41.455615],[47.261133,41.315088],[47.317676,41.282422],[47.520605,41.229053],[47.591797,41.218115],[47.791016,41.199268],[47.861133,41.212744],[47.963672,41.333984],[48.056055,41.458691],[48.142285,41.484766],[48.298145,41.54502],[48.391406,41.601904],[48.430664,41.66333],[48.518652,41.779346],[48.572852,41.844482],[48.664648,41.786621],[48.823926,41.62959],[49.050879,41.373975],[49.106641,41.301709],[49.143262,41.217773],[49.174707,41.116113],[49.226465,41.026221],[49.456738,40.799854],[49.556152,40.716309],[49.718359,40.608105],[49.775977,40.583984],[49.851758,40.577197],[49.990625,40.576807],[50.119141,40.534521],[50.18252,40.504785],[50.248047,40.461768],[50.306836,40.412207],[50.365918,40.279492],[50.143164,40.323242],[49.918848,40.316406],[49.791992,40.287891],[49.669043,40.249023],[49.551172,40.194141],[49.477344,40.087256],[49.415137,39.839844],[49.324414,39.60835],[49.327539,39.501221],[49.367383,39.398389],[49.362793,39.349561],[49.321191,39.328906],[49.269336,39.285156],[49.199805,39.072656],[49.165332,39.030273],[49.120996,39.003906],[49.108691,39.029053],[49.111328,39.084717],[49.013477,39.133984],[48.961719,39.07876],[48.926172,38.961768],[48.854492,38.838818],[48.850879,38.815332],[48.86875,38.435498]],[[45.552344,40.616064],[45.562305,40.64917],[45.53418,40.664014],[45.504492,40.664844],[45.478809,40.64834],[45.478809,40.606982],[45.514355,40.599561],[45.552344,40.616064]]],[[[45.023633,41.027246],[45.002051,41.01582],[44.969043,41.027246],[44.958887,41.052637],[44.961426,41.079248],[44.994336,41.085596],[45.021094,41.077979],[45.028711,41.053857],[45.023633,41.027246]]]]}},{"type":"Feature","properties":{"id":"armenia","name":"Ermenistan","iso3":"ARM","source":"Natural Earth 1:50m Admin 0 Countries"},"geometry":{"type":"MultiPolygon","coordinates":[[[[44.768262,39.703516],[44.733789,39.746484],[44.560449,39.887598],[44.399609,39.995752],[44.289258,40.040381],[44.178027,40.035742],[44.005371,40.014111],[43.941992,40.023145],[43.791699,40.070264],[43.666211,40.126367],[43.683301,40.149658],[43.709863,40.166504],[43.678125,40.239307],[43.608398,40.356592],[43.61582,40.393311],[43.59375,40.444043],[43.569336,40.482373],[43.667871,40.574072],[43.712891,40.647754],[43.722656,40.719531],[43.696484,40.794141],[43.631641,40.929004],[43.591699,40.968213],[43.51748,41.004834],[43.455273,41.064697],[43.439453,41.107129],[43.491992,41.115527],[43.64502,41.11665],[43.793164,41.131104],[43.90918,41.158984],[44.077246,41.18252],[44.146484,41.203369],[44.227344,41.21333],[44.473047,41.191016],[44.564844,41.208203],[44.841406,41.211377],[44.848535,41.220166],[44.810938,41.248584],[44.811328,41.259375],[44.975879,41.27749],[45.001367,41.290967],[45.022949,41.245703],[45.084766,41.195459],[45.152344,41.175146],[45.188574,41.147412],[45.190234,41.126367],[45.070703,41.10083],[45.062598,41.088135],[45.070508,41.075586],[45.106055,41.069336],[45.273438,41.00625],[45.368945,41.004883],[45.419141,40.985693],[45.444238,40.947998],[45.524023,40.896729],[45.5875,40.846924],[45.591406,40.829736],[45.579395,40.804492],[45.401367,40.707129],[45.378906,40.673584],[45.376172,40.638086],[45.454395,40.532373],[45.569531,40.416846],[45.735742,40.329102],[45.964648,40.233789],[45.967578,40.174805],[45.93125,40.104687],[45.900098,40.05708],[45.885938,40.024854],[45.858105,40.011279],[45.630176,40.014209],[45.595996,40.002832],[45.580957,39.989014],[45.579785,39.977539],[45.661816,39.956201],[45.789648,39.881104],[45.863184,39.80835],[45.939941,39.776562],[46.025879,39.718555],[46.094824,39.664453],[46.202051,39.594482],[46.32168,39.617432],[46.481445,39.555176],[46.488086,39.512842],[46.478125,39.475098],[46.377637,39.433887],[46.365137,39.416797],[46.365234,39.40249],[46.378418,39.382275],[46.437305,39.348535],[46.506641,39.298535],[46.584766,39.223682],[46.55,39.201416],[46.477148,39.198193],[46.420313,39.207373],[46.400293,39.192187],[46.401465,39.167676],[46.475391,39.110889],[46.489844,39.069434],[46.486719,38.997461],[46.490625,38.906689],[46.317773,38.912646],[46.170117,38.869043],[46.114453,38.877783],[46.077441,38.954883],[46.045898,39.017529],[45.951855,39.178125],[45.977441,39.243896],[45.925,39.281934],[45.798633,39.350195],[45.766309,39.378467],[45.78418,39.417236],[45.796484,39.488135],[45.784473,39.545605],[45.750488,39.562939],[45.687402,39.564062],[45.610742,39.549805],[45.456836,39.494482],[45.349902,39.529883],[45.288281,39.565576],[45.252539,39.595459],[45.172559,39.570605],[45.152832,39.582666],[45.148633,39.656592],[45.124609,39.696338],[45.076465,39.742822],[45.031641,39.765137],[44.867188,39.719141],[44.768262,39.703516]],[[45.023633,41.027246],[45.028711,41.053857],[45.021094,41.077979],[44.994336,41.085596],[44.961426,41.079248],[44.958887,41.052637],[44.969043,41.027246],[45.002051,41.01582],[45.023633,41.027246]]],[[[45.552344,40.616064],[45.514355,40.599561],[45.478809,40.606982],[45.478809,40.64834],[45.504492,40.664844],[45.53418,40.664014],[45.562305,40.64917],[45.552344,40.616064]]]]}}]}
