{"type":"FeatureCollection","features":[{"type":"Feature","properties":{"id":"van","name":"Van Gölü"},"geometry":{"type":"Polygon","coordinates":[[[42.2875377,38.505976],[42.2911594,38.4956436],[42.2990933,38.4861494],[42.3122058,38.4808074],[42.3349423,38.4944367],[42.3534952,38.4968368],[42.3653018,38.5055533],[42.3800518,38.4987793],[42.3848992,38.4924941],[42.4001698,38.4895813],[42.4160088,38.5039383],[42.4186261,38.511945],[42.4297847,38.5039283],[42.4365209,38.5054826],[42.4391901,38.5094745],[42.427721,38.5176141],[42.4392917,38.5171509],[42.4476247,38.5094543],[42.458389,38.5057623],[42.4599556,38.493762],[42.4556959,38.4861409],[42.4617548,38.4737347],[42.4683112,38.469455],[42.4822077,38.4740832],[42.5045352,38.466013],[42.5095583,38.4674108],[42.5100427,38.4728469],[42.5162175,38.475751],[42.5343432,38.4774115],[42.5333326,38.4858599],[42.5241427,38.4834628],[42.5298545,38.4883199],[42.5292754,38.4912372],[42.5258736,38.4942366],[42.5253944,38.4951082],[42.52545,38.4954526],[42.5386984,38.4916109],[42.5655949,38.5026112],[42.5700779,38.5001117],[42.5680344,38.4953886],[42.5715937,38.491166],[42.5879128,38.4849766],[42.608065,38.4849566],[42.6174219,38.4814839],[42.6244104,38.4829373],[42.6250045,38.4873348],[42.633829,38.481223],[42.6599466,38.4776285],[42.6658545,38.4716337],[42.6628069,38.4681351],[42.6676436,38.4637564],[42.6649857,38.4608074],[42.6767242,38.451025],[42.6727357,38.4470864],[42.6715026,38.4380656],[42.6902961,38.4291687],[42.6972082,38.4359211],[42.704298,38.4358659],[42.7088371,38.4427075],[42.7239351,38.4375399],[42.7337077,38.4404774],[42.740139,38.4376076],[42.7492994,38.440958],[42.7770586,38.4425],[42.7807979,38.4477817],[42.7902567,38.4509043],[42.7934966,38.4563352],[42.7872721,38.4602217],[42.7899925,38.4630528],[42.7884328,38.4668341],[42.7794764,38.4657207],[42.7870606,38.4756054],[42.8027987,38.4732942],[42.8080878,38.4695702],[42.828843,38.4681404],[42.8519878,38.4734884],[42.8558756,38.4811836],[42.8538476,38.4903235],[42.8459185,38.4957857],[42.8453703,38.5011694],[42.8503902,38.4988011],[42.8532793,38.5026894],[42.8612515,38.5017034],[42.8663074,38.5045869],[42.8752895,38.4997187],[42.8759741,38.4949147],[42.8613862,38.4938298],[42.8631103,38.488091],[42.8591174,38.4840625],[42.8610174,38.4802149],[42.8780422,38.4731619],[42.8802261,38.4694088],[42.8619678,38.4683284],[42.862002,38.461636],[42.8686845,38.4559412],[42.8558719,38.454838],[42.8558386,38.4510158],[42.8713033,38.4469383],[42.8807065,38.4503796],[42.8847642,38.4446541],[42.8948455,38.447004],[42.9040763,38.4423309],[42.9216582,38.449227],[42.9126962,38.4396208],[42.9308615,38.4342896],[42.9268811,38.4302624],[42.9238067,38.4333723],[42.9163517,38.43067],[42.9160503,38.4243368],[42.9229825,38.4207283],[42.9236786,38.4167413],[42.919017,38.4111742],[42.9128695,38.4183107],[42.9147688,38.4233843],[42.9070079,38.4241047],[42.907251,38.4285181],[42.8987762,38.4310608],[42.8926428,38.4259821],[42.8926165,38.4188123],[42.8999368,38.4162451],[42.8992558,38.4129511],[42.8946356,38.412403],[42.8947345,38.4050448],[42.9073456,38.405348],[42.9086977,38.3981271],[42.9187016,38.395704],[42.9252348,38.3858596],[42.9243238,38.3822777],[42.9415105,38.3723784],[42.9289098,38.366126],[42.9285457,38.3619472],[42.9430186,38.3474454],[42.9211995,38.34381],[42.9212236,38.3280533],[42.9235904,38.3256411],[42.9479793,38.3293126],[42.9546457,38.3344503],[42.9677251,38.3349571],[42.9801612,38.3296508],[42.9824075,38.3214881],[42.9922042,38.3181489],[42.9970403,38.3108027],[43.0064012,38.3082508],[43.0502174,38.3101167],[43.056635,38.3118271],[43.0567968,38.3152954],[43.0602098,38.3110598],[43.0654648,38.3106943],[43.0955621,38.3198846],[43.1193457,38.3150252],[43.1212346,38.3097946],[43.1275435,38.3097111],[43.1420808,38.3171226],[43.1498518,38.325742],[43.1487972,38.3398899],[43.1398518,38.3461875],[43.1529658,38.3545293],[43.1567853,38.3604947],[43.1527935,38.3574687],[43.1415913,38.3588111],[43.1432033,38.3573499],[43.1400604,38.3483257],[43.1358028,38.3430559],[43.1383456,38.3421901],[43.1429977,38.3367007],[43.1349957,38.3431497],[43.1409059,38.3599437],[43.14483,38.3638555],[43.178609,38.3843999],[43.2085063,38.4073975],[43.2283416,38.4115474],[43.2438705,38.4260911],[43.2573876,38.4285967],[43.2713307,38.4245439],[43.2764747,38.4283371],[43.2842452,38.4229547],[43.2973257,38.42685],[43.31027,38.4341841],[43.3199628,38.4536688],[43.3190542,38.5083327],[43.3125586,38.5183591],[43.3055051,38.513814],[43.3140149,38.5197869],[43.3166533,38.5263128],[43.3177447,38.5406001],[43.310382,38.5525689],[43.3043624,38.5560283],[43.2776507,38.5591099],[43.2533897,38.5722694],[43.2112717,38.5848661],[43.1898898,38.6141931],[43.1755349,38.6245335],[43.160702,38.6257882],[43.1206767,38.6181724],[43.1153239,38.615149],[43.1142059,38.6090035],[43.1074169,38.6136592],[43.0970129,38.6149717],[43.1019837,38.6207639],[43.1265752,38.6230171],[43.1478502,38.638588],[43.1623969,38.6666071],[43.1648943,38.6801549],[43.1769783,38.6866621],[43.1785722,38.6929964],[43.1844623,38.6985377],[43.2002646,38.7076378],[43.2039093,38.7219362],[43.2018947,38.7370774],[43.2055121,38.740972],[43.2030745,38.7514702],[43.2136419,38.7532756],[43.2305729,38.7647904],[43.287349,38.7803324],[43.2934482,38.7949477],[43.2899367,38.8067082],[43.291242,38.8158867],[43.3004793,38.8251983],[43.3019137,38.8345221],[43.309683,38.8415563],[43.3492961,38.8485999],[43.3701203,38.83258],[43.3789053,38.8338285],[43.3794502,38.8212797],[43.3863569,38.8177408],[43.3993898,38.8288781],[43.4003749,38.8364499],[43.3911452,38.837675],[43.3915034,38.8402487],[43.4027494,38.8470492],[43.4170139,38.8477735],[43.4261199,38.8540435],[43.4283336,38.8594485],[43.438062,38.8575569],[43.4485526,38.8676522],[43.4802662,38.8648556],[43.5202703,38.8832125],[43.5319476,38.8994714],[43.5332233,38.9118449],[43.5377247,38.9154909],[43.5503639,38.9168626],[43.5535286,38.9104215],[43.5615253,38.9082822],[43.5687954,38.9160424],[43.583685,38.9115423],[43.6035193,38.9233521],[43.6213793,38.9278383],[43.6352471,38.9249677],[43.6428468,38.929716],[43.6514711,38.9291986],[43.6539642,38.932146],[43.6423791,38.9316699],[43.6402025,38.9403939],[43.6475464,38.9413332],[43.6544837,38.9371949],[43.6506061,38.9412216],[43.6569361,38.9389246],[43.6540341,38.9423063],[43.6584362,38.940469],[43.6589612,38.9434663],[43.654374,38.943043],[43.6569801,38.9450345],[43.6567792,38.9463685],[43.641836,38.9464918],[43.6204628,38.9651031],[43.6112247,38.9580369],[43.6076982,38.9666201],[43.5877714,38.9659137],[43.5859926,38.9674744],[43.5893324,38.9708717],[43.5808475,38.9807336],[43.5681444,38.9835582],[43.5637978,38.9800142],[43.566852,38.9779685],[43.5646256,38.9761346],[43.5557867,38.9790056],[43.5439106,38.9779096],[43.5318352,38.9846784],[43.479048,38.9993828],[43.4546274,38.9962516],[43.4397458,39.0050189],[43.4312456,39.0046764],[43.419216,38.9955796],[43.3846081,38.9982228],[43.3697729,38.9814147],[43.3528205,38.9824741],[43.3490145,38.9707831],[43.3350999,38.9645185],[43.3197825,38.9714639],[43.3185035,38.9691797],[43.3012015,38.9749766],[43.3006523,38.9681846],[43.3122982,38.9639761],[43.309519,38.958293],[43.3155481,38.9539091],[43.3054494,38.9506302],[43.2830591,38.9589527],[43.2564603,38.9535228],[43.2393448,38.9601559],[43.2278296,38.9552154],[43.2234845,38.9455096],[43.2033211,38.9421549],[43.1915179,38.9358285],[43.1798759,38.9431006],[43.1279727,38.9458087],[43.1168288,38.935557],[43.0901547,38.9286767],[43.0753562,38.938641],[43.0568893,38.9371714],[43.0517028,38.9290096],[43.0560613,38.9219106],[43.0506555,38.9220596],[43.0468692,38.9156715],[43.0479433,38.9050183],[43.0500749,38.9012825],[43.0684095,38.9012939],[43.075804,38.8789609],[43.0839189,38.8752518],[43.0734792,38.8677817],[43.0789641,38.8556364],[43.0908639,38.8513265],[43.1041557,38.8522014],[43.1102785,38.8466428],[43.130337,38.8511814],[43.1434362,38.8590447],[43.1483652,38.864355],[43.1505766,38.8749162],[43.1416221,38.8893846],[43.1325817,38.8893856],[43.1103321,38.8779033],[43.1105882,38.8821151],[43.1164187,38.8850462],[43.1242504,38.8999285],[43.1358728,38.9036287],[43.1418324,38.8946322],[43.1616663,38.8976144],[43.1685823,38.889924],[43.1867811,38.8953088],[43.1973616,38.8902614],[43.1946494,38.8844323],[43.1756097,38.8768686],[43.1739011,38.868521],[43.1778494,38.8490796],[43.1598343,38.8422809],[43.1580486,38.834485],[43.1540442,38.8358155],[43.1516367,38.8307653],[43.1343614,38.8272696],[43.1165099,38.8118617],[43.0945936,38.805906],[43.0614945,38.7872731],[43.0285073,38.7821844],[43.012155,38.7891991],[43.0004983,38.7842532],[42.9970736,38.7745654],[42.9840093,38.7853461],[42.9677422,38.7867923],[42.9600231,38.7817186],[42.9404417,38.7776946],[42.9199134,38.7897963],[42.9019521,38.7952685],[42.8929374,38.7933022],[42.885498,38.785364],[42.8544527,38.7905243],[42.8374783,38.7815264],[42.8220908,38.7797951],[42.7834294,38.7902647],[42.7497567,38.7934109],[42.725288,38.7994473],[42.7125729,38.7957025],[42.7021047,38.7865971],[42.6990814,38.787873],[42.6889447,38.7820546],[42.6572979,38.7909111],[42.6163128,38.7767382],[42.6028585,38.7797527],[42.5827838,38.7680701],[42.5632279,38.7656285],[42.5514651,38.75871],[42.5242389,38.758093],[42.4877448,38.7496464],[42.4720192,38.7363835],[42.460087,38.7324568],[42.4461586,38.7332654],[42.4341976,38.7249711],[42.4275312,38.7105418],[42.4252349,38.693848],[42.4258915,38.6873805],[42.4353341,38.6763058],[42.4414342,38.6733765],[42.449021,38.6754064],[42.4462306,38.668438],[42.4549538,38.6643843],[42.4557911,38.6590317],[42.4606756,38.6551724],[42.4583646,38.6463377],[42.4538821,38.6458653],[42.4509846,38.6415831],[42.4546,38.6299164],[42.4613302,38.6286802],[42.4741792,38.6348085],[42.4838347,38.630995],[42.4902483,38.6190756],[42.4818963,38.6182393],[42.4781837,38.6222243],[42.467941,38.619183],[42.4549538,38.6228975],[42.4317386,38.6096315],[42.427964,38.6153644],[42.4200783,38.6184546],[42.4041582,38.6174285],[42.3959654,38.6039167],[42.3958842,38.591172],[42.4032851,38.5885655],[42.4058244,38.5838864],[42.4137631,38.5821393],[42.4165562,38.5793822],[42.41438,38.5760207],[42.4074887,38.5731029],[42.4041143,38.5766068],[42.3964835,38.5766929],[42.3899717,38.5850218],[42.3824163,38.5845217],[42.3789306,38.5795372],[42.3829378,38.5748691],[42.3779301,38.566732],[42.3796112,38.5644356],[42.3622662,38.5615014],[42.3566406,38.5558785],[42.3581053,38.5392386],[42.344142,38.5320029],[42.341349,38.5265983],[42.3223291,38.5295054],[42.3036162,38.5254247],[42.3002902,38.5207142],[42.3021703,38.5125747],[42.3001135,38.5105777],[42.2993213,38.5100482],[42.2967797,38.5094138],[42.3001812,38.5108141],[42.3012444,38.5142552],[42.297083,38.5116559],[42.2921795,38.5137512],[42.2875377,38.505976]],[[42.4636494,38.6420377],[42.4644106,38.6429897],[42.4655967,38.6429313],[42.4636494,38.6420377]],[[42.5704551,38.500519],[42.570439,38.5007121],[42.5705677,38.5006743],[42.5704551,38.500519]],[[42.6469069,38.4810735],[42.6468231,38.4816546],[42.6470387,38.4815327],[42.6469069,38.4810735]],[[42.8171029,38.4719021],[42.8164666,38.4723177],[42.8174463,38.4721897],[42.8171029,38.4719021]],[[42.8452602,38.5016829],[42.8456933,38.5026206],[42.8456069,38.5015114],[42.8452602,38.5016829]],[[42.9326881,38.4336278],[42.9328028,38.4341169],[42.9335164,38.4339872],[42.9326881,38.4336278]],[[42.9356768,38.4350527],[42.9361254,38.4357235],[42.9363598,38.4355238],[42.9356768,38.4350527]],[[42.9941082,38.3615599],[42.9925436,38.3635],[42.9952944,38.3628324],[42.9941082,38.3615599]],[[43.031578,38.3401771],[43.031675,38.3404161],[43.0318975,38.3403896],[43.031578,38.3401771]],[[43.0321024,38.3413772],[43.0372388,38.344084],[43.039459,38.3394979],[43.036638,38.3392566],[43.0321024,38.3413772]],[[43.0561545,38.3159446],[43.0561532,38.3160638],[43.0565127,38.31572],[43.0561545,38.3159446]],[[43.0857239,38.6045167],[43.0843458,38.6099644],[43.0877836,38.6112967],[43.0857239,38.6045167]],[[43.1020696,38.8546225],[43.1019322,38.8556794],[43.1026141,38.8548771],[43.1020696,38.8546225]],[[43.2880857,38.8150421],[43.2881324,38.8154018],[43.2882609,38.8153345],[43.2880857,38.8150421]],[[43.3109451,38.9517058],[43.3109313,38.9518136],[43.3110122,38.9517807],[43.3109451,38.9517058]],[[43.338753,38.8688982],[43.3481805,38.8718973],[43.365051,38.862748],[43.3509502,38.8641514],[43.338753,38.8688982]]]}},{"type":"Feature","properties":{"id":"tuz","name":"Tuz Gölü"},"geometry":{"type":"MultiPolygon","coordinates":[[[[33.177284,38.7919747],[33.1788678,38.7768185],[33.2077782,38.7847163],[33.2188784,38.7731319],[33.1879431,38.7558152],[33.1935242,38.7376659],[33.2046052,38.721517],[33.2358255,38.6944097],[33.2562606,38.6652085],[33.2763124,38.6565822],[33.2835796,38.6452668],[33.2845615,38.6336348],[33.2926673,38.6190091],[33.3166677,38.6029243],[33.3392339,38.5932833],[33.3873575,38.5894289],[33.4133056,38.5972696],[33.4570802,38.6242264],[33.4697198,38.6349081],[33.4951915,38.6685894],[33.5163045,38.6781731],[33.5213183,38.7168988],[33.5200107,38.7323988],[33.5037786,38.769763],[33.489638,38.7891189],[33.4763288,38.8029264],[33.4648061,38.7919914],[33.4159921,38.8343005],[33.4325115,38.8426009],[33.4160148,38.8525778],[33.4141512,38.8639631],[33.4038002,38.8609232],[33.4147152,38.8416161],[33.4029176,38.8374841],[33.3712783,38.8508715],[33.3639745,38.864485],[33.3649904,38.8827103],[33.3828646,38.8826472],[33.3829048,38.8916925],[33.4188759,38.891584],[33.4251898,38.9082123],[33.4099603,38.9094312],[33.403126,38.9041088],[33.399843,38.9095481],[33.3688527,38.9096566],[33.3690271,38.918733],[33.4254661,38.9185514],[33.4186962,38.9541277],[33.4138571,38.9562348],[33.4173202,38.9556754],[33.4241762,38.9635784],[33.4373275,38.9689706],[33.4508948,38.9899342],[33.4594142,38.9929953],[33.457888,39.0017073],[33.4418687,39.0184389],[33.4449782,39.0273015],[33.4435992,39.0336207],[33.4338132,39.0498386],[33.4236724,39.0568043],[33.4226897,39.0641535],[33.3991682,39.084422],[33.3607444,39.1086015],[33.3412454,39.126083],[33.3139747,39.1294661],[33.3032942,39.1262151],[33.3265801,39.1013987],[33.3343534,39.0716776],[33.377586,39.00146],[33.3777846,38.98137],[33.3695447,38.9689897],[33.3640382,38.9664392],[33.4135516,38.9563624],[33.3723664,38.9633506],[33.3752766,38.958008],[33.3729891,38.952815],[33.345368,38.9214939],[33.329671,38.9223035],[33.3151752,38.9147603],[33.2917226,38.9115355],[33.25149,38.8974668],[33.2511615,38.8960138],[33.2544123,38.8949857],[33.254824,38.8928339],[33.2400383,38.8846259],[33.2164047,38.8594632],[33.1879989,38.8100062],[33.1805724,38.8030748],[33.177284,38.7919747]],[[33.3410931,38.9115573],[33.3426487,38.9139892],[33.3473776,38.9176353],[33.3452506,38.9070127],[33.3410931,38.9115573]]],[[[33.5485101,38.7896878],[33.5517287,38.7818328],[33.5609257,38.7736756],[33.5869285,38.7595538],[33.6016014,38.7551754],[33.6098474,38.7456314],[33.6559295,38.6383944],[33.6534099,38.6034092],[33.6853965,38.5989371],[33.6921481,38.5947751],[33.695219,38.599257],[33.6982629,38.5966157],[33.7034664,38.5993068],[33.7081936,38.5951952],[33.7174911,38.5999661],[33.7248677,38.5990317],[33.6985928,38.6281288],[33.6901775,38.6270017],[33.6885352,38.6328804],[33.6920388,38.6374406],[33.687789,38.6476719],[33.6793233,38.6541959],[33.6809935,38.6596117],[33.6736543,38.6673581],[33.6712282,38.6833632],[33.6577173,38.6923234],[33.6608514,38.7004694],[33.6549439,38.7126294],[33.6370991,38.7269499],[33.6368182,38.7372387],[33.6439803,38.7539912],[33.6432657,38.7631221],[33.608801,38.8080596],[33.5901987,38.8212438],[33.5710698,38.8229567],[33.5658603,38.8271714],[33.560189,38.8258555],[33.5528013,38.8162422],[33.5485101,38.7896878]]],[[[33.6271312,38.5044182],[33.6295923,38.5004114],[33.6361186,38.4995756],[33.6445196,38.5086588],[33.6499108,38.5100719],[33.6533895,38.5073911],[33.6529791,38.5133213],[33.6583501,38.5194211],[33.6549613,38.5245874],[33.6475282,38.5239668],[33.6426811,38.5198931],[33.6427682,38.5137973],[33.6304599,38.5079835],[33.6271312,38.5044182]],[[33.628748,38.5045573],[33.6306484,38.5072137],[33.6340476,38.5070915],[33.6313257,38.502236],[33.628748,38.5045573]],[[33.6374143,38.5032982],[33.6369559,38.5058315],[33.6383823,38.5054038],[33.6374143,38.5032982]]],[[[33.6932351,38.5788862],[33.6952266,38.5765325],[33.6981942,38.5803582],[33.6985056,38.5768512],[33.7016901,38.5771648],[33.7055323,38.5835121],[33.7051012,38.5905582],[33.7008339,38.5850912],[33.6983487,38.5882699],[33.6934311,38.5877202],[33.696177,38.583531],[33.6932351,38.5788862]]]]}},{"type":"Feature","properties":{"id":"beysehir","name":"Beyşehir Gölü"},"geometry":{"type":"Polygon","coordinates":[[[31.3093051,37.9261768],[31.3242692,37.9102574],[31.3255835,37.9038228],[31.3390669,37.8950518],[31.3405669,37.8884801],[31.3451689,37.8858631],[31.3398162,37.8801236],[31.342411,37.87462],[31.3504762,37.870542],[31.3516854,37.864995],[31.3682081,37.8443407],[31.3798144,37.8369927],[31.3834061,37.8298278],[31.4084664,37.8060659],[31.4077268,37.8002279],[31.4158043,37.7946989],[31.4162093,37.7769516],[31.4247931,37.7640775],[31.4331753,37.7593501],[31.4343892,37.7515796],[31.4387227,37.7481221],[31.4409725,37.7487061],[31.4413999,37.7428172],[31.4532539,37.7262683],[31.4564849,37.7123488],[31.4627068,37.704933],[31.4605334,37.7008466],[31.4479834,37.696879],[31.4484709,37.6898698],[31.4440425,37.682267],[31.4492983,37.6775268],[31.4543987,37.6797062],[31.4589135,37.6765482],[31.4573161,37.6724814],[31.4630358,37.6654992],[31.4584377,37.6644407],[31.4581509,37.6599279],[31.4674616,37.6509979],[31.465167,37.647265],[31.4671565,37.6451762],[31.4589724,37.6450258],[31.4591661,37.6369551],[31.4534347,37.6330755],[31.4563069,37.6270318],[31.4526866,37.6210147],[31.4561936,37.6177748],[31.4528295,37.6089668],[31.4533023,37.5949529],[31.4655446,37.595357],[31.4696677,37.6023801],[31.4722532,37.6006346],[31.4777666,37.6050246],[31.4812401,37.603501],[31.4832678,37.595483],[31.488468,37.5997827],[31.4925177,37.5986314],[31.4926559,37.6010524],[31.491321,37.6021808],[31.4911931,37.6024985],[31.4913594,37.6026377],[31.4954189,37.5997268],[31.4946766,37.5967677],[31.5029304,37.5962895],[31.5027997,37.5903993],[31.5087126,37.594702],[31.5126139,37.5833215],[31.5158674,37.5827614],[31.5162429,37.5867032],[31.5214294,37.5862031],[31.5251365,37.5921469],[31.5219284,37.5997913],[31.5244454,37.6051088],[31.5208128,37.6031849],[31.5165628,37.6102114],[31.5134615,37.6094279],[31.5154279,37.6175169],[31.5126595,37.6201317],[31.5156367,37.6212627],[31.5129612,37.6244705],[31.5159428,37.6294458],[31.5234413,37.6272269],[31.5216435,37.6238195],[31.5257252,37.6232066],[31.5254194,37.6166516],[31.5287535,37.6177393],[31.5330085,37.6133323],[31.5370146,37.6194893],[31.5337846,37.625929],[31.542738,37.6281089],[31.5436048,37.6338019],[31.5642129,37.6327764],[31.6169056,37.6382444],[31.6329334,37.6432836],[31.6443184,37.6555535],[31.666089,37.6615937],[31.6706094,37.6578489],[31.6819055,37.6589934],[31.6886848,37.6563858],[31.710148,37.6659498],[31.7144387,37.673394],[31.7121816,37.6750128],[31.7149094,37.6736657],[31.7219145,37.6801801],[31.703504,37.6885877],[31.6835121,37.7076729],[31.6815233,37.7175634],[31.689379,37.7259042],[31.6795525,37.7306112],[31.6806811,37.7366141],[31.6688906,37.7248242],[31.6665217,37.7377764],[31.655566,37.7450856],[31.6552129,37.7629913],[31.6500462,37.7635329],[31.6451167,37.7487537],[31.6422531,37.7498384],[31.6436049,37.759762],[31.6385758,37.765643],[31.6513109,37.7755804],[31.6452294,37.7768497],[31.6518182,37.7829437],[31.6469773,37.7885486],[31.6403601,37.7913553],[31.624667,37.7908291],[31.6106594,37.7795979],[31.6127253,37.7736158],[31.6079173,37.7678846],[31.598108,37.7615606],[31.5992721,37.7674023],[31.5919409,37.7752206],[31.5927898,37.780413],[31.5885395,37.7873509],[31.5959036,37.7942128],[31.596635,37.8026951],[31.5942045,37.8045493],[31.5963285,37.8069212],[31.5935318,37.8065088],[31.5918423,37.8110067],[31.5929899,37.816479],[31.5909028,37.8144651],[31.5903524,37.8174748],[31.5870184,37.8166836],[31.5845346,37.823747],[31.5783563,37.8226438],[31.578277,37.8258974],[31.5718532,37.8304241],[31.5755297,37.850498],[31.5649304,37.8607069],[31.5467127,37.8678577],[31.5412193,37.8736308],[31.5237171,37.8786279],[31.5133206,37.8767521],[31.5050523,37.88651],[31.5069449,37.888854],[31.5022409,37.9002409],[31.4856603,37.9182984],[31.4533589,37.9326534],[31.4450475,37.954623],[31.435657,37.9574877],[31.4377903,37.9644817],[31.4332415,37.9697092],[31.4208326,37.9740314],[31.4051264,37.9689699],[31.3862649,37.9483905],[31.3598286,37.9560576],[31.3563383,37.9545746],[31.3571168,37.957022],[31.3530662,37.954452],[31.3445831,37.956872],[31.3371834,37.9466282],[31.334306,37.9549854],[31.3292474,37.9582645],[31.3233653,37.9525437],[31.3306055,37.9377923],[31.3293841,37.9332573],[31.3185581,37.9380314],[31.311467,37.9322699],[31.3093051,37.9261768]],[[31.3405488,37.9420823],[31.3406508,37.9424389],[31.3410521,37.9417729],[31.3405488,37.9420823]],[[31.3475347,37.8987253],[31.3565449,37.9061381],[31.3768076,37.9055095],[31.3731135,37.8923903],[31.3820154,37.8904655],[31.3847423,37.8831977],[31.3838746,37.8686217],[31.3783392,37.8672842],[31.3616437,37.8801097],[31.3484497,37.8927602],[31.3475347,37.8987253]],[[31.3499577,37.8843796],[31.3494481,37.885412],[31.3504356,37.8852971],[31.3499577,37.8843796]],[[31.3789066,37.8626991],[31.3815652,37.8650209],[31.386535,37.8622525],[31.3842179,37.860272],[31.3789066,37.8626991]],[[31.4058694,37.815517],[31.406508,37.8290932],[31.4105368,37.8300324],[31.4191918,37.8244917],[31.4210413,37.8282228],[31.4253865,37.8274984],[31.4293942,37.8224905],[31.4279011,37.8184019],[31.4222889,37.8212199],[31.4150824,37.8092906],[31.4058694,37.815517]],[[31.4245241,37.9680432],[31.4253502,37.9692596],[31.425764,37.9684133],[31.4245241,37.9680432]],[[31.4316434,37.8267357],[31.4352474,37.8302511],[31.4433995,37.8297276],[31.4497805,37.8241987],[31.4470153,37.8114716],[31.4417828,37.8097236],[31.4316434,37.8267357]],[[31.4397034,37.7772828],[31.4389658,37.7785993],[31.4411169,37.7781838],[31.4397034,37.7772828]],[[31.4390922,37.749032],[31.438894,37.7492976],[31.4393175,37.7493382],[31.4390922,37.749032]],[[31.4422032,37.8337442],[31.4450259,37.8366843],[31.4538145,37.834304],[31.4596102,37.8306343],[31.4599691,37.8270571],[31.4541762,37.8253395],[31.4422032,37.8337442]],[[31.4539586,37.6911204],[31.4568917,37.6925244],[31.4584263,37.6912418],[31.4565254,37.6896831],[31.4539586,37.6911204]],[[31.4598597,37.6871857],[31.4642329,37.6889618],[31.4671649,37.6860044],[31.4641095,37.6856339],[31.4598597,37.6871857]],[[31.4612013,37.7803229],[31.4618071,37.7809454],[31.4620301,37.7807511],[31.4612013,37.7803229]],[[31.4694602,37.6192846],[31.4675736,37.629433],[31.4736223,37.632845],[31.4766959,37.6275103],[31.4814152,37.6291671],[31.4887546,37.6251967],[31.4838965,37.6128007],[31.4739941,37.6102135],[31.4731646,37.6158095],[31.4706321,37.6152785],[31.4704056,37.6161231],[31.4738596,37.6198269],[31.4694602,37.6192846]],[[31.4714938,37.6384144],[31.4739699,37.6398111],[31.4757818,37.6381525],[31.4736215,37.6368261],[31.4714938,37.6384144]],[[31.4725984,37.6728859],[31.4727329,37.6739502],[31.4734653,37.6732978],[31.4725984,37.6728859]],[[31.47253,37.6704378],[31.4749867,37.6712372],[31.4767297,37.66846],[31.4761289,37.6682562],[31.47253,37.6704378]],[[31.4747975,37.6577577],[31.4745811,37.6616242],[31.4776738,37.6576228],[31.4747975,37.6577577]],[[31.508383,37.8684253],[31.5100336,37.8718045],[31.5107707,37.8720617],[31.5105549,37.8682795],[31.508383,37.8684253]],[[31.5107207,37.6247447],[31.5106867,37.6253466],[31.5126584,37.624935],[31.5107207,37.6247447]],[[31.5531692,37.7784935],[31.5537804,37.7866071],[31.5592315,37.7878093],[31.5558162,37.7842012],[31.5588506,37.7802425],[31.5531692,37.7784935]],[[31.6206474,37.7511827],[31.6230283,37.7557505],[31.6276568,37.7513801],[31.6280231,37.7398342],[31.6206474,37.7511827]],[[31.6292513,37.7351254],[31.6300695,37.7370713],[31.6301932,37.7368944],[31.6292513,37.7351254]],[[31.6348916,37.7573493],[31.6357836,37.7603409],[31.6363992,37.7577549],[31.6348916,37.7573493]],[[31.6530761,37.693891],[31.6530268,37.6966769],[31.6547995,37.6952158],[31.6530761,37.693891]],[[31.7190534,37.6793819],[31.7195296,37.6796887],[31.7196275,37.679543],[31.7190534,37.6793819]]]}},{"type":"Feature","properties":{"id":"egirdir","name":"Eğirdir Gölü"},"geometry":{"type":"Polygon","coordinates":[[[30.7469009,38.1904313],[30.7611089,38.1740211],[30.7526177,38.149039],[30.7660286,38.1408311],[30.7708155,38.1430999],[30.7728077,38.1391667],[30.7887043,38.1365597],[30.798331,38.131613],[30.8313551,38.128264],[30.8391182,38.1153197],[30.8386456,38.1059957],[30.8427443,38.1026411],[30.8483389,38.0787624],[30.8508539,38.0763904],[30.856314,38.0788802],[30.8479684,38.0598654],[30.8422615,38.0568791],[30.8373825,38.0458832],[30.8139243,38.0208757],[30.815763,37.9991506],[30.8080352,37.9924777],[30.7847925,37.9822081],[30.7764634,37.9722311],[30.772237,37.9613414],[30.7743162,37.9534307],[30.7717943,37.9414068],[30.7767177,37.9371239],[30.7769611,37.9312184],[30.7886233,37.9245101],[30.7951491,37.9268348],[30.8008502,37.92363],[30.8127142,37.9255416],[30.8075921,37.9162387],[30.809269,37.9133596],[30.8050431,37.9096177],[30.8138756,37.9028699],[30.8137429,37.8937988],[30.8219154,37.8899879],[30.8190651,37.8824402],[30.8277244,37.8827954],[30.8328666,37.8768426],[30.8430177,37.875012],[30.8701265,37.8849326],[30.8697851,37.8818071],[30.8593304,37.8794984],[30.8538753,37.8749075],[30.8574223,37.8751548],[30.8504043,37.8730631],[30.8473565,37.8625208],[30.8581425,37.8481474],[30.8660997,37.8443409],[30.8647602,37.8418739],[30.8667758,37.8442727],[30.8884707,37.8442147],[30.8860211,37.8455382],[30.8902737,37.8537219],[30.8991075,37.856785],[30.9001473,37.8644432],[30.9053464,37.8710028],[30.901899,37.8864283],[30.9035674,37.9063634],[30.9319589,37.9367391],[30.9329995,37.9429167],[30.9424376,37.9450139],[30.9433445,37.952201],[30.9562594,37.9610771],[30.9623593,37.9707006],[30.9603775,37.9797629],[30.9694732,37.9938676],[30.9679491,38.0047814],[30.952969,38.0142143],[30.9530528,38.0236243],[30.9453741,38.0317215],[30.9483609,38.0481896],[30.9338649,38.073983],[30.9397289,38.0894958],[30.9355634,38.0918295],[30.9415273,38.093208],[30.9394171,38.097835],[30.9317042,38.1015353],[30.9183061,38.118255],[30.9043799,38.127396],[30.8774454,38.1345344],[30.8461177,38.136542],[30.8379639,38.1418345],[30.8397573,38.1501507],[30.8490823,38.1586994],[30.8684749,38.1906081],[30.8658143,38.2078708],[30.8688422,38.2170897],[30.8955409,38.2506814],[30.8956334,38.2598551],[30.890497,38.2634733],[30.8854532,38.2588814],[30.8879167,38.2695636],[30.8841924,38.2744368],[30.8748436,38.2765946],[30.8576049,38.2707469],[30.8183911,38.2668733],[30.7931659,38.256774],[30.7690519,38.2414392],[30.7595515,38.2318491],[30.758096,38.2218164],[30.753772,38.2123228],[30.7503978,38.2115884],[30.7542079,38.2122264],[30.7491907,38.2047392],[30.7469009,38.1904313]],[[30.821075,37.8905775],[30.8209284,37.8908126],[30.8210566,37.8908423],[30.821075,37.8905775]],[[30.821754,37.8907289],[30.8219922,37.8910422],[30.8221276,37.8908284],[30.821754,37.8907289]],[[30.8288303,38.1306486],[30.8282763,38.1320158],[30.8290507,38.1317572],[30.8288303,38.1306486]]]}},{"type":"Feature","properties":{"id":"iznik","name":"İznik Gölü"},"geometry":{"type":"Polygon","coordinates":[[[29.3359388,40.4598749],[29.3430836,40.4321326],[29.3532103,40.419943],[29.3613011,40.4152453],[29.3790259,40.4130877],[29.4051752,40.4190006],[29.4127976,40.4243267],[29.4291262,40.417468],[29.437997,40.4055576],[29.4554721,40.3949031],[29.4672451,40.3918447],[29.4927335,40.3916471],[29.5129748,40.3866767],[29.5216591,40.3893241],[29.543908,40.384033],[29.5601432,40.3856276],[29.5700121,40.3819991],[29.5836426,40.385316],[29.5909543,40.3825948],[29.6052336,40.383792],[29.6208867,40.3896258],[29.6368124,40.3854713],[29.6546169,40.3906507],[29.6611575,40.3962872],[29.6768432,40.3931093],[29.6910018,40.3984025],[29.6954549,40.4047876],[29.701469,40.4072465],[29.7163129,40.4362109],[29.7146887,40.4454973],[29.7108437,40.4487336],[29.7029506,40.4495081],[29.6949494,40.4445446],[29.6773305,40.4476906],[29.6760512,40.452178],[29.6634684,40.4584222],[29.6599571,40.4633751],[29.6607011,40.4691818],[29.646998,40.4757899],[29.6429466,40.4844183],[29.6318838,40.4916254],[29.6213778,40.4931273],[29.5760647,40.4783661],[29.5651337,40.4829377],[29.5575652,40.4784478],[29.5350274,40.4834489],[29.5093008,40.4832254],[29.4857646,40.4898521],[29.4774979,40.4950965],[29.468333,40.4956703],[29.4627817,40.4927638],[29.448813,40.4980322],[29.4079354,40.50393],[29.3927092,40.5025161],[29.3775111,40.4961205],[29.370304,40.4870382],[29.3447547,40.4790839],[29.3372579,40.4714837],[29.3359388,40.4598749]]]}},{"type":"Feature","properties":{"id":"manyas","name":"Manyas Kuşgölü"},"geometry":{"type":"Polygon","coordinates":[[[27.8453153,40.1672774],[27.8795189,40.1485779],[27.8874582,40.1485943],[27.8865623,40.1447398],[27.8992599,40.1395687],[27.916882,40.1416437],[27.9296333,40.1551014],[27.9367733,40.1534286],[27.9428834,40.164084],[27.9546958,40.1599311],[27.9545027,40.1568562],[27.9893017,40.1502386],[28.025372,40.1488444],[28.0482491,40.1387555],[28.061083,40.1432595],[28.0628908,40.1514318],[28.064881,40.1509889],[28.066088,40.1515507],[28.0542058,40.1682838],[28.0583766,40.1734732],[28.0544069,40.1825128],[28.0558768,40.196161],[28.052001,40.2010472],[28.0581728,40.20395],[28.0553591,40.2044048],[28.0571133,40.2071641],[28.0590713,40.2048145],[28.0603909,40.2067749],[28.057698,40.2081556],[28.0610749,40.2112097],[28.0608577,40.2134362],[28.0588916,40.2171721],[28.0484122,40.2282557],[28.0306131,40.2301479],[28.0314392,40.2340631],[28.0272335,40.2391697],[28.0033296,40.245148],[27.9898006,40.2435347],[27.9814106,40.2366348],[27.9527003,40.2439319],[27.9426312,40.2385677],[27.9232281,40.2376054],[27.9189795,40.2339607],[27.9192424,40.2246515],[27.9162812,40.2205228],[27.90883,40.2143005],[27.9017329,40.2162955],[27.8974736,40.2101794],[27.8868359,40.2042143],[27.8778505,40.1921474],[27.8716332,40.1911967],[27.8734946,40.1823816],[27.8556204,40.1768486],[27.8453153,40.1672774]],[[28.0451399,40.1412419],[28.0448288,40.1421646],[28.0454832,40.1416766],[28.0451399,40.1412419]],[[28.0503058,40.144301],[28.0552357,40.1498982],[28.0563301,40.1492955],[28.0535889,40.1441575],[28.0503058,40.144301]],[[28.0608764,40.2116419],[28.0594227,40.2130409],[28.0605197,40.2133952],[28.0608764,40.2116419]],[[28.0608737,40.1457732],[28.0606806,40.1468762],[28.0615014,40.1464211],[28.0608737,40.1457732]]]}},{"type":"Feature","properties":{"id":"cildir","name":"Çıldır Gölü"},"geometry":{"type":"Polygon","coordinates":[[[43.1366041,41.0691476],[43.148181,41.0608052],[43.152532,41.0493406],[43.1640138,41.0461394],[43.1643843,41.0407412],[43.1769146,41.0347851],[43.1985185,41.0346844],[43.22045,41.0208715],[43.2268376,41.0146068],[43.2312823,41.0021584],[43.242038,40.9964815],[43.2518333,40.9749521],[43.2646336,40.9742468],[43.265911,40.9701348],[43.2713364,40.9685693],[43.281001,40.9700094],[43.2802159,40.9669627],[43.2738966,40.965066],[43.2747294,40.9567146],[43.2807979,40.9435309],[43.2931199,40.9339929],[43.2849969,40.9409952],[43.2848663,40.94993],[43.288821,40.9588346],[43.2791658,40.9661192],[43.2847324,40.9658688],[43.2905511,40.9725893],[43.294405,40.9937353],[43.2992425,40.9992691],[43.3021483,41.0163479],[43.3055111,41.0194913],[43.3022203,41.0328398],[43.2985293,41.0301026],[43.2892919,41.0364514],[43.2950509,41.0439532],[43.3116896,41.0531245],[43.3116137,41.0605289],[43.3062541,41.0629972],[43.3101482,41.0643613],[43.321051,41.057946],[43.3268045,41.06459],[43.324353,41.0669722],[43.3278357,41.0680819],[43.3269878,41.071036],[43.3143184,41.0707127],[43.3100346,41.076197],[43.3141947,41.0774428],[43.3119455,41.0792497],[43.2925899,41.0793101],[43.2901112,41.0745081],[43.2825756,41.0720138],[43.2853076,41.0768286],[43.2839366,41.0795677],[43.2943012,41.0796487],[43.2933944,41.0840602],[43.2971386,41.0876999],[43.2912965,41.092611],[43.2811953,41.0949174],[43.274144,41.1028307],[43.2650553,41.1047631],[43.2400307,41.0991783],[43.2381917,41.0951642],[43.1844192,41.0827548],[43.1747039,41.0856612],[43.1489663,41.0834539],[43.1418554,41.0791823],[43.1366041,41.0691476]],[[43.2793293,41.0717457],[43.2804271,41.0738373],[43.2811028,41.0734793],[43.2793293,41.0717457]],[[43.27995,41.0747621],[43.280187,41.0754751],[43.2802675,41.0754413],[43.27995,41.0747621]],[[43.2819325,41.0762844],[43.2820109,41.0765867],[43.2822047,41.0765564],[43.2819325,41.0762844]],[[43.2834265,41.0765716],[43.2833142,41.0775919],[43.2840233,41.0770841],[43.2834265,41.0765716]],[[43.2947008,40.9985684],[43.2941563,40.9998113],[43.2953502,41.0005398],[43.2947008,40.9985684]]]}},{"type":"Feature","properties":{"id":"sapanca","name":"Sapanca Gölü"},"geometry":{"type":"Polygon","coordinates":[[[30.1486757,40.7145088],[30.1522837,40.7117114],[30.1747371,40.7137198],[30.1946501,40.7047516],[30.2500176,40.7031778],[30.2652156,40.7003923],[30.2744666,40.693368],[30.282013,40.6931642],[30.3174275,40.7067536],[30.3242494,40.7144452],[30.3248204,40.7276142],[30.3315166,40.7319317],[30.3079819,40.7388805],[30.2861602,40.7367001],[30.277297,40.7413963],[30.2677756,40.7357519],[30.2627648,40.7375909],[30.2398883,40.7348431],[30.2348404,40.7325998],[30.2332374,40.728004],[30.2056288,40.7319429],[30.1969695,40.726467],[30.1607256,40.7189203],[30.158321,40.7161993],[30.1514865,40.7175109],[30.1486757,40.7145088]]]}},{"type":"Feature","properties":{"id":"uluabat","name":"Uluabat Gölü"},"geometry":{"type":"MultiPolygon","coordinates":[[[[28.4559589,40.1984191],[28.4584137,40.1926104],[28.4645591,40.1892534],[28.4987026,40.1817389],[28.4938446,40.1716265],[28.4988277,40.1736659],[28.506846,40.1700711],[28.5178861,40.1713306],[28.5270375,40.1684836],[28.5497626,40.1735706],[28.5529443,40.1687746],[28.5621091,40.1672251],[28.56232,40.1661054],[28.5590325,40.1652707],[28.5593407,40.1643576],[28.5640232,40.1655641],[28.5652181,40.1602006],[28.5630175,40.1610436],[28.5614765,40.15525],[28.5734952,40.1447029],[28.5703063,40.1418454],[28.575528,40.1370802],[28.5913473,40.1289263],[28.5890062,40.1256998],[28.5996327,40.1242412],[28.601232,40.1267164],[28.6022436,40.124278],[28.6323407,40.1202483],[28.6737426,40.1330434],[28.6763617,40.1378043],[28.687469,40.1416801],[28.6883485,40.1522312],[28.6936405,40.1556525],[28.6998278,40.1556492],[28.7045925,40.1597783],[28.717453,40.1584849],[28.7161743,40.165548],[28.7205644,40.168212],[28.7238018,40.1767717],[28.710043,40.1840498],[28.7080545,40.1909159],[28.7038585,40.1919251],[28.700402,40.189789],[28.7003983,40.1854367],[28.6865384,40.1797181],[28.6851581,40.1743884],[28.6884085,40.170281],[28.6764543,40.1637536],[28.6815252,40.1723591],[28.6813183,40.1751482],[28.6771553,40.1759675],[28.6785799,40.1818575],[28.6766283,40.186842],[28.671159,40.1873702],[28.6615146,40.1763447],[28.6411531,40.1866862],[28.6381304,40.194961],[28.6295894,40.1956745],[28.6289139,40.1928664],[28.6197436,40.196534],[28.6151207,40.195646],[28.6148719,40.1854108],[28.6112276,40.1849151],[28.5954236,40.2010715],[28.5605215,40.2140625],[28.5275752,40.2151472],[28.5189712,40.2094262],[28.5088707,40.2083891],[28.4744478,40.2186449],[28.4622028,40.2173722],[28.4579348,40.2152829],[28.4589368,40.2108318],[28.4659839,40.2056302],[28.4559589,40.1984191]],[[28.5483682,40.1740301],[28.5483439,40.174466],[28.5489781,40.1741623],[28.5483682,40.1740301]],[[28.5699532,40.1734835],[28.5985657,40.1746824],[28.6159388,40.1782145],[28.6062017,40.1716768],[28.5985957,40.1721931],[28.5943138,40.170264],[28.59646,40.1685317],[28.5835211,40.1666725],[28.5699532,40.1734835]],[[28.57714,40.1929956],[28.5781233,40.1946526],[28.5794091,40.1932251],[28.57714,40.1929956]],[[28.630927,40.1530872],[28.6304311,40.1538387],[28.6313611,40.1534795],[28.630927,40.1530872]],[[28.6328984,40.1598718],[28.6354358,40.1640648],[28.6381066,40.1651662],[28.6358964,40.1547744],[28.6328984,40.1598718]],[[28.6445435,40.1700195],[28.6451268,40.1703842],[28.6451533,40.1700397],[28.6445435,40.1700195]],[[28.6496837,40.1625349],[28.6494446,40.1632569],[28.6498024,40.1630468],[28.6496837,40.1625349]],[[28.65113,40.1672149],[28.6541475,40.1727836],[28.6600175,40.1700792],[28.6555089,40.1668972],[28.65113,40.1672149]],[[28.6646258,40.1731304],[28.6649702,40.1768558],[28.667234,40.173508],[28.6646258,40.1731304]],[[28.6773754,40.1794357],[28.6776788,40.1803936],[28.6776042,40.1793597],[28.6773754,40.1794357]]],[[[28.5689231,40.1336459],[28.5670005,40.1280941],[28.571086,40.1323728],[28.5752574,40.1316772],[28.5689231,40.1336459]]]]}},{"type":"Feature","properties":{"id":"hazar","name":"Hazar Gölü"},"geometry":{"type":"Polygon","coordinates":[[[39.2968592,38.4676059],[39.3028166,38.4617694],[39.3054737,38.45181],[39.3110473,38.4511487],[39.3202119,38.4421828],[39.3327459,38.4425139],[39.3365683,38.4459104],[39.3448386,38.4456243],[39.3559456,38.4502457],[39.369186,38.4583897],[39.4016571,38.4638025],[39.4097842,38.4695857],[39.4488332,38.4786251],[39.484925,38.4947588],[39.4906805,38.4932054],[39.5009189,38.4968716],[39.5060896,38.4994505],[39.5072155,38.5025871],[39.5024624,38.5054778],[39.5116058,38.5132449],[39.5109075,38.5176918],[39.5004222,38.5239505],[39.4707073,38.5239598],[39.4633807,38.5276672],[39.4330537,38.525069],[39.4139584,38.5179336],[39.3921366,38.5016635],[39.3665994,38.4913134],[39.3492662,38.491572],[39.3365127,38.4807769],[39.3292689,38.4853955],[39.3146865,38.4823626],[39.311304,38.4795387],[39.3135004,38.4756274],[39.3005841,38.4734312],[39.2968592,38.4676059]],[[39.3140371,38.4727436],[39.3141591,38.4732355],[39.3141983,38.4727905],[39.3140371,38.4727436]],[[39.3632949,38.4591895],[39.3650936,38.4604766],[39.3681527,38.461273],[39.3674753,38.4595277],[39.3632949,38.4591895]],[[39.495881,38.50239],[39.496025,38.5029368],[39.4977969,38.5026357],[39.495881,38.50239]]]}},{"type":"Feature","properties":{"id":"nazik","name":"Nazik Gölü"},"geometry":{"type":"Polygon","coordinates":[[[42.2146889,38.8609692],[42.2176577,38.8524127],[42.250396,38.8396015],[42.253602,38.8424206],[42.2528944,38.8387993],[42.2577765,38.8367983],[42.2621223,38.8400589],[42.2715638,38.8372998],[42.2736134,38.8404784],[42.2832622,38.8421671],[42.3247258,38.8414572],[42.3458905,38.8502082],[42.3451179,38.8558024],[42.335661,38.8645153],[42.3378538,38.868564],[42.3436508,38.8701792],[42.3430397,38.874948],[42.3404221,38.87868],[42.3349239,38.878389],[42.330109,38.8953126],[42.3144825,38.9033908],[42.3077199,38.9026406],[42.2989516,38.8888203],[42.2846529,38.8784891],[42.2599357,38.8711397],[42.2328098,38.8685533],[42.2146889,38.8609692]]]}},{"type":"Feature","properties":{"id":"ercek","name":"Erçek Gölü"},"geometry":{"type":"Polygon","coordinates":[[[43.5157896,38.5985967],[43.5259263,38.5945446],[43.5341287,38.5959216],[43.5393561,38.6032224],[43.5375604,38.6085967],[43.5422827,38.6107133],[43.5519531,38.6046179],[43.5790716,38.6061795],[43.5905199,38.6146071],[43.6014587,38.6333354],[43.6102509,38.6353727],[43.6205842,38.6482997],[43.6288992,38.6486281],[43.6269055,38.6477703],[43.634264,38.6445783],[43.6411875,38.6481138],[43.6419486,38.652109],[43.6354349,38.665082],[43.622632,38.6819232],[43.6354295,38.6948102],[43.6492214,38.6979374],[43.6449721,38.7064087],[43.6082135,38.7259773],[43.5934107,38.7248249],[43.58052,38.7330937],[43.5651402,38.7320836],[43.5515585,38.7392461],[43.538821,38.7365438],[43.5304824,38.7157605],[43.5358561,38.701587],[43.5281559,38.6936015],[43.5267927,38.6866655],[43.5412077,38.6198586],[43.53369,38.6068696],[43.5208596,38.604663],[43.5157896,38.5985967]],[[43.5378527,38.7277473],[43.5380745,38.7285317],[43.5383991,38.728089],[43.5378527,38.7277473]]]}},{"type":"Feature","properties":{"id":"burdur","name":"Burdur Gölü"},"geometry":{"type":"Polygon","coordinates":[[[30.0609772,37.6670523],[30.0813657,37.655545],[30.0943979,37.6610822],[30.1120859,37.6580802],[30.1195197,37.6626783],[30.1200563,37.6685317],[30.1263068,37.6745627],[30.1787056,37.688358],[30.2156712,37.7137869],[30.2225124,37.7149258],[30.2310444,37.733647],[30.2334188,37.7311264],[30.2415345,37.7380943],[30.2405064,37.7488213],[30.2582042,37.7808901],[30.2261494,37.7879717],[30.1986963,37.7850014],[30.1682911,37.770188],[30.1502818,37.7568034],[30.124959,37.7458367],[30.1141337,37.7331105],[30.092557,37.7188675],[30.0881011,37.7064327],[30.0778044,37.6984196],[30.0815042,37.6914256],[30.0811523,37.6819805],[30.0609772,37.6670523]]]}},{"type":"Feature","properties":{"id":"aksehir","name":"Akşehir Gölü"},"geometry":{"type":"Polygon","coordinates":[[[31.3515748,38.5133757],[31.3529098,38.5075254],[31.3645318,38.4961367],[31.3662082,38.4921053],[31.3633624,38.4903607],[31.3727299,38.4745668],[31.3864644,38.4730213],[31.3873494,38.463559],[31.3934318,38.4665839],[31.3954712,38.464268],[31.3933132,38.4595609],[31.3994313,38.4591931],[31.3990708,38.4626575],[31.4043921,38.4613159],[31.4071548,38.4639496],[31.4042806,38.4680844],[31.4080882,38.4711654],[31.4242405,38.4633762],[31.4282303,38.4678516],[31.4365531,38.4672825],[31.4477339,38.4726774],[31.4583716,38.4902662],[31.4563894,38.4932347],[31.4600211,38.4936881],[31.4632224,38.4998588],[31.457463,38.5051974],[31.4661109,38.5148549],[31.462614,38.521028],[31.4663565,38.5239537],[31.467188,38.5307523],[31.4723003,38.5342353],[31.4649014,38.5401687],[31.4641622,38.5454402],[31.4573443,38.5473599],[31.4531101,38.5703217],[31.4472377,38.5720418],[31.4366994,38.5672192],[31.4405242,38.5727003],[31.4372653,38.5747826],[31.4206443,38.5595677],[31.4167694,38.5588204],[31.4162643,38.5616911],[31.4100301,38.5596977],[31.3909002,38.5425404],[31.3877198,38.5354897],[31.3832295,38.5366879],[31.3673622,38.5255902],[31.358942,38.5250916],[31.3515748,38.5133757]],[[31.3575249,38.509808],[31.3577316,38.5116876],[31.3586072,38.5104979],[31.3575249,38.509808]],[[31.3605056,38.5219407],[31.3603957,38.5236093],[31.3613024,38.5224859],[31.3605056,38.5219407]],[[31.3630244,38.5223741],[31.3630123,38.5236327],[31.3642387,38.5230351],[31.3630244,38.5223741]],[[31.365172,38.523035],[31.3662689,38.5246441],[31.3660866,38.5232059],[31.365172,38.523035]],[[31.3663521,38.5239113],[31.3695628,38.5255095],[31.3708323,38.5232902],[31.3680342,38.5214426],[31.3663521,38.5239113]],[[31.3703777,38.5187022],[31.3700129,38.5209214],[31.3726355,38.5194115],[31.3703777,38.5187022]],[[31.373538,38.5213023],[31.3738144,38.5229377],[31.3747571,38.5220726],[31.373538,38.5213023]],[[31.3740361,38.5180336],[31.3747095,38.5190506],[31.375056,38.5182364],[31.3740361,38.5180336]],[[31.4347219,38.5087718],[31.4388907,38.5131964],[31.4440323,38.5104724],[31.4418124,38.507922],[31.4347219,38.5087718]],[[31.4409406,38.5023976],[31.4472695,38.5062548],[31.4536375,38.4980965],[31.447585,38.4942766],[31.4409406,38.5023976]]]}},{"type":"Feature","properties":{"id":"eber","name":"Eber Gölü"},"geometry":{"type":"Polygon","coordinates":[[[31.0705901,38.6295693],[31.0832441,38.6230557],[31.0827765,38.6206699],[31.0922152,38.6195865],[31.0951755,38.6100806],[31.1042577,38.6098806],[31.1090232,38.6045427],[31.1133244,38.6066904],[31.1124212,38.6159968],[31.1148235,38.6191967],[31.1192518,38.613446],[31.1387476,38.6158838],[31.1472756,38.6153238],[31.1508268,38.6118616],[31.154995,38.6156466],[31.1731102,38.6170531],[31.1810361,38.6212852],[31.2285733,38.6174321],[31.2200975,38.622537],[31.2334825,38.6323868],[31.2368989,38.6448413],[31.2328732,38.6525086],[31.2345843,38.6556569],[31.2205378,38.6585789],[31.2250006,38.6654954],[31.2222272,38.6680839],[31.2084514,38.6554714],[31.2043208,38.6635204],[31.2097048,38.6732991],[31.2043796,38.6865812],[31.1988652,38.6941479],[31.1869776,38.6961994],[31.1813235,38.6909406],[31.1811411,38.6815819],[31.1738808,38.6847824],[31.1726359,38.6804491],[31.1682358,38.6849402],[31.1660672,38.6794799],[31.161049,38.6784849],[31.1613223,38.6736134],[31.1491082,38.6709583],[31.143366,38.6615449],[31.1359234,38.6569008],[31.1135066,38.6534564],[31.1028086,38.6471638],[31.0986376,38.6489096],[31.0998783,38.6452135],[31.0949832,38.6446877],[31.095983,38.642179],[31.0925223,38.643524],[31.090453,38.6398986],[31.0818739,38.6423183],[31.0820417,38.6384113],[31.0712081,38.6359179],[31.0765824,38.6338842],[31.0705901,38.6295693]]]}},{"type":"Feature","properties":{"id":"acigol","name":"Acıgöl"},"geometry":{"type":"Polygon","coordinates":[[[29.8285522,37.8178555],[29.8385581,37.8187509],[29.8525417,37.8124213],[29.8883057,37.8130091],[29.9037576,37.8188706],[29.9280345,37.836183],[29.9137845,37.8462437],[29.9085089,37.8465122],[29.8488048,37.8308902],[29.8460642,37.8254937],[29.8407632,37.8256701],[29.8285522,37.8178555]]]}},{"type":"Feature","properties":{"id":"salda","name":"Salda Gölü"},"geometry":{"type":"Polygon","coordinates":[[[29.6413678,37.5641542],[29.6479573,37.5573105],[29.6422065,37.5394567],[29.6504635,37.5347025],[29.6574882,37.5346643],[29.6577483,37.5302252],[29.6684262,37.5220589],[29.6825829,37.5202166],[29.6903338,37.5128211],[29.7055388,37.5093871],[29.7152925,37.5136449],[29.7234393,37.5233195],[29.7164186,37.5342279],[29.7189495,37.5432294],[29.7169125,37.5633619],[29.7109976,37.5718826],[29.6980945,37.5803592],[29.6829531,37.5854663],[29.664493,37.5847897],[29.6558627,37.578727],[29.6455143,37.5774395],[29.6417275,37.5728651],[29.6413678,37.5641542]]]}},{"type":"Feature","properties":{"id":"sugla","name":"Suğla Gölü"},"geometry":{"type":"Polygon","coordinates":[[[31.9548203,37.3408799],[31.9802055,37.3097836],[31.9924182,37.3018339],[32.0343183,37.2991818],[32.0513731,37.3036709],[32.0471654,37.3062998],[32.0342129,37.3419087],[32.0259661,37.3498815],[32.0114403,37.3572412],[31.9882205,37.3584195],[31.9548203,37.3408799]]]}}]}