{"type":"FeatureCollection","features":[{"type":"Feature","properties":{"id":"seyfe","name":"Seyfe Gölü","source":"OpenStreetMap"},"geometry":{"type":"Polygon","coordinates":[[[34.35713,39.20834],[34.35791,39.20614],[34.36217,39.20452],[34.37424,39.20401],[34.3781,39.20168],[34.38773,39.19488],[34.38885,39.18951],[34.38895,39.1816],[34.39696,39.18332],[34.4069,39.19073],[34.41136,39.19164],[34.41927,39.20016],[34.41998,39.20604],[34.41778,39.21273],[34.41189,39.21752],[34.4076,39.22151],[34.404,39.22882],[34.39576,39.23654],[34.3731,39.2481],[34.36949,39.24731],[34.37069,39.24225],[34.36795,39.24039],[34.36554,39.23361],[34.36537,39.22789],[34.36417,39.22111],[34.36108,39.21699],[34.35713,39.20834]]]}},{"type":"Feature","properties":{"id":"balik","name":"Balık Gölü","source":"OpenStreetMap"},"geometry":{"type":"Polygon","coordinates":[[[43.5295,39.74236],[43.54976,39.73656],[43.56898,39.73565],[43.57535,39.73849],[43.57988,39.73859],[43.58854,39.73993],[43.59756,39.74403],[43.59987,39.74985],[43.60299,39.75518],[43.59691,39.75888],[43.59493,39.76898],[43.58511,39.77572],[43.5798,39.78548],[43.57472,39.80132],[43.56937,39.80139],[43.56407,39.81876],[43.54816,39.82495],[43.53698,39.82591],[43.53637,39.81609],[43.53803,39.80693],[43.5406,39.79777],[43.54239,39.79115],[43.54907,39.78428],[43.55096,39.77485],[43.54893,39.76127],[43.53865,39.75117],[43.5295,39.74236]]]}},{"type":"Feature","properties":{"id":"hacli","name":"Haçlı Gölü","source":"OpenStreetMap"},"geometry":{"type":"Polygon","coordinates":[[[42.26807,39.01801],[42.27181,39.01351],[42.278,39.0102],[42.28505,39.00537],[42.28924,39.00086],[42.29727,38.99797],[42.30278,38.99889],[42.30724,38.9997],[42.31001,38.99997],[42.31378,39.00063],[42.31645,38.99982],[42.3192,39.00046],[42.32239,39.00371],[42.32645,39.00716],[42.33,39.01011],[42.33581,39.01365],[42.32564,39.02548],[42.31781,39.03222],[42.31144,39.03703],[42.30745,39.04539],[42.29795,39.04398],[42.29823,39.03812],[42.28664,39.03593],[42.27862,39.03648],[42.27312,39.03228],[42.27221,39.02497],[42.26807,39.01801]]]}},{"type":"Feature","properties":{"id":"kovada","name":"Kovada Gölü","source":"OpenStreetMap"},"geometry":{"type":"Polygon","coordinates":[[[30.86868,37.62741],[30.87038,37.62056],[30.87604,37.6206],[30.87833,37.61589],[30.8843,37.61226],[30.89164,37.61054],[30.89711,37.61168],[30.89691,37.61886],[30.89456,37.62477],[30.8917,37.62886],[30.88998,37.6345],[30.8857,37.64075],[30.88649,37.64585],[30.88926,37.64942],[30.88704,37.65229],[30.88306,37.65641],[30.88029,37.65715],[30.87407,37.65672],[30.87166,37.65504],[30.87028,37.64644],[30.87049,37.63838],[30.8744,37.63163],[30.87627,37.6243],[30.87348,37.62387],[30.87201,37.62589],[30.87232,37.62862],[30.86868,37.62741]]]}}]}
